,altimeter_set_1,wind_cardinal_direction_set_1d,wind_gust_set_1,cloud_layer_3_code_set_1,heat_index_set_1d,wind_direction_set_1,sea_level_pressure_set_1d,cloud_layer_1_code_set_1,weather_condition_set_1d,visibility_set_1,pressure_set_1d,metar_set_1,cloud_layer_2_code_set_1,relative_humidity_set_1,wind_speed_set_1,air_temp_set_1,date_time,ceiling_set_1,dew_point_temperature_set_1,dew_point_temperature_set_1d,metar_origin_set_1,weather_cond_code_set_1,_meta_station_id,_meta_elevation,_meta_longitude,_meta_latitude
0,100982.06,S,,,34.37,180.0,100925.13,1.0,"Smoke,Haze",4.0,100124.17,KCIC 010047Z 18007KT 4SM FUHZ SKC 35/14 A2982,,28.48,3.6,35.0,2018-08-01 00:47:00,,14.0,14.15,1.0,487.0,KCIC,236,-121.85795,39.79879
1,100914.33,SSW,,,33.3,200.0,100860.05,1.0,"Smoke,Haze",4.0,100057.01,KCIC 010147Z 20005KT 4SM FUHZ SKC 34/14 A2980,,30.1,2.57,34.0,2018-08-01 01:47:00,,14.0,14.13,1.0,487.0,KCIC,236,-121.85795,39.79879
2,100982.06,NE,,,32.42,50.0,100933.02,1.0,Clear,10.0,100124.17,KCIC 010315Z AUTO 05003KT 10SM CLR 32/17 A2982 RMK AO1,,40.8,1.54,32.0,2018-08-01 03:15:00,,17.0,17.07,1.0,,KCIC,236,-121.85795,39.79879
3,100982.06,E,,,31.61,80.0,100933.03,506.0,Mostly Clear,10.0,100124.17,KCIC 010335Z AUTO 08003KT 10SM FEW050 32/15 A2982 RMK AO1,,35.92,1.54,32.0,2018-08-01 03:35:00,,15.0,15.09,1.0,,KCIC,236,-121.85795,39.79879
4,100982.06,ENE,,,30.33,70.0,100935.7,502.0,Mostly Cloudy,10.0,100124.17,KCIC 010355Z AUTO 07003KT 10SM SCT050 BKN100 31/14 A2982 RMK AO1,1003.0,35.64,1.54,31.0,2018-08-01 03:55:00,3048.0,14.0,14.07,1.0,,KCIC,236,-121.85795,39.79879
5,101015.92,ENE,,,29.44,60.0,100972.23,502.0,Overcast,10.0,100157.74,KCIC 010415Z AUTO 06004KT 10SM SCT050 OVC100 30/14 A2983 RMK AO1,1004.0,37.73,2.06,30.0,2018-08-01 04:15:00,3048.0,14.0,14.06,1.0,,KCIC,236,-121.85795,39.79879
6,101015.92,N,,1004.0,29.44,0.0,100972.23,442.0,Overcast,10.0,100157.74,KCIC 010435Z AUTO 00000KT 10SM SCT044 BKN050 OVC100 30/14 A2983 RMK AO1,503.0,37.73,0.0,30.0,2018-08-01 04:35:00,1524.0,14.0,14.06,1.0,,KCIC,236,-121.85795,39.79879
7,101049.79,N,,,29.72,0.0,101006.08,446.0,Overcast,10.0,100191.32,KCIC 010455Z AUTO 00000KT 10SM FEW044 OVC050 30/15 A2984 RMK AO1,504.0,40.24,0.0,30.0,2018-08-01 04:55:00,1524.0,15.0,15.05,1.0,,KCIC,236,-121.85795,39.79879
8,101083.65,N,,,28.85,0.0,101042.63,504.0,Overcast,10.0,100224.89,KCIC 010515Z AUTO 00000KT 10SM OVC050 29/15 A2985 RMK AO1,,42.63,0.0,29.0,2018-08-01 05:15:00,1524.0,15.0,15.04,1.0,,KCIC,236,-121.85795,39.79879
9,101083.65,SE,,,27.83,140.0,101045.36,604.0,Overcast,10.0,100224.89,KCIC 010535Z AUTO 14003KT 10SM OVC060 28/14 A2985 RMK AO1,,42.34,1.54,28.0,2018-08-01 05:35:00,1828.8,14.0,14.02,1.0,,KCIC,236,-121.85795,39.79879
10,101083.65,E,,,28.6,100.0,101042.63,604.0,Overcast,10.0,100224.89,KCIC 010555Z AUTO 10003KT 10SM OVC060 29/14 A2985 RMK AO1,,39.96,1.54,29.0,2018-08-01 05:55:00,1828.8,14.0,14.04,1.0,,KCIC,236,-121.85795,39.79879
11,101083.65,N,,,27.83,0.0,101045.36,604.0,Overcast,10.0,100224.89,KCIC 010615Z AUTO 00000KT 10SM OVC060 28/14 A2985 RMK AO1,,42.34,0.0,28.0,2018-08-01 06:15:00,1828.8,14.0,14.02,1.0,,KCIC,236,-121.85795,39.79879
12,101083.65,ENE,,,27.83,70.0,101045.36,604.0,Overcast,10.0,100224.89,KCIC 010635Z AUTO 07003KT 10SM OVC060 28/14 A2985 RMK AO1,,42.34,1.54,28.0,2018-08-01 06:35:00,1828.8,14.0,14.02,1.0,,KCIC,236,-121.85795,39.79879
13,101117.52,N,,,27.83,0.0,101079.22,604.0,Overcast,10.0,100258.48,KCIC 010655Z AUTO 00000KT 10SM OVC060 28/14 A2986 RMK AO1,,42.34,0.0,28.0,2018-08-01 06:55:00,1828.8,14.0,14.02,1.0,,KCIC,236,-121.85795,39.79879
14,101117.52,N,,,27.12,0.0,101081.96,604.0,Overcast,10.0,100258.48,KCIC 010715Z AUTO 00000KT 10SM OVC060 27/14 A2986 RMK AO1,,44.89,0.0,27.0,2018-08-01 07:15:00,1828.8,14.0,14.01,1.0,,KCIC,236,-121.85795,39.79879
15,101117.52,N,,,26.97,10.0,101081.97,604.0,Overcast,10.0,100258.48,KCIC 010735Z AUTO 01003KT 10SM OVC060 27/13 A2986 RMK AO1,,42.06,1.54,27.0,2018-08-01 07:35:00,1828.8,13.0,13.01,1.0,,KCIC,236,-121.85795,39.79879
16,101151.38,N,,,26.97,0.0,101115.81,604.0,Overcast,10.0,100292.05,KCIC 010755Z AUTO 00000KT 10SM OVC060 27/13 A2987 RMK AO1,,42.06,0.0,27.0,2018-08-01 07:55:00,1828.8,13.0,13.01,1.0,,KCIC,236,-121.85795,39.79879
17,101117.52,N,,,26.97,0.0,101081.97,604.0,Overcast,10.0,100258.48,KCIC 010815Z AUTO 00000KT 10SM OVC060 27/13 A2986 RMK AO1,,42.06,0.0,27.0,2018-08-01 08:15:00,1828.8,13.0,13.01,1.0,,KCIC,236,-121.85795,39.79879
18,101117.52,N,,,,0.0,101084.73,604.0,Overcast,10.0,100258.48,KCIC 010835Z AUTO 00000KT 10SM OVC060 26/14 A2986 RMK AO1,,47.61,0.0,26.0,2018-08-01 08:35:00,1828.8,14.0,14.0,1.0,,KCIC,236,-121.85795,39.79879
19,101083.65,N,,,26.83,0.0,101048.11,604.0,Overcast,10.0,100224.89,KCIC 010855Z AUTO 00000KT 10SM OVC060 27/12 A2985 RMK AO1,,39.39,0.0,27.0,2018-08-01 08:55:00,1828.8,12.0,12.02,1.0,,KCIC,236,-121.85795,39.79879
20,101117.52,WNW,,654.0,,300.0,101090.31,376.0,Overcast,10.0,100258.48,KCIC 010915Z AUTO 30003KT 10SM FEW037 BKN060 OVC065 24/13 A2986 RMK AO1,603.0,50.25,1.54,24.0,2018-08-01 09:15:00,1828.8,13.0,12.99,1.0,,KCIC,236,-121.85795,39.79879
21,101117.52,N,,604.0,,0.0,101090.31,376.0,Overcast,10.0,100258.48,KCIC 010935Z AUTO 00000KT 10SM FEW037 SCT045 OVC060 24/14 A2986 RMK AO1,452.0,53.62,0.0,24.0,2018-08-01 09:35:00,1828.8,14.0,13.99,1.0,,KCIC,236,-121.85795,39.79879
22,101151.38,N,,,,0.0,101121.36,603.0,Overcast,10.0,100292.05,KCIC 010955Z AUTO 00000KT 10SM BKN060 OVC070 25/13 A2987 RMK AO1,704.0,47.33,0.0,25.0,2018-08-01 09:55:00,1828.8,13.0,12.99,1.0,,KCIC,236,-121.85795,39.79879
23,101151.38,N,,,,0.0,101121.36,466.0,Overcast,10.0,100292.05,KCIC 011015Z AUTO 00000KT 10SM FEW046 OVC060 25/13 A2987 RMK AO1,604.0,47.33,0.0,25.0,2018-08-01 10:15:00,1828.8,13.0,12.99,1.0,,KCIC,236,-121.85795,39.79879
24,101151.38,N,,,,0.0,101121.36,504.0,Overcast,10.0,100292.05,KCIC 011035Z AUTO 00000KT 10SM OVC050 25/12 A2987 RMK AO1,,44.33,0.0,25.0,2018-08-01 10:35:00,1524.0,12.0,12.0,1.0,,KCIC,236,-121.85795,39.79879
25,101151.38,N,,,,0.0,101124.16,504.0,Overcast,10.0,100292.05,KCIC 011055Z AUTO 00000KT 10SM OVC050 24/12 A2987 RMK AO1,,47.06,0.0,24.0,2018-08-01 10:55:00,1524.0,12.0,11.99,1.0,,KCIC,236,-121.85795,39.79879
26,101185.24,N,,,,0.0,101158.01,504.0,Overcast,10.0,100325.62,KCIC 011115Z AUTO 00000KT 10SM OVC050 24/12 A2988 RMK AO1,,47.06,0.0,24.0,2018-08-01 11:15:00,1524.0,12.0,11.99,1.0,,KCIC,236,-121.85795,39.79879
27,101185.24,N,,,,0.0,101158.01,504.0,Overcast,10.0,100325.62,KCIC 011135Z AUTO 00000KT 10SM OVC050 24/12 A2988 RMK AO1,,47.06,0.0,24.0,2018-08-01 11:35:00,1524.0,12.0,11.99,1.0,,KCIC,236,-121.85795,39.79879
28,101185.24,N,,,,0.0,101158.01,484.0,Overcast,10.0,100325.62,KCIC 011155Z AUTO 00000KT 10SM OVC048 24/12 A2988 RMK AO1,,47.06,0.0,24.0,2018-08-01 11:55:00,1463.04,12.0,11.99,1.0,,KCIC,236,-121.85795,39.79879
29,101185.24,N,,,,0.0,101158.01,484.0,Overcast,10.0,100325.62,KCIC 011215Z AUTO 00000KT 10SM OVC048 24/12 A2988 RMK AO1,,47.06,0.0,24.0,2018-08-01 12:15:00,1463.04,12.0,11.99,1.0,,KCIC,236,-121.85795,39.79879
30,101219.11,E,,,,100.0,101194.69,483.0,Mostly Cloudy,10.0,100359.2,KCIC 011255Z AUTO 10003KT 10SM BKN048 23/12 A2989 RMK AO1,,49.97,1.54,23.0,2018-08-01 12:55:00,1463.04,12.0,11.98,1.0,,KCIC,236,-121.85795,39.79879
31,101219.11,E,,,,100.0,101194.7,1.0,Clear,10.0,100359.2,KCIC 011315Z AUTO 10003KT 10SM CLR 23/10 A2989 RMK AO1,,43.76,1.54,23.0,2018-08-01 13:15:00,,10.0,9.98,1.0,,KCIC,236,-121.85795,39.79879
32,101252.97,N,,,,0.0,101228.55,1.0,"Smoke,Haze",4.0,100392.78,KCIC 011350Z 00000KT 4SM FUHZ SKC 23/12 A2990,,49.97,0.0,23.0,2018-08-01 13:50:00,,12.0,11.98,1.0,487.0,KCIC,236,-121.85795,39.79879
33,101320.7,SE,,,,130.0,101290.64,1.0,Clear,7.0,100459.93,KCIC 011550Z 13005KT 7SM SKC 25/10 A2992 RMK FU ALQDS,,38.82,2.57,25.0,2018-08-01 15:50:00,,10.0,10.0,1.0,,KCIC,236,-121.85795,39.79879
34,101320.7,N,,,26.83,0.0,101285.08,1.0,Clear,9.0,100459.93,KCIC 011647Z 00000KT 9SM SKC 27/12 A2992 RMK FU ALQDS,,39.39,0.0,27.0,2018-08-01 16:47:00,,12.0,12.02,1.0,,KCIC,236,-121.85795,39.79879
35,101320.7,N,,,27.34,0.0,101282.33,1.0,Clear,9.0,100459.93,KCIC 011747Z 00000KT 9SM SKC 28/11 A2992 RMK FU ALQDS,,34.78,0.0,28.0,2018-08-01 17:47:00,,11.0,11.03,1.0,,KCIC,236,-121.85795,39.79879
36,101286.84,SSW,,,29.0,200.0,101243.04,1.0,Clear,9.0,100426.36,KCIC 011850Z 20006KT 9SM SKC 30/12 A2991 RMK FU ALQDS,,33.11,3.09,30.0,2018-08-01 18:50:00,,12.0,12.06,1.0,,KCIC,236,-121.85795,39.79879
37,101252.97,S,,,30.76,180.0,101203.82,1.0,Clear,9.0,100392.78,KCIC 011947Z 18005KT 9SM SKC 32/12 A2990 RMK FU ALQDS,,29.55,2.57,32.0,2018-08-01 19:47:00,,12.0,12.1,1.0,,KCIC,236,-121.85795,39.79879
38,101185.24,S,,,31.98,170.0,101133.46,1.0,"Smoke,Haze",4.0,100325.62,KCIC 012050Z 17007KT 4SM FUHZ SKC 33/13 A2988,,29.83,3.6,33.0,2018-08-01 20:50:00,,13.0,13.12,1.0,487.0,KCIC,236,-121.85795,39.79879
39,101117.52,SSE,,,32.72,160.0,101063.14,1.0,"Smoke,Haze",4.0,100258.48,KCIC 012155Z 16006KT 4SM FUHZ SKC 34/12 A2986,,26.42,3.09,34.0,2018-08-01 21:55:00,,12.0,12.14,1.0,487.0,KCIC,236,-121.85795,39.79879
40,101049.79,S,,,34.03,170.0,100992.82,1.0,"Smoke,Haze",4.0,100191.32,KCIC 012247Z 17011KT 4SM FUHZ SKC 35/13 A2984,,26.69,5.66,35.0,2018-08-01 22:47:00,,13.0,13.16,1.0,487.0,KCIC,236,-121.85795,39.79879
41,100982.06,S,,,32.99,170.0,100927.75,1.0,Clear,,100124.17,KCIC 012347Z 17010KT 4SMSM FU SKC 34/13 A2982,,28.21,5.14,34.0,2018-08-01 23:47:00,,13.0,13.14,1.0,,KCIC,236,-121.85795,39.79879
42,100948.2,S,,,31.98,180.0,100896.54,1.0,Clear,,100090.59,KCIC 020050Z 18008KT 4SMSM FU SKC 33/13 A2981,,29.83,4.12,33.0,2018-08-02 00:50:00,,13.0,13.12,1.0,,KCIC,236,-121.85795,39.79879
43,100948.2,SE,,,31.28,140.0,100899.18,1.0,Clear,,100090.59,KCIC 020147Z 14006KT 4SMSM FU SKC 32/14 A2981 RMK LAST,,33.67,3.09,32.0,2018-08-02 01:47:00,,14.0,14.09,1.0,,KCIC,236,-121.85795,39.79879
44,100982.06,SE,,,29.72,130.0,100938.38,1.0,Clear,10.0,100124.17,KCIC 020315Z AUTO 13006KT 10SM CLR 30/15 A2982 RMK AO1,,40.24,3.09,30.0,2018-08-02 03:15:00,,15.0,15.05,1.0,,KCIC,236,-121.85795,39.79879
45,100982.06,SE,,,29.44,130.0,100938.39,473.0,Mostly Cloudy,10.0,100124.17,KCIC 020335Z AUTO 13006KT 10SM BKN047 30/14 A2982 RMK AO1,,37.73,3.09,30.0,2018-08-02 03:35:00,1432.56,14.0,14.06,1.0,,KCIC,236,-121.85795,39.79879
46,100982.06,SE,,,28.85,140.0,100941.08,494.0,Overcast,10.0,100124.17,KCIC 020355Z AUTO 14007KT 10SM OVC049 29/15 A2982 RMK AO1,,42.63,3.6,29.0,2018-08-02 03:55:00,1493.52,15.0,15.04,1.0,,KCIC,236,-121.85795,39.79879
47,100982.06,ESE,,,29.44,120.0,100938.39,474.0,Overcast,10.0,100124.17,KCIC 020415Z AUTO 12005KT 10SM OVC047 30/14 A2982 RMK AO1,,37.73,2.57,30.0,2018-08-02 04:15:00,1432.56,14.0,14.06,1.0,,KCIC,236,-121.85795,39.79879
48,101015.92,ESE,,,28.39,110.0,100974.94,494.0,Overcast,10.0,100157.74,KCIC 020435Z AUTO 11003KT 10SM OVC049 29/13 A2983 RMK AO1,,37.44,1.54,29.0,2018-08-02 04:35:00,1493.52,13.0,13.04,1.0,,KCIC,236,-121.85795,39.79879
49,101015.92,SE,,,28.39,140.0,100974.94,494.0,Overcast,10.0,100157.74,KCIC 020455Z AUTO 14003KT 10SM OVC049 29/13 A2983 RMK AO1,,37.44,1.54,29.0,2018-08-02 04:55:00,1493.52,13.0,13.04,1.0,,KCIC,236,-121.85795,39.79879
50,101049.79,ESE,,,27.64,120.0,101011.52,494.0,Overcast,10.0,100191.32,KCIC 020515Z AUTO 12003KT 10SM OVC049 28/13 A2984 RMK AO1,,39.68,1.54,28.0,2018-08-02 05:15:00,1493.52,13.0,13.03,1.0,,KCIC,236,-121.85795,39.79879
51,101049.79,SE,,,26.97,140.0,101014.26,504.0,Overcast,10.0,100191.32,KCIC 020535Z AUTO 14006KT 10SM OVC050 27/13 A2984 RMK AO1,,42.06,3.09,27.0,2018-08-02 05:35:00,1524.0,13.0,13.01,1.0,,KCIC,236,-121.85795,39.79879
52,101049.79,ESE,,,27.34,120.0,101011.52,504.0,Overcast,10.0,100191.32,KCIC 020555Z AUTO 12005KT 10SM OVC050 28/11 A2984 RMK AO1,,34.78,2.57,28.0,2018-08-02 05:55:00,1524.0,11.0,11.03,1.0,,KCIC,236,-121.85795,39.79879
53,101049.79,N,,,27.34,0.0,101011.52,504.0,Overcast,10.0,100191.32,KCIC 020615Z AUTO 00000KT 10SM OVC050 28/11 A2984 RMK AO1,,34.78,0.0,28.0,2018-08-02 06:15:00,1524.0,11.0,11.03,1.0,,KCIC,236,-121.85795,39.79879
54,101083.65,S,,,26.66,170.0,101048.11,484.0,Overcast,10.0,100224.89,KCIC 020635Z AUTO 17003KT 10SM OVC048 27/10 A2985 RMK AO1,,34.5,1.54,27.0,2018-08-02 06:35:00,1463.04,10.0,10.02,1.0,,KCIC,236,-121.85795,39.79879
55,101083.65,SE,,,26.83,140.0,101048.11,484.0,Overcast,10.0,100224.89,KCIC 020655Z AUTO 14005KT 10SM OVC048 27/12 A2985 RMK AO1,,39.39,2.57,27.0,2018-08-02 06:55:00,1463.04,12.0,12.02,1.0,,KCIC,236,-121.85795,39.79879
56,101117.52,S,,,,170.0,101084.73,504.0,Overcast,10.0,100258.48,KCIC 020715Z AUTO 17003KT 10SM OVC050 26/12 A2986 RMK AO1,,41.78,1.54,26.0,2018-08-02 07:15:00,1524.0,12.0,12.01,1.0,,KCIC,236,-121.85795,39.79879
57,101117.52,S,,,,170.0,101084.73,504.0,Overcast,10.0,100258.48,KCIC 020735Z AUTO 17005KT 10SM OVC050 26/12 A2986 RMK AO1,,41.78,2.57,26.0,2018-08-02 07:35:00,1524.0,12.0,12.01,1.0,,KCIC,236,-121.85795,39.79879
58,101117.52,N,,,,0.0,101087.51,504.0,Overcast,10.0,100258.48,KCIC 020755Z AUTO 00000KT 10SM OVC050 25/12 A2986 RMK AO1,,44.33,0.0,25.0,2018-08-02 07:55:00,1524.0,12.0,12.0,1.0,,KCIC,236,-121.85795,39.79879
59,101117.52,N,,,,0.0,101087.51,504.0,Overcast,10.0,100258.48,KCIC 020815Z AUTO 00000KT 10SM OVC050 25/12 A2986 RMK AO1,,44.33,0.0,25.0,2018-08-02 08:15:00,1524.0,12.0,12.0,1.0,,KCIC,236,-121.85795,39.79879
60,101151.38,NNW,,,,330.0,101124.16,504.0,Overcast,10.0,100292.05,KCIC 020835Z AUTO 33003KT 10SM OVC050 24/12 A2987 RMK AO1,,47.06,1.54,24.0,2018-08-02 08:35:00,1524.0,12.0,11.99,1.0,,KCIC,236,-121.85795,39.79879
61,101185.24,NNE,,,,20.0,101155.21,26.0,Overcast,10.0,100325.62,KCIC 020855Z AUTO 02003KT 10SM FEW002 OVC050 25/11 A2988 RMK AO1,504.0,41.49,1.54,25.0,2018-08-02 08:55:00,1524.0,11.0,10.99,1.0,,KCIC,236,-121.85795,39.79879
62,101185.24,E,,,,90.0,101155.21,504.0,Overcast,10.0,100325.62,KCIC 020915Z AUTO 09003KT 10SM OVC050 25/11 A2988 RMK AO1,,41.49,1.54,25.0,2018-08-02 09:15:00,1524.0,11.0,10.99,1.0,,KCIC,236,-121.85795,39.79879
63,101185.24,ESE,,,,120.0,101155.22,604.0,Overcast,10.0,100325.62,KCIC 020935Z AUTO 12005KT 10SM OVC060 25/10 A2988 RMK AO1,,38.82,2.57,25.0,2018-08-02 09:35:00,1828.8,10.0,10.0,1.0,,KCIC,236,-121.85795,39.79879
64,101151.38,SSE,,,,160.0,101121.37,604.0,Overcast,10.0,100292.05,KCIC 020955Z AUTO 16004KT 10SM OVC060 25/09 A2987 RMK AO1,,36.3,2.06,25.0,2018-08-02 09:55:00,1828.8,9.0,9.0,1.0,,KCIC,236,-121.85795,39.79879
65,101151.38,N,,,,0.0,101124.17,604.0,Overcast,10.0,100292.05,KCIC 021015Z AUTO 00000KT 10SM OVC060 24/09 A2987 RMK AO1,,38.53,0.0,24.0,2018-08-02 10:15:00,1828.8,9.0,8.99,1.0,,KCIC,236,-121.85795,39.79879
66,101151.38,N,,,,0.0,101127.0,604.0,Overcast,10.0,100292.05,KCIC 021035Z AUTO 00000KT 10SM OVC060 23/08 A2987 RMK AO1,,38.24,0.0,23.0,2018-08-02 10:35:00,1828.8,8.0,7.98,1.0,,KCIC,236,-121.85795,39.79879
67,101185.24,E,,,,80.0,101160.85,603.0,Overcast,10.0,100325.62,KCIC 021055Z AUTO 08003KT 10SM BKN060 OVC080 23/07 A2988 RMK AO1,804.0,35.72,1.54,23.0,2018-08-02 10:55:00,1828.8,7.0,6.98,1.0,,KCIC,236,-121.85795,39.79879
68,101185.24,E,,,,90.0,101163.68,602.0,Overcast,10.0,100325.62,KCIC 021115Z AUTO 09004KT 10SM SCT060 OVC080 22/08 A2988 RMK AO1,804.0,40.63,2.06,22.0,2018-08-02 11:15:00,2438.4,8.0,7.97,1.0,,KCIC,236,-121.85795,39.79879
69,101185.24,E,,,,90.0,101163.68,804.0,Overcast,10.0,100325.62,KCIC 021135Z AUTO 09005KT 10SM OVC080 22/08 A2988 RMK AO1,,40.63,2.57,22.0,2018-08-02 11:35:00,2438.4,8.0,7.97,1.0,,KCIC,236,-121.85795,39.79879
70,101185.24,E,,704.0,,80.0,101163.68,506.0,Overcast,10.0,100325.62,KCIC 021155Z AUTO 08004KT 10SM FEW050 FEW060 OVC070 22/08 A2988 RMK AO1,606.0,40.63,2.06,22.0,2018-08-02 11:55:00,2133.6,8.0,7.97,1.0,,KCIC,236,-121.85795,39.79879
71,101185.24,ENE,,,,70.0,101163.68,506.0,Overcast,10.0,100325.62,KCIC 021215Z AUTO 07003KT 10SM FEW050 OVC070 22/08 A2988 RMK AO1,704.0,40.63,1.54,22.0,2018-08-02 12:15:00,2133.6,8.0,7.97,1.0,,KCIC,236,-121.85795,39.79879
72,101185.24,ENE,,,,60.0,101163.69,704.0,Overcast,10.0,100325.62,KCIC 021235Z AUTO 06004KT 10SM OVC070 22/07 A2988 RMK AO1,,37.95,2.06,22.0,2018-08-02 12:35:00,2133.6,7.0,6.97,1.0,,KCIC,236,-121.85795,39.79879
73,101185.24,N,,,,0.0,101166.54,704.0,Overcast,10.0,100325.62,KCIC 021255Z AUTO 00000KT 10SM OVC070 21/08 A2988 RMK AO1,,43.19,0.0,21.0,2018-08-02 12:55:00,2133.6,8.0,7.96,1.0,,KCIC,236,-121.85795,39.79879
74,101219.11,N,,,,0.0,101200.4,704.0,Overcast,10.0,100359.2,KCIC 021315Z AUTO 00000KT 10SM OVC070 21/09 A2989 RMK AO1,,46.22,0.0,21.0,2018-08-02 13:15:00,2133.6,9.0,8.96,1.0,,KCIC,236,-121.85795,39.79879
75,101219.11,N,,,,0.0,101200.4,1.0,Smoke,10.0,100359.2,KCIC 021350Z 00000KT 10SM FU SKC 21/08 A2989 RMK FU ALQDS,,43.19,0.0,21.0,2018-08-02 13:50:00,,8.0,7.96,1.0,7.0,KCIC,236,-121.85795,39.79879
76,101252.97,E,,,,100.0,101231.41,1.0,Clear,9.0,100392.78,KCIC 021450Z 10005KT 9SM SKC 22/07 A2990 RMK FU ALQDS,,37.95,2.57,22.0,2018-08-02 14:50:00,,7.0,6.97,1.0,,KCIC,236,-121.85795,39.79879
77,101286.84,SE,,,,130.0,101265.27,603.0,Mostly Cloudy,10.0,100426.36,KCIC 021546Z 13007KT 10SM BKN060 22/07 A2991 RMK FU BKN060 FU  ALQDS,,37.95,3.6,22.0,2018-08-02 15:46:00,1828.8,7.0,6.97,1.0,,KCIC,236,-121.85795,39.79879
78,101320.7,ESE,,,,110.0,101296.27,604.0,Overcast,9.0,100459.93,KCIC 021652Z 11006KT 9SM OVC060 23/08 A2992 RMK FU OVC060 FU  ALQDS,,38.24,3.09,23.0,2018-08-02 16:52:00,1828.8,8.0,7.98,1.0,,KCIC,236,-121.85795,39.79879
79,101320.7,ESE,,,,110.0,101293.45,604.0,Overcast,9.0,100459.93,KCIC 021750Z COR 11005KT 9SM OVC060 24/08 A2992 RMK FU ALDQS FU  OVC060,,36.01,2.57,24.0,2018-08-02 17:50:00,1828.8,8.0,7.99,1.0,,KCIC,236,-121.85795,39.79879
80,101286.84,SE,,,26.54,140.0,101251.25,604.0,Overcast,9.0,100426.36,KCIC 021847Z COR 14004KT 9SM OVC060 27/08 A2991 RMK FU ALDQS FU  OVC060,,30.14,2.06,27.0,2018-08-02 18:47:00,1828.8,8.0,8.02,1.0,,KCIC,236,-121.85795,39.79879
81,101219.11,SE,,,27.91,140.0,101178.05,603.0,Mostly Cloudy,9.0,100359.2,KCIC 021947Z 14004KT 9SM BKN060 29/10 A2989,,30.71,2.06,29.0,2018-08-02 19:47:00,1828.8,10.0,10.05,1.0,,KCIC,236,-121.85795,39.79879
82,101185.24,S,,,29.67,170.0,101138.8,603.0,Mostly Cloudy,9.0,100325.62,KCIC 022047Z 17006KT 9SM BKN060 31/11 A2988 RMK FU ALQDS FU  BKN060,,29.27,3.09,31.0,2018-08-02 20:47:00,1828.8,11.0,11.08,1.0,,KCIC,236,-121.85795,39.79879
83,101117.52,SSE,,,30.76,160.0,101068.44,603.0,Mostly Cloudy,9.0,100258.48,KCIC 022150Z 16009KT 9SM BKN060 32/12 A2986 RMK FU ALQDS FU  BKN060,,29.55,4.63,32.0,2018-08-02 21:50:00,1828.8,12.0,12.1,1.0,,KCIC,236,-121.85795,39.79879
84,101083.65,SSE,,,31.32,150.0,101031.93,1.0,Clear,10.0,100224.89,KCIC 022250Z 15009KT 10SM SKC 33/10 A2985 RMK FU ALL QUAD,,24.46,4.63,33.0,2018-08-02 22:50:00,,10.0,10.13,1.0,,KCIC,236,-121.85795,39.79879
85,100982.06,SSE,,,31.17,160.0,100930.4,1.0,Clear,10.0,100124.17,KCIC 022347Z 16009KT 10SM SKC 33/09 A2982 RMK FU ALL QUAD,,22.87,4.63,33.0,2018-08-02 23:47:00,,9.0,9.14,1.0,,KCIC,236,-121.85795,39.79879
86,100914.33,S,,,31.72,170.0,100862.69,1.0,Clear,9.0,100057.01,KCIC 030050Z 17008KT 9SM SKC 33/12 A2980 RMK FU ALL QUAD,,27.93,4.12,33.0,2018-08-03 00:50:00,,12.0,12.12,1.0,,KCIC,236,-121.85795,39.79879
87,100914.33,SSE,,,30.76,160.0,100865.34,1.0,Clear,9.0,100057.01,KCIC 030147Z 16007KT 9SM SKC 32/12 A2980 RMK FU ALL QUAD LAST,,29.55,3.6,32.0,2018-08-03 01:47:00,,12.0,12.1,1.0,,KCIC,236,-121.85795,39.79879
88,100948.2,SSE,,,28.68,150.0,100904.55,1.0,Clear,8.0,100090.59,KCIC 030315Z AUTO 15005KT 8SM CLR 30/10 A2981 RMK AO1,,28.99,2.57,30.0,2018-08-03 03:15:00,,10.0,10.07,1.0,,KCIC,236,-121.85795,39.79879
89,100948.2,SE,,,27.91,140.0,100907.25,493.0,Mostly Cloudy,10.0,100090.59,KCIC 030335Z AUTO 14005KT 10SM BKN049 29/10 A2981 RMK AO1,,30.71,2.57,29.0,2018-08-03 03:35:00,1493.52,10.0,10.05,1.0,,KCIC,236,-121.85795,39.79879
90,100982.06,SSE,,,27.91,150.0,100941.11,494.0,Overcast,10.0,100124.17,KCIC 030355Z AUTO 15004KT 10SM OVC049 29/10 A2982 RMK AO1,,30.71,2.06,29.0,2018-08-03 03:55:00,1493.52,10.0,10.05,1.0,,KCIC,236,-121.85795,39.79879
91,100982.06,SE,,,27.22,140.0,100943.83,494.0,Overcast,10.0,100124.17,KCIC 030415Z AUTO 14003KT 10SM OVC049 28/10 A2982 RMK AO1,,32.54,1.54,28.0,2018-08-03 04:15:00,1493.52,10.0,10.04,1.0,,KCIC,236,-121.85795,39.79879
92,100982.06,ESE,,,27.22,110.0,100943.83,554.0,Overcast,10.0,100124.17,KCIC 030435Z AUTO 11003KT 10SM OVC055 28/10 A2982 RMK AO1,,32.54,1.54,28.0,2018-08-03 04:35:00,1676.4,10.0,10.04,1.0,,KCIC,236,-121.85795,39.79879
93,101015.92,ENE,,,27.12,70.0,100977.68,554.0,Overcast,10.0,100157.74,KCIC 030455Z AUTO 07004KT 10SM OVC055 28/09 A2983 RMK AO1,,30.43,2.06,28.0,2018-08-03 04:55:00,1676.4,9.0,9.04,1.0,,KCIC,236,-121.85795,39.79879
94,101015.92,N,,,27.12,0.0,100977.68,554.0,Overcast,10.0,100157.74,KCIC 030515Z AUTO 00000KT 10SM OVC055 28/09 A2983 RMK AO1,,30.43,0.0,28.0,2018-08-03 05:15:00,1676.4,9.0,9.04,1.0,,KCIC,236,-121.85795,39.79879
95,101049.79,N,,,26.66,0.0,101014.27,554.0,Overcast,10.0,100191.32,KCIC 030535Z AUTO 00000KT 10SM OVC055 27/10 A2984 RMK AO1,,34.5,0.0,27.0,2018-08-03 05:35:00,1676.4,10.0,10.02,1.0,,KCIC,236,-121.85795,39.79879
96,101049.79,WNW,,,,300.0,101019.8,554.0,Overcast,10.0,100191.32,KCIC 030555Z AUTO 30004KT 10SM OVC055 25/11 A2984 RMK AO1,,41.49,2.06,25.0,2018-08-03 05:55:00,1676.4,11.0,10.99,1.0,,KCIC,236,-121.85795,39.79879
97,101083.65,NNW,,,,330.0,101059.26,654.0,Overcast,10.0,100224.89,KCIC 030615Z AUTO 33006KT 10SM OVC065 23/12 A2985 RMK AO1,,49.97,3.09,23.0,2018-08-03 06:15:00,1981.2,12.0,11.98,1.0,,KCIC,236,-121.85795,39.79879
98,101083.65,N,,,,10.0,101053.64,654.0,Overcast,10.0,100224.89,KCIC 030635Z AUTO 01005KT 10SM OVC065 25/13 A2985 RMK AO1,,47.33,2.57,25.0,2018-08-03 06:35:00,1981.2,13.0,12.99,1.0,,KCIC,236,-121.85795,39.79879
99,101083.65,NNE,,,,20.0,101050.87,654.0,Overcast,10.0,100224.89,KCIC 030655Z AUTO 02004KT 10SM OVC065 26/12 A2985 RMK AO1,,41.78,2.06,26.0,2018-08-03 06:55:00,1981.2,12.0,12.01,1.0,,KCIC,236,-121.85795,39.79879
100,101117.52,E,,,,100.0,101087.52,654.0,Overcast,10.0,100258.48,KCIC 030715Z AUTO 10004KT 10SM OVC065 25/10 A2986 RMK AO1,,38.82,2.06,25.0,2018-08-03 07:15:00,1981.2,10.0,10.0,1.0,,KCIC,236,-121.85795,39.79879
101,101117.52,N,,,,0.0,101090.31,654.0,Overcast,10.0,100258.48,KCIC 030735Z AUTO 00000KT 10SM OVC065 24/13 A2986 RMK AO1,,50.25,0.0,24.0,2018-08-03 07:35:00,1981.2,13.0,12.99,1.0,,KCIC,236,-121.85795,39.79879
102,101117.52,WNW,,,,290.0,101090.31,654.0,Overcast,10.0,100258.48,KCIC 030755Z AUTO 29003KT 10SM OVC065 24/12 A2986 RMK AO1,,47.06,1.54,24.0,2018-08-03 07:55:00,1981.2,12.0,11.99,1.0,,KCIC,236,-121.85795,39.79879
103,101151.38,N,,,,0.0,101124.16,654.0,Overcast,10.0,100292.05,KCIC 030815Z AUTO 00000KT 10SM OVC065 24/12 A2987 RMK AO1,,47.06,0.0,24.0,2018-08-03 08:15:00,1981.2,12.0,11.99,1.0,,KCIC,236,-121.85795,39.79879
104,101151.38,N,,,,0.0,101124.16,754.0,Overcast,10.0,100292.05,KCIC 030835Z AUTO 00000KT 10SM OVC075 24/12 A2987 RMK AO1,,47.06,0.0,24.0,2018-08-03 08:35:00,2286.0,12.0,11.99,1.0,,KCIC,236,-121.85795,39.79879
105,101151.38,SW,,,,220.0,101124.16,754.0,Overcast,10.0,100292.05,KCIC 030855Z AUTO 22003KT 10SM OVC075 24/12 A2987 RMK AO1,,47.06,1.54,24.0,2018-08-03 08:55:00,2286.0,12.0,11.99,1.0,,KCIC,236,-121.85795,39.79879
106,101185.24,SE,,,,140.0,101158.01,754.0,Overcast,10.0,100325.62,KCIC 030915Z AUTO 14003KT 10SM OVC075 24/11 A2988 RMK AO1,,44.05,1.54,24.0,2018-08-03 09:15:00,2286.0,11.0,10.99,1.0,,KCIC,236,-121.85795,39.79879
107,101185.24,E,,,,80.0,101158.02,754.0,Overcast,10.0,100325.62,KCIC 030935Z AUTO 08005KT 10SM OVC075 24/10 A2988 RMK AO1,,41.21,2.57,24.0,2018-08-03 09:35:00,2286.0,10.0,9.99,1.0,,KCIC,236,-121.85795,39.79879
108,101185.24,E,,,,80.0,101160.84,754.0,Overcast,10.0,100325.62,KCIC 030955Z AUTO 08005KT 10SM OVC075 23/10 A2988 RMK AO1,,43.76,2.57,23.0,2018-08-03 09:55:00,2286.0,10.0,9.98,1.0,,KCIC,236,-121.85795,39.79879
109,101185.24,E,,,,90.0,101160.84,754.0,Overcast,10.0,100325.62,KCIC 031015Z AUTO 09004KT 10SM OVC075 23/10 A2988 RMK AO1,,43.76,2.06,23.0,2018-08-03 10:15:00,2286.0,10.0,9.98,1.0,,KCIC,236,-121.85795,39.79879
110,101185.24,E,,,,90.0,101160.84,754.0,Overcast,10.0,100325.62,KCIC 031035Z AUTO 09004KT 10SM OVC075 23/09 A2988 RMK AO1,,40.92,2.06,23.0,2018-08-03 10:35:00,2286.0,9.0,8.98,1.0,,KCIC,236,-121.85795,39.79879
111,101185.24,ESE,,,,110.0,101160.84,854.0,Overcast,10.0,100325.62,KCIC 031055Z AUTO 11006KT 10SM OVC085 23/09 A2988 RMK AO1,,40.92,3.09,23.0,2018-08-03 10:55:00,2590.8,9.0,8.98,1.0,,KCIC,236,-121.85795,39.79879
112,101185.24,ESE,,,,110.0,101160.85,854.0,Overcast,10.0,100325.62,KCIC 031115Z AUTO 11005KT 10SM OVC085 23/08 A2988 RMK AO1,,38.24,2.57,23.0,2018-08-03 11:15:00,2590.8,8.0,7.98,1.0,,KCIC,236,-121.85795,39.79879
113,101185.24,E,,,,100.0,101160.85,203.0,Overcast,10.0,100325.62,KCIC 031135Z AUTO 10004KT 10SM BKN020 OVC085 23/08 A2988 RMK AO1,854.0,38.24,2.06,23.0,2018-08-03 11:35:00,609.6,8.0,7.98,1.0,,KCIC,236,-121.85795,39.79879
114,101185.24,E,,,,80.0,101163.68,244.0,Overcast,10.0,100325.62,KCIC 031155Z AUTO 08003KT 10SM OVC024 22/08 A2988 RMK AO1,,40.63,1.54,22.0,2018-08-03 11:55:00,731.52,8.0,7.97,1.0,,KCIC,236,-121.85795,39.79879
115,101185.24,N,,854.0,,0.0,101163.68,196.0,Overcast,10.0,100325.62,KCIC 031215Z AUTO 00000KT 10SM FEW019 BKN026 OVC085 22/09 A2988 RMK AO1,263.0,43.48,0.0,22.0,2018-08-03 12:15:00,792.48,9.0,8.97,1.0,,KCIC,236,-121.85795,39.79879
116,101185.24,ESE,,854.0,,120.0,101169.42,192.0,Overcast,10.0,100325.62,KCIC 031235Z AUTO 12003KT 10SM SCT019 SCT026 OVC085 20/09 A2988 RMK AO1,262.0,49.15,1.54,20.0,2018-08-03 12:35:00,2590.8,9.0,8.96,1.0,,KCIC,236,-121.85795,39.79879
117,101219.11,ESE,,,,110.0,101203.28,196.0,Overcast,10.0,100359.2,KCIC 031255Z AUTO 11003KT 10SM FEW019 OVC075 20/08 A2989 RMK AO1,754.0,45.93,1.54,20.0,2018-08-03 12:55:00,2286.0,8.0,7.95,1.0,,KCIC,236,-121.85795,39.79879
118,101219.11,ESE,,754.0,,110.0,101203.29,212.0,Overcast,10.0,100359.2,KCIC 031315Z AUTO 11003KT 10SM SCT021 SCT032 OVC075 20/07 A2989 RMK AO1,322.0,42.9,1.54,20.0,2018-08-03 13:15:00,2286.0,7.0,6.95,1.0,,KCIC,236,-121.85795,39.79879
119,101286.84,N,,,,0.0,101271.01,753.0,Mostly Cloudy,10.0,100426.36,KCIC 031350Z 00000KT 10SM BKN075 20/08 A2991 RMK FU ALL QUAD FU  BKN075,,45.93,0.0,20.0,2018-08-03 13:50:00,2286.0,8.0,7.95,1.0,,KCIC,236,-121.85795,39.79879
120,101320.7,N,,,26.49,0.0,101285.09,1.0,Smoke,4.0,100459.93,KCIC 031458Z 00000KT 4SM FU SKC 27/07 A2992 RMK FU TOPS 060,,28.15,0.0,27.0,2018-08-03 14:58:00,,7.0,7.03,1.0,7.0,KCIC,236,-121.85795,39.79879
121,101388.43,SSW,,,,200.0,101363.98,1.0,Clear,9.0,100527.08,KCIC 031550Z 20004KT 9SM SKC 23/08 A2994 RMK FV 4SM FU TOPS  060,,38.24,2.06,23.0,2018-08-03 15:50:00,,8.0,7.98,1.0,,KCIC,236,-121.85795,39.79879
122,101388.43,SSW,,,,200.0,101361.16,1.0,Clear,9.0,100527.08,KCIC 031647Z 20004KT 9SM SKC 24/08 A2994 RMK FU ALQDS,,36.01,2.06,24.0,2018-08-03 16:47:00,,8.0,7.99,1.0,,KCIC,236,-121.85795,39.79879
123,101388.43,S,,,,170.0,101355.56,1.0,Clear,9.0,100527.08,KCIC 031747Z 17005KT 9SM SKC 26/09 A2994 RMK FU ALQDS,,34.21,2.57,26.0,2018-08-03 17:47:00,,9.0,9.01,1.0,,KCIC,236,-121.85795,39.79879
124,101354.56,SSE,,,27.22,160.0,101316.18,1.0,Clear,8.0,100493.5,KCIC 031853Z 16004KT 8SM SKC 28/10 A2993 RMK FU ALL QUAD,,32.54,2.06,28.0,2018-08-03 18:53:00,,10.0,10.04,1.0,,KCIC,236,-121.85795,39.79879
125,101320.7,S,,,28.68,190.0,101276.89,1.0,Clear,8.0,100459.93,KCIC 031951Z 19007KT 8SM SKC 30/10 A2992 RMK FU ALQDS,,28.99,3.6,30.0,2018-08-03 19:51:00,,10.0,10.07,1.0,,KCIC,236,-121.85795,39.79879
126,101252.97,SSW,,,30.56,200.0,101203.82,1.0,Clear,8.0,100392.78,KCIC 032050Z 20009KT 8SM SKC 32/11 A2990 RMK FU ALL QUAD,,27.66,4.63,32.0,2018-08-03 20:50:00,,11.0,11.1,1.0,,KCIC,236,-121.85795,39.79879
127,101219.11,SSE,,,31.17,150.0,101167.32,1.0,Clear,8.0,100359.2,KCIC 032147Z 15010KT 8SM SKC 33/09 A2989 RMK FU ALQDS,,22.87,5.14,33.0,2018-08-03 21:47:00,,9.0,9.14,1.0,,KCIC,236,-121.85795,39.79879
128,101151.38,SE,,,32.29,140.0,101096.99,1.0,Clear,9.0,100292.05,KCIC 032250Z 14007KT 9SM SKC 34/10 A2987 RMK FU ALQDS,,23.13,3.6,34.0,2018-08-03 22:50:00,,10.0,10.15,1.0,,KCIC,236,-121.85795,39.79879
129,101083.65,SSE,,,32.12,160.0,101029.3,1.0,Clear,9.0,100224.89,KCIC 032347Z 16007KT 9SM SKC 34/09 A2985 RMK FU ALQDS,,21.63,3.6,34.0,2018-08-03 23:47:00,,9.0,9.16,1.0,,KCIC,236,-121.85795,39.79879
130,101049.79,SSE,,,32.29,160.0,100995.45,1.0,Clear,8.0,100191.32,KCIC 040050Z 16007KT 8SM SKC 34/10 A2984 RMK FU ALQDS,,23.13,3.6,34.0,2018-08-04 00:50:00,,10.0,10.15,1.0,,KCIC,236,-121.85795,39.79879
131,101049.79,SSE,,,32.29,150.0,100995.45,1502.0,Partly Cloudy,4.0,100191.32,KCIC 040115Z 15008KT 4SM SCT150 34/10 A2984 FU HZ,,23.13,4.12,34.0,2018-08-04 01:15:00,,10.0,10.15,1.0,,KCIC,236,-121.85795,39.79879
132,101049.79,SSE,,,31.51,160.0,100998.08,1502.0,Partly Cloudy,4.0,100191.32,KCIC 040147Z 16009KT 4SM SCT150 33/11 A2984 FU HZ RMK LAST,,26.15,4.63,33.0,2018-08-04 01:47:00,,11.0,11.13,1.0,,KCIC,236,-121.85795,39.79879
133,101083.65,SSE,,,28.6,150.0,101042.63,466.0,Mostly Clear,10.0,100224.89,KCIC 040315Z AUTO 15006KT 10SM FEW046 29/14 A2985 RMK AO1,,39.96,3.09,29.0,2018-08-04 03:15:00,,14.0,14.04,1.0,,KCIC,236,-121.85795,39.79879
134,101083.65,SE,,,28.6,140.0,101042.63,443.0,Mostly Cloudy,10.0,100224.89,KCIC 040335Z AUTO 14005KT 10SM BKN044 29/14 A2985 RMK AO1,,39.96,2.57,29.0,2018-08-04 03:35:00,1341.12,14.0,14.04,1.0,,KCIC,236,-121.85795,39.79879
135,101083.65,SSE,,,27.83,150.0,101045.36,444.0,Overcast,10.0,100224.89,KCIC 040355Z AUTO 15005KT 10SM OVC044 28/14 A2985 RMK AO1,,42.34,2.57,28.0,2018-08-04 03:55:00,1341.12,14.0,14.02,1.0,,KCIC,236,-121.85795,39.79879
136,101083.65,SE,,554.0,27.83,140.0,101045.36,402.0,Overcast,10.0,100224.89,KCIC 040415Z AUTO 14004KT 10SM SCT040 BKN046 OVC055 28/14 A2985 RMK AO1,463.0,42.34,2.06,28.0,2018-08-04 04:15:00,1402.08,14.0,14.02,1.0,,KCIC,236,-121.85795,39.79879
137,101117.52,SE,,,27.12,140.0,101081.96,383.0,Overcast,10.0,100258.48,KCIC 040435Z AUTO 14004KT 10SM BKN038 OVC065 27/14 A2986 RMK AO1,654.0,44.89,2.06,27.0,2018-08-04 04:35:00,1158.24,14.0,14.01,1.0,,KCIC,236,-121.85795,39.79879
138,101117.52,E,,,26.97,90.0,101081.97,362.0,Overcast,10.0,100258.48,KCIC 040455Z AUTO 09003KT 10SM SCT036 OVC065 27/13 A2986 RMK AO1,654.0,42.06,1.54,27.0,2018-08-04 04:55:00,1981.2,13.0,13.01,1.0,,KCIC,236,-121.85795,39.79879
139,101151.38,N,,,26.71,0.0,101115.82,383.0,Overcast,10.0,100292.05,KCIC 040515Z AUTO 00000KT 10SM BKN038 OVC065 27/11 A2987 RMK AO1,654.0,36.87,0.0,27.0,2018-08-04 05:15:00,1158.24,11.0,11.02,1.0,,KCIC,236,-121.85795,39.79879
140,101117.52,NE,,,26.6,40.0,101081.98,384.0,Overcast,10.0,100258.48,KCIC 040535Z AUTO 04003KT 10SM OVC038 27/09 A2986 RMK AO1,,32.25,1.54,27.0,2018-08-04 05:35:00,1158.24,9.0,9.02,1.0,,KCIC,236,-121.85795,39.79879
141,101117.52,N,,,26.6,0.0,101081.98,403.0,Mostly Cloudy,10.0,100258.48,KCIC 040555Z AUTO 00000KT 10SM BKN040 BKN048 27/09 A2986 RMK AO1,483.0,32.25,0.0,27.0,2018-08-04 05:55:00,1219.2,9.0,9.02,1.0,,KCIC,236,-121.85795,39.79879
142,101117.52,N,,,,0.0,101084.75,404.0,Overcast,10.0,100258.48,KCIC 040615Z AUTO 00000KT 10SM OVC040 26/09 A2986 RMK AO1,,34.21,0.0,26.0,2018-08-04 06:15:00,1219.2,9.0,9.01,1.0,,KCIC,236,-121.85795,39.79879
143,101151.38,N,,,,350.0,101126.99,443.0,Mostly Cloudy,10.0,100292.05,KCIC 040635Z AUTO 35006KT 10SM BKN044 BKN050 23/10 A2987 RMK AO1,503.0,43.76,3.09,23.0,2018-08-04 06:35:00,1341.12,10.0,9.98,1.0,,KCIC,236,-121.85795,39.79879
144,101151.38,N,,,,10.0,101121.38,483.0,Mostly Cloudy,10.0,100292.05,KCIC 040655Z AUTO 01005KT 10SM BKN048 25/08 A2987 RMK AO1,,33.92,2.57,25.0,2018-08-04 06:55:00,1463.04,8.0,8.0,1.0,,KCIC,236,-121.85795,39.79879
145,101151.38,NE,,,,40.0,101121.38,483.0,Mostly Cloudy,10.0,100292.05,KCIC 040715Z AUTO 04005KT 10SM BKN048 25/08 A2987 RMK AO1,,33.92,2.57,25.0,2018-08-04 07:15:00,1463.04,8.0,8.0,1.0,,KCIC,236,-121.85795,39.79879
146,101151.38,NE,,,,50.0,101121.38,483.0,Mostly Cloudy,10.0,100292.05,KCIC 040735Z AUTO 05006KT 10SM BKN048 BKN050 25/07 A2987 RMK AO1,503.0,31.68,3.09,25.0,2018-08-04 07:35:00,1463.04,7.0,7.0,1.0,,KCIC,236,-121.85795,39.79879
147,101117.52,NE,,,,40.0,101084.75,503.0,Mostly Cloudy,10.0,100258.48,KCIC 040755Z AUTO 04008KT 10SM BKN050 26/06 A2986 RMK AO1,,27.87,4.12,26.0,2018-08-04 07:55:00,1524.0,6.0,6.01,1.0,,KCIC,236,-121.85795,39.79879
148,101117.52,NE,,,,50.0,101087.53,456.0,Partly Cloudy,10.0,100258.48,KCIC 040815Z AUTO 05006KT 10SM FEW045 SCT050 25/06 A2986 RMK AO1,502.0,29.57,3.09,25.0,2018-08-04 08:15:00,,6.0,6.0,1.0,,KCIC,236,-121.85795,39.79879
149,101117.52,N,,,,0.0,101087.53,506.0,Mostly Clear,10.0,100258.48,KCIC 040835Z AUTO 00000KT 10SM FEW050 25/06 A2986 RMK AO1,,29.57,0.0,25.0,2018-08-04 08:35:00,,6.0,6.0,1.0,,KCIC,236,-121.85795,39.79879
150,101117.52,NE,,,,50.0,101087.53,1.0,Clear,10.0,100258.48,KCIC 040855Z AUTO 05006KT 10SM CLR 25/06 A2986 RMK AO1,,29.57,3.09,25.0,2018-08-04 08:55:00,,6.0,6.0,1.0,,KCIC,236,-121.85795,39.79879
151,101117.52,NE,,,,50.0,101087.54,1.0,Clear,10.0,100258.48,KCIC 040915Z AUTO 05005KT 10SM CLR 25/05 A2986 RMK AO1,,27.59,2.57,25.0,2018-08-04 09:15:00,,5.0,5.0,1.0,,KCIC,236,-121.85795,39.79879
152,101117.52,N,,,,0.0,101087.54,1.0,Clear,10.0,100258.48,KCIC 040935Z AUTO 00000KT 10SM CLR 25/05 A2986 RMK AO1,,27.59,0.0,25.0,2018-08-04 09:35:00,,5.0,5.0,1.0,,KCIC,236,-121.85795,39.79879
153,101151.38,NE,,,,40.0,101124.19,503.0,Mostly Cloudy,10.0,100292.05,KCIC 040955Z AUTO 04004KT 10SM BKN050 24/05 A2987 RMK AO1,,29.29,2.06,24.0,2018-08-04 09:55:00,1524.0,5.0,4.99,1.0,,KCIC,236,-121.85795,39.79879
154,101117.52,NE,,,,50.0,101087.54,483.0,Overcast,10.0,100258.48,KCIC 041015Z AUTO 05006KT 10SM BKN048 OVC050 25/05 A2986 RMK AO1,504.0,27.59,3.09,25.0,2018-08-04 10:15:00,1463.04,5.0,5.0,1.0,,KCIC,236,-121.85795,39.79879
155,101151.38,W,,,,280.0,101129.83,504.0,Overcast,10.0,100292.05,KCIC 041035Z AUTO 28003KT 10SM OVC050 22/08 A2987 RMK AO1,,40.63,1.54,22.0,2018-08-04 10:35:00,1524.0,8.0,7.97,1.0,,KCIC,236,-121.85795,39.79879
156,101151.38,NNW,,,,330.0,101135.57,504.0,Overcast,10.0,100292.05,KCIC 041055Z AUTO 33003KT 10SM OVC050 20/08 A2987 RMK AO1,,45.93,1.54,20.0,2018-08-04 10:55:00,1524.0,8.0,7.95,1.0,,KCIC,236,-121.85795,39.79879
157,101151.38,N,,,,0.0,101129.84,504.0,Overcast,10.0,100292.05,KCIC 041115Z AUTO 00000KT 10SM OVC050 22/05 A2987 RMK AO1,,33.05,0.0,22.0,2018-08-04 11:15:00,1524.0,5.0,4.97,1.0,,KCIC,236,-121.85795,39.79879
158,101117.52,NE,,,,40.0,101095.99,182.0,Overcast,10.0,100258.48,KCIC 041135Z AUTO 04003KT 10SM SCT018 OVC050 22/05 A2986 RMK AO1,504.0,33.05,1.54,22.0,2018-08-04 11:35:00,1524.0,5.0,4.97,1.0,,KCIC,236,-121.85795,39.79879
159,101117.52,N,,504.0,,0.0,101101.72,183.0,Overcast,10.0,100258.48,KCIC 041155Z AUTO 00000KT 10SM BKN018 BKN044 OVC050 20/07 A2986 RMK AO1,443.0,42.9,0.0,20.0,2018-08-04 11:55:00,548.64,7.0,6.95,1.0,,KCIC,236,-121.85795,39.79879
160,101117.52,N,,464.0,,0.0,101101.72,166.0,Overcast,10.0,100258.48,KCIC 041215Z AUTO 00000KT 10SM FEW016 FEW021 OVC046 20/08 A2986 RMK AO1,216.0,45.93,0.0,20.0,2018-08-04 12:15:00,1402.08,8.0,7.95,1.0,,KCIC,236,-121.85795,39.79879
161,101151.38,N,,483.0,,0.0,101138.47,182.0,Mostly Cloudy,10.0,100292.05,KCIC 041235Z AUTO 00000KT 10SM SCT018 SCT028 BKN048 19/08 A2987 RMK AO1,282.0,48.87,0.0,19.0,2018-08-04 12:35:00,1463.04,8.0,7.95,1.0,,KCIC,236,-121.85795,39.79879
162,101151.38,N,,,,0.0,101135.57,186.0,Overcast,10.0,100292.05,KCIC 041255Z AUTO 00000KT 10SM FEW018 OVC030 20/07 A2987 RMK AO1,304.0,42.9,0.0,20.0,2018-08-04 12:55:00,914.4,7.0,6.95,1.0,,KCIC,236,-121.85795,39.79879
163,101151.38,N,,,,0.0,101135.58,304.0,Overcast,10.0,100292.05,KCIC 041315Z AUTO 00000KT 10SM OVC030 20/06 A2987 RMK AO1,,40.05,0.0,20.0,2018-08-04 13:15:00,914.4,6.0,5.95,1.0,,KCIC,236,-121.85795,39.79879
164,101219.11,N,,,,0.0,101209.1,346.0,Mostly Clear,8.0,100359.2,KCIC 041358Z 00000KT 8SM FEW034 18/08 A2989 FU,,52.03,0.0,18.0,2018-08-04 13:58:00,,8.0,7.95,1.0,,KCIC,236,-121.85795,39.79879
165,101219.11,N,,,,0.0,101203.29,1802.0,Partly Cloudy,9.0,100359.2,KCIC 041454Z 00000KT 9SM SCT180 20/05 A2989 RMK FU ALQDS,,37.36,0.0,20.0,2018-08-04 14:54:00,,5.0,4.95,1.0,,KCIC,236,-121.85795,39.79879
166,101252.97,N,,,,0.0,101228.58,1.0,Clear,9.0,100392.78,KCIC 041558Z 00000KT 9SM SKC 23/04 A2990 RMK FU ALQDS. LAYER  REPORTED BETWEEN 1000-4000MSL WITH REDUCED VISIBILITY,,29.0,0.0,23.0,2018-08-04 15:58:00,,4.0,3.98,1.0,,KCIC,236,-121.85795,39.79879
167,101219.11,N,,,26.31,0.0,101183.55,1.0,Clear,9.0,100359.2,KCIC 041650Z 00000KT 9SM SKC 27/03 A2989 RMK FU ALQDS,,21.3,0.0,27.0,2018-08-04 16:50:00,,3.0,3.04,1.0,,KCIC,236,-121.85795,39.79879
168,101185.24,N,,,27.47,0.0,101144.22,1.0,"Smoke,Haze",8.0,100325.62,KCIC 041749Z 00000KT 8SM FUHZ SKC 29/04 A2988 RMK FU ALQDS.  REPORTED TOPS OF SMOKE LAYER 9500MSL. VIS WITHIN LAYER  REPORTED 5 TO 7SM.,,20.35,0.0,29.0,2018-08-04 17:49:00,,4.0,4.08,1.0,487.0,KCIC,236,-121.85795,39.79879
169,101151.38,N,,,28.98,0.0,101104.98,1.0,"Smoke,Haze",4.0,100292.05,KCIC 041848Z 00000KT 4SM FUHZ SKC 31/03 A2987 RMK FU ALQDS.  REPORTED TOPS OF SMOKE LAYER 9500MSL. VIS WITHIN LAYER  REPORTED 4 1/2SM.,,16.91,0.0,31.0,2018-08-04 18:48:00,,3.0,3.13,1.0,487.0,KCIC,236,-121.85795,39.79879
170,101083.65,S,,,31.53,190.0,101029.31,1.0,"Smoke,Haze",3.5,100224.89,KCIC 041954Z 19006KT 3 1/2SM FUHZ SKC 34/02 A2985 RMK FU  ALQDS.,,13.31,3.09,34.0,2018-08-04 19:54:00,,2.0,2.23,1.0,487.0,KCIC,236,-121.85795,39.79879
171,101049.79,S,,,31.57,180.0,100995.47,1.0,"Smoke,Haze",4.0,100191.32,KCIC 042050Z 18008KT 4SM FUHZ SKC 34/03 A2984 RMK FU ALQDS,,14.29,4.12,34.0,2018-08-04 20:50:00,,3.0,3.21,1.0,487.0,KCIC,236,-121.85795,39.79879
172,101015.92,SSE,,,31.29,150.0,100961.63,1502.0,"Smoke,Haze",3.0,100157.74,KCIC 042158Z 15012KT 3SM FUHZ SCT150 34/00 A2983 RMK FU ALQDS,,11.52,6.17,34.0,2018-08-04 21:58:00,,0.0,0.24,1.0,487.0,KCIC,236,-121.85795,39.79879
173,100948.2,SE,8.23,,31.42,140.0,100893.94,1502.0,"Smoke,Haze",4.0,100090.59,KCIC 042247Z 14009G16KT 4SM FUHZ SCT150 34/01 A2981 RMK FU  ALQDS,,12.38,4.63,34.0,2018-08-04 22:47:00,,1.0,1.23,1.0,487.0,KCIC,236,-121.85795,39.79879
174,100914.33,SSE,,,32.07,150.0,100857.48,1502.0,"Smoke,Haze",4.0,100057.01,KCIC 042347Z 15016KT 4SM FUHZ SCT150 35/00 A2980 RMK FU ALQDS,,10.9,8.23,35.0,2018-08-04 23:47:00,,0.0,0.28,1.0,487.0,KCIC,236,-121.85795,39.79879
175,100880.47,SSE,,,30.78,150.0,100828.87,1502.0,"Smoke,Haze",3.0,100023.44,KCIC 050047Z 15013KT 3SM FUHZ SCT150 33/05 A2979 RMK FU ALQDS,,17.39,6.69,33.0,2018-08-05 00:47:00,,5.0,5.17,1.0,487.0,KCIC,236,-121.85795,39.79879
176,100846.6,SE,,,30.94,130.0,100795.02,1502.0,"Smoke,Haze",3.0,99989.86,KCIC 050147Z 13009KT 3SM FUHZ SCT150 33/07 A2978 RMK LAST,,19.96,4.63,33.0,2018-08-05 01:47:00,,7.0,7.15,1.0,487.0,KCIC,236,-121.85795,39.79879
177,100880.47,E,,,29.85,90.0,100831.52,1.0,Clear,10.0,100023.44,KCIC 050315Z AUTO 09003KT 10SM CLR 32/04 A2979 RMK AO1,,17.15,1.54,32.0,2018-08-05 03:15:00,,4.0,4.15,1.0,,KCIC,236,-121.85795,39.79879
178,100880.47,N,,,28.98,0.0,100834.19,372.0,Partly Cloudy,10.0,100023.44,KCIC 050335Z AUTO 00000KT 10SM SCT037 31/03 A2979 RMK AO1,,16.91,0.0,31.0,2018-08-05 03:35:00,,3.0,3.13,1.0,,KCIC,236,-121.85795,39.79879
179,100880.47,N,,,28.18,0.0,100836.87,303.0,Mostly Cloudy,10.0,100023.44,KCIC 050355Z AUTO 00000KT 10SM BKN030 BKN037 30/03 A2979 RMK AO1,373.0,17.91,0.0,30.0,2018-08-05 03:55:00,914.4,3.0,3.11,1.0,,KCIC,236,-121.85795,39.79879
180,100914.33,NE,,,28.18,50.0,100870.72,283.0,Overcast,10.0,100057.01,KCIC 050415Z AUTO 05003KT 10SM BKN028 OVC046 30/03 A2980 RMK AO1,464.0,17.91,1.54,30.0,2018-08-05 04:15:00,853.44,3.0,3.11,1.0,,KCIC,236,-121.85795,39.79879
181,100948.2,NE,,,27.44,50.0,100907.27,302.0,Overcast,10.0,100090.59,KCIC 050435Z AUTO 05005KT 10SM SCT030 OVC046 29/03 A2981 RMK AO1,464.0,18.97,2.57,29.0,2018-08-05 04:35:00,1402.08,3.0,3.09,1.0,,KCIC,236,-121.85795,39.79879
182,100948.2,NE,,,26.75,50.0,100909.99,306.0,Overcast,10.0,100090.59,KCIC 050455Z AUTO 05005KT 10SM FEW030 OVC050 28/03 A2981 RMK AO1,504.0,20.1,2.57,28.0,2018-08-05 04:55:00,1524.0,3.0,3.07,1.0,,KCIC,236,-121.85795,39.79879
183,100948.2,NE,,,26.75,40.0,100909.99,502.0,Partly Cloudy,10.0,100090.59,KCIC 050515Z AUTO 04006KT 10SM SCT050 28/03 A2981 RMK AO1,,20.1,3.09,28.0,2018-08-05 05:15:00,,3.0,3.07,1.0,,KCIC,236,-121.85795,39.79879
184,100982.06,E,,,26.75,100.0,100943.85,1.0,Clear,10.0,100124.17,KCIC 050535Z AUTO 10003KT 10SM CLR 28/03 A2982 RMK AO1,,20.1,1.54,28.0,2018-08-05 05:35:00,,3.0,3.07,1.0,,KCIC,236,-121.85795,39.79879
185,101015.92,N,,,,350.0,100985.97,1.0,Clear,10.0,100157.74,KCIC 050555Z AUTO 35003KT 10SM CLR 25/04 A2983 RMK AO1,,25.73,1.54,25.0,2018-08-05 05:55:00,,4.0,4.01,1.0,,KCIC,236,-121.85795,39.79879
186,101015.92,N,,,26.78,0.0,100977.69,506.0,Mostly Clear,10.0,100157.74,KCIC 050615Z AUTO 00000KT 10SM FEW050 28/04 A2983 RMK AO1,,21.57,0.0,28.0,2018-08-05 06:15:00,,4.0,4.06,1.0,,KCIC,236,-121.85795,39.79879
187,101049.79,NNW,,,27.47,330.0,101008.82,1.0,Clear,10.0,100191.32,KCIC 050635Z AUTO 33003KT 10SM CLR 29/04 A2984 RMK AO1,,20.35,1.54,29.0,2018-08-05 06:35:00,,4.0,4.08,1.0,,KCIC,236,-121.85795,39.79879
188,101049.79,SSW,,,26.83,210.0,101011.54,1.0,Clear,10.0,100191.32,KCIC 050655Z AUTO 21004KT 10SM CLR 28/05 A2984 RMK AO1,,23.13,2.06,28.0,2018-08-05 06:55:00,,5.0,5.06,1.0,,KCIC,236,-121.85795,39.79879
189,101083.65,N,,,26.4,0.0,101048.13,372.0,Partly Cloudy,10.0,100224.89,KCIC 050715Z AUTO 00000KT 10SM SCT037 SCT047 27/05 A2985 RMK AO1,472.0,24.52,0.0,27.0,2018-08-05 07:15:00,,5.0,5.04,1.0,,KCIC,236,-121.85795,39.79879
190,101083.65,E,,474.0,,100.0,101053.67,26.0,Overcast,10.0,100224.89,KCIC 050735Z AUTO 10004KT 10SM FEW002 BKN039 OVC047 25/04 A2985 RMK AO1,393.0,25.73,2.06,25.0,2018-08-05 07:35:00,1188.72,4.0,4.01,1.0,,KCIC,236,-121.85795,39.79879
191,101083.65,N,,474.0,,360.0,101056.47,22.0,Overcast,10.0,100224.89,KCIC 050755Z AUTO 36004KT 10SM SCT002 BKN037 OVC047 24/04 A2985 RMK AO1,373.0,27.31,2.06,24.0,2018-08-05 07:55:00,1127.76,4.0,3.99,1.0,,KCIC,236,-121.85795,39.79879
192,101083.65,N,,,,0.0,101053.67,23.0,Overcast,10.0,100224.89,KCIC 050815Z AUTO 00000KT 10SM BKN002 OVC049 25/04 A2985 RMK AO1,494.0,25.73,0.0,25.0,2018-08-05 08:15:00,60.96,4.0,4.01,1.0,,KCIC,236,-121.85795,39.79879
193,101083.65,N,,804.0,,0.0,101056.47,23.0,Overcast,10.0,100224.89,KCIC 050835Z AUTO 00000KT 10SM BKN002 BKN049 OVC080 24/04 A2985 RMK AO1,493.0,27.31,0.0,24.0,2018-08-05 08:35:00,60.96,4.0,3.99,1.0,,KCIC,236,-121.85795,39.79879
194,101083.65,SE,,804.0,,130.0,101056.47,22.0,Overcast,10.0,100224.89,KCIC 050855Z AUTO 13003KT 10SM SCT002 BKN055 OVC080 24/04 A2985 RMK AO1,553.0,27.31,1.54,24.0,2018-08-05 08:55:00,1676.4,4.0,3.99,1.0,,KCIC,236,-121.85795,39.79879
195,101083.65,N,,,,0.0,101059.28,22.0,Overcast,10.0,100224.89,KCIC 050915Z AUTO 00000KT 10SM SCT002 OVC055 23/06 A2985 RMK AO1,554.0,33.34,0.0,23.0,2018-08-05 09:15:00,1676.4,6.0,5.98,1.0,,KCIC,236,-121.85795,39.79879
196,101117.52,N,,,,0.0,101093.16,22.0,Overcast,10.0,100258.48,KCIC 050935Z AUTO 00000KT 10SM SCT002 OVC050 23/05 A2986 RMK AO1,504.0,31.11,0.0,23.0,2018-08-05 09:35:00,1524.0,5.0,4.98,1.0,,KCIC,236,-121.85795,39.79879
197,101151.38,N,,,,0.0,101129.83,22.0,Overcast,10.0,100292.05,KCIC 050955Z AUTO 00000KT 10SM SCT002 OVC050 22/08 A2987 RMK AO1,504.0,40.63,0.0,22.0,2018-08-05 09:55:00,1524.0,8.0,7.97,1.0,,KCIC,236,-121.85795,39.79879
198,101151.38,N,,,,0.0,101129.83,36.0,Overcast,10.0,100292.05,KCIC 051015Z AUTO 00000KT 10SM FEW003 OVC050 22/08 A2987 RMK AO1,504.0,40.63,0.0,22.0,2018-08-05 10:15:00,1524.0,8.0,7.97,1.0,,KCIC,236,-121.85795,39.79879
199,101151.38,SSE,,,,160.0,101132.69,504.0,Overcast,10.0,100292.05,KCIC 051035Z AUTO 16003KT 10SM OVC050 21/08 A2987 RMK AO1,,43.19,1.54,21.0,2018-08-05 10:35:00,1524.0,8.0,7.96,1.0,,KCIC,236,-121.85795,39.79879
200,101151.38,N,,,,0.0,101129.84,504.0,Overcast,10.0,100292.05,KCIC 051055Z AUTO 00000KT 10SM OVC050 22/05 A2987 RMK AO1,,33.05,0.0,22.0,2018-08-05 10:55:00,1524.0,5.0,4.97,1.0,,KCIC,236,-121.85795,39.79879
201,101151.38,N,,,,0.0,101132.69,504.0,Overcast,10.0,100292.05,KCIC 051115Z AUTO 00000KT 10SM OVC050 21/07 A2987 RMK AO1,,40.34,0.0,21.0,2018-08-05 11:15:00,1524.0,7.0,6.96,1.0,,KCIC,236,-121.85795,39.79879
202,101151.38,N,,,,0.0,101132.69,604.0,Overcast,10.0,100292.05,KCIC 051135Z AUTO 00000KT 10SM OVC060 21/08 A2987 RMK AO1,,43.19,0.0,21.0,2018-08-05 11:35:00,1828.8,8.0,7.96,1.0,,KCIC,236,-121.85795,39.79879
203,101151.38,NNE,,,,20.0,101132.69,604.0,Overcast,10.0,100292.05,KCIC 051155Z AUTO 02004KT 10SM OVC060 21/07 A2987 RMK AO1,,40.34,2.06,21.0,2018-08-05 11:55:00,1828.8,7.0,6.96,1.0,,KCIC,236,-121.85795,39.79879
204,101151.38,N,,,,0.0,101135.58,604.0,Overcast,10.0,100292.05,KCIC 051215Z AUTO 00000KT 10SM OVC060 20/05 A2987 RMK AO1,,37.36,0.0,20.0,2018-08-05 12:15:00,1828.8,5.0,4.95,1.0,,KCIC,236,-121.85795,39.79879
205,101185.24,N,,,,0.0,101172.33,604.0,Overcast,10.0,100325.62,KCIC 051235Z AUTO 00000KT 10SM OVC060 19/06 A2988 RMK AO1,,42.61,0.0,19.0,2018-08-05 12:35:00,1828.8,6.0,5.94,1.0,,KCIC,236,-121.85795,39.79879
206,101219.11,NE,,,,50.0,101203.29,604.0,Overcast,10.0,100359.2,KCIC 051255Z AUTO 05003KT 10SM OVC060 20/05 A2989 RMK AO1,,37.36,1.54,20.0,2018-08-05 12:55:00,1828.8,5.0,4.95,1.0,,KCIC,236,-121.85795,39.79879
207,101219.11,NE,,,,40.0,101203.29,604.0,Overcast,10.0,100359.2,KCIC 051315Z AUTO 04004KT 10SM OVC060 20/05 A2989 RMK AO1,,37.36,2.06,20.0,2018-08-05 13:15:00,1828.8,5.0,4.95,1.0,,KCIC,236,-121.85795,39.79879
208,101252.97,N,,,,0.0,101240.06,1.0,"Smoke,Haze",5.0,100392.78,KCIC 051356Z 00000KT 5SM FUHZ SKC 19/05 A2990,,39.75,0.0,19.0,2018-08-05 13:56:00,,5.0,4.94,1.0,487.0,KCIC,236,-121.85795,39.79879
209,101320.7,N,,,,0.0,101304.87,1802.0,"Smoke,Haze",6.0,100459.93,KCIC 051447Z 00000KT 6SM FUHZ SCT180 20/05 A2992,,37.36,0.0,20.0,2018-08-05 14:47:00,,5.0,4.95,1.0,487.0,KCIC,236,-121.85795,39.79879
210,101354.56,N,,,,0.0,101332.97,1802.0,Partly Cloudy,9.0,100493.5,KCIC 051552Z 00000KT 9SM SCT180 22/06 A2993 RMK FU ALQDS. MULTIPLE  FU LAYERS REPORTED BETWEEN 040-100MSL,,35.42,0.0,22.0,2018-08-05 15:52:00,,6.0,5.96,1.0,,KCIC,236,-121.85795,39.79879
211,101354.56,N,,,,0.0,101330.13,1802.0,Partly Cloudy,9.0,100493.5,KCIC 051647Z 00000KT 9SM SCT180 23/07 A2993 RMK FU ALQDS. FU LAYER  B025,,35.72,0.0,23.0,2018-08-05 16:47:00,,7.0,6.98,1.0,,KCIC,236,-121.85795,39.79879
212,101388.43,N,,,,0.0,101361.16,1802.0,Partly Cloudy,10.0,100527.08,KCIC 051747Z 00000KT 10SM SCT180 24/06 A2994 RMK FU ALQDS. FU  LAYER B025 T100,,31.39,0.0,24.0,2018-08-05 17:47:00,,6.0,5.99,1.0,,KCIC,236,-121.85795,39.79879
213,101388.43,N,,,26.44,0.0,101352.8,1.0,Clear,10.0,100527.08,KCIC 051850Z 00000KT 10SM SKC 27/06 A2994 RMK FU ALQDS. FU LAYER  B025 T120,,26.28,0.0,27.0,2018-08-05 18:50:00,,6.0,6.03,1.0,,KCIC,236,-121.85795,39.79879
214,101320.7,SSW,,,27.63,210.0,101279.61,1502.0,"Smoke,Haze",5.0,100459.93,KCIC 051947Z 21005KT 5SM FUHZ SCT150 29/07 A2992,,25.06,2.57,29.0,2018-08-05 19:47:00,,7.0,7.06,1.0,487.0,KCIC,236,-121.85795,39.79879
215,101286.84,SW,,,28.68,230.0,101243.05,1503.0,"Smoke,Haze",4.0,100426.36,KCIC 052047Z 23007KT 4SM FUHZ BKN150 30/10 A2991,,28.99,3.6,30.0,2018-08-05 20:47:00,4572.0,10.0,10.07,1.0,487.0,KCIC,236,-121.85795,39.79879
216,101286.84,SSW,,,27.91,200.0,101245.76,1503.0,"Smoke,Haze",8.0,100426.36,KCIC 052158Z 20006KT 8SM FUHZ BKN150 29/10 A2991,,30.71,3.09,29.0,2018-08-05 21:58:00,4572.0,10.0,10.05,1.0,487.0,KCIC,236,-121.85795,39.79879
217,101252.97,SW,,,27.22,220.0,101214.64,1504.0,"Smoke,Haze",10.0,100392.78,KCIC 052247Z 22005KT 10SM FUHZ OVC150 28/10 A2990,,32.54,2.57,28.0,2018-08-05 22:47:00,4572.0,10.0,10.04,1.0,487.0,KCIC,236,-121.85795,39.79879
218,101219.11,N,,,27.12,0.0,101180.78,1504.0,"Smoke,Haze",10.0,100359.2,KCIC 052347Z 00000KT 10SM FUHZ OVC150 28/09 A2989,,30.43,0.0,28.0,2018-08-05 23:47:00,4572.0,9.0,9.04,1.0,487.0,KCIC,236,-121.85795,39.79879
219,101185.24,SE,,,27.71,140.0,101144.21,1504.0,"Smoke,Haze",10.0,100325.62,KCIC 060047Z 14004KT 10SM FUHZ OVC150 29/08 A2988,,26.83,2.06,29.0,2018-08-06 00:47:00,4572.0,8.0,8.06,1.0,487.0,KCIC,236,-121.85795,39.79879
220,101185.24,S,,,27.63,180.0,101144.21,1504.0,"Smoke,Haze",10.0,100325.62,KCIC 060152Z 18004KT 10SM FUHZ OVC150 29/07 A2988 RMK LAST,,25.06,2.06,29.0,2018-08-06 01:52:00,4572.0,7.0,7.06,1.0,487.0,KCIC,236,-121.85795,39.79879
221,101252.97,N,,,,0.0,101220.15,1.0,Clear,10.0,100392.78,KCIC 060315Z AUTO 00000KT 10SM CLR 26/10 A2990 RMK AO1,,36.59,0.0,26.0,2018-08-06 03:15:00,,10.0,10.01,1.0,,KCIC,236,-121.85795,39.79879
222,101252.97,N,,,26.66,0.0,101217.38,486.0,Partly Cloudy,10.0,100392.78,KCIC 060335Z AUTO 00000KT 10SM FEW048 SCT055 27/10 A2990 RMK AO1,552.0,34.5,0.0,27.0,2018-08-06 03:35:00,,10.0,10.02,1.0,,KCIC,236,-121.85795,39.79879
223,101286.84,NE,,,,50.0,101254.01,553.0,Mostly Cloudy,10.0,100426.36,KCIC 060355Z AUTO 05005KT 10SM BKN055 BKN110 26/09 A2991 RMK AO1,1103.0,34.21,2.57,26.0,2018-08-06 03:55:00,1676.4,9.0,9.01,1.0,,KCIC,236,-121.85795,39.79879
224,101286.84,NE,,,,40.0,101256.79,466.0,Overcast,10.0,100426.36,KCIC 060415Z AUTO 04005KT 10SM FEW046 OVC050 25/09 A2991 RMK AO1,504.0,36.3,2.57,25.0,2018-08-06 04:15:00,1524.0,9.0,9.0,1.0,,KCIC,236,-121.85795,39.79879
225,101286.84,NE,,1104.0,,40.0,101256.79,443.0,Overcast,10.0,100426.36,KCIC 060435Z AUTO 04005KT 10SM BKN044 BKN050 OVC110 25/09 A2991 RMK AO1,503.0,36.3,2.57,25.0,2018-08-06 04:35:00,1341.12,9.0,9.0,1.0,,KCIC,236,-121.85795,39.79879
226,101320.7,NE,,,,50.0,101290.64,424.0,Overcast,10.0,100459.93,KCIC 060455Z AUTO 05006KT 10SM OVC042 25/09 A2992 RMK AO1,,36.3,3.09,25.0,2018-08-06 04:55:00,1280.16,9.0,9.0,1.0,,KCIC,236,-121.85795,39.79879
227,101320.7,ENE,,,,60.0,101293.45,404.0,Overcast,10.0,100459.93,KCIC 060515Z AUTO 06005KT 10SM OVC040 24/09 A2992 RMK AO1,,38.53,2.57,24.0,2018-08-06 05:15:00,1219.2,9.0,8.99,1.0,,KCIC,236,-121.85795,39.79879
228,101320.7,E,,,,80.0,101293.45,384.0,Overcast,10.0,100459.93,KCIC 060535Z AUTO 08003KT 10SM OVC038 24/09 A2992 RMK AO1,,38.53,1.54,24.0,2018-08-06 05:35:00,1158.24,9.0,8.99,1.0,,KCIC,236,-121.85795,39.79879
229,101354.56,ENE,,,,70.0,101327.29,384.0,Overcast,10.0,100493.5,KCIC 060555Z AUTO 07004KT 10SM OVC038 24/09 A2993 RMK AO1,,38.53,2.06,24.0,2018-08-06 05:55:00,1158.24,9.0,8.99,1.0,,KCIC,236,-121.85795,39.79879
230,101354.56,ENE,,,,60.0,101327.29,384.0,Overcast,10.0,100493.5,KCIC 060615Z AUTO 06004KT 10SM OVC038 24/09 A2993 RMK AO1,,38.53,2.06,24.0,2018-08-06 06:15:00,1158.24,9.0,8.99,1.0,,KCIC,236,-121.85795,39.79879
231,101354.56,NE,,,,50.0,101327.3,333.0,Overcast,10.0,100493.5,KCIC 060635Z AUTO 05005KT 10SM BKN033 OVC039 24/08 A2993 RMK AO1,394.0,36.01,2.57,24.0,2018-08-06 06:35:00,1005.84,8.0,7.99,1.0,,KCIC,236,-121.85795,39.79879
232,101354.56,NE,,,,50.0,101327.3,334.0,Overcast,10.0,100493.5,KCIC 060655Z AUTO 05006KT 10SM OVC033 24/07 A2993 RMK AO1,,33.63,3.09,24.0,2018-08-06 06:55:00,1005.84,7.0,6.99,1.0,,KCIC,236,-121.85795,39.79879
233,101354.56,NE,,,,50.0,101327.3,334.0,Overcast,10.0,100493.5,KCIC 060715Z AUTO 05007KT 10SM OVC033 24/07 A2993 RMK AO1,,33.63,3.6,24.0,2018-08-06 07:15:00,1005.84,7.0,6.99,1.0,,KCIC,236,-121.85795,39.79879
234,101354.56,ENE,,,,60.0,101327.3,334.0,Overcast,10.0,100493.5,KCIC 060735Z AUTO 06006KT 10SM OVC033 24/07 A2993 RMK AO1,,33.63,3.09,24.0,2018-08-06 07:35:00,1005.84,7.0,6.99,1.0,,KCIC,236,-121.85795,39.79879
235,101354.56,N,,,,0.0,101330.12,333.0,Overcast,10.0,100493.5,KCIC 060755Z AUTO 00000KT 10SM BKN033 OVC050 23/08 A2993 RMK AO1,504.0,38.24,0.0,23.0,2018-08-06 07:55:00,1005.84,8.0,7.98,1.0,,KCIC,236,-121.85795,39.79879
236,101354.56,N,,,,0.0,101330.13,356.0,Overcast,10.0,100493.5,KCIC 060815Z AUTO 00000KT 10SM FEW035 OVC050 23/07 A2993 RMK AO1,504.0,35.72,0.0,23.0,2018-08-06 08:15:00,1524.0,7.0,6.98,1.0,,KCIC,236,-121.85795,39.79879
237,101354.56,N,,,,0.0,101332.97,504.0,Overcast,10.0,100493.5,KCIC 060835Z AUTO 00000KT 10SM OVC050 22/08 A2993 RMK AO1,,40.63,0.0,22.0,2018-08-06 08:35:00,1524.0,8.0,7.97,1.0,,KCIC,236,-121.85795,39.79879
238,101354.56,WNW,,,,290.0,101341.61,504.0,Overcast,10.0,100493.5,KCIC 060855Z AUTO 29005KT 10SM OVC050 19/09 A2993 RMK AO1,,52.3,2.57,19.0,2018-08-06 08:55:00,1524.0,9.0,8.95,1.0,,KCIC,236,-121.85795,39.79879
239,101388.43,NNW,,,,330.0,101375.48,504.0,Overcast,10.0,100527.08,KCIC 060915Z AUTO 33004KT 10SM OVC050 19/08 A2994 RMK AO1,,48.87,2.06,19.0,2018-08-06 09:15:00,1524.0,8.0,7.95,1.0,,KCIC,236,-121.85795,39.79879
240,101388.43,NW,,,,320.0,101375.48,504.0,Overcast,10.0,100527.08,KCIC 060935Z AUTO 32003KT 10SM OVC050 19/09 A2994 RMK AO1,,52.3,1.54,19.0,2018-08-06 09:35:00,1524.0,9.0,8.95,1.0,,KCIC,236,-121.85795,39.79879
241,101388.43,N,,,,0.0,101375.48,504.0,Overcast,10.0,100527.08,KCIC 060955Z AUTO 00000KT 10SM OVC050 19/09 A2994 RMK AO1,,52.3,0.0,19.0,2018-08-06 09:55:00,1524.0,9.0,8.95,1.0,,KCIC,236,-121.85795,39.79879
242,101388.43,N,,,,0.0,101372.58,504.0,Overcast,10.0,100527.08,KCIC 061015Z AUTO 00000KT 10SM OVC050 20/08 A2994 RMK AO1,,45.93,0.0,20.0,2018-08-06 10:15:00,1524.0,8.0,7.95,1.0,,KCIC,236,-121.85795,39.79879
243,101354.56,ENE,,,,70.0,101338.71,504.0,Overcast,10.0,100493.5,KCIC 061035Z AUTO 07003KT 10SM OVC050 20/08 A2993 RMK AO1,,45.93,1.54,20.0,2018-08-06 10:35:00,1524.0,8.0,7.95,1.0,,KCIC,236,-121.85795,39.79879
244,101388.43,N,,,,0.0,101372.58,504.0,Overcast,10.0,100527.08,KCIC 061055Z AUTO 00000KT 10SM OVC050 20/08 A2994 RMK AO1,,45.93,0.0,20.0,2018-08-06 10:55:00,1524.0,8.0,7.95,1.0,,KCIC,236,-121.85795,39.79879
245,101354.56,N,,,,0.0,101344.54,504.0,Overcast,10.0,100493.5,KCIC 061115Z AUTO 00000KT 10SM OVC050 18/08 A2993 RMK AO1,,52.03,0.0,18.0,2018-08-06 11:15:00,1524.0,8.0,7.95,1.0,,KCIC,236,-121.85795,39.79879
246,101388.43,NW,,,,320.0,101381.34,504.0,Overcast,10.0,100527.08,KCIC 061135Z AUTO 32003KT 10SM OVC050 17/09 A2994 RMK AO1,,59.3,1.54,17.0,2018-08-06 11:35:00,1524.0,9.0,8.95,1.0,,KCIC,236,-121.85795,39.79879
247,101354.56,N,,,,0.0,101344.54,503.0,Overcast,10.0,100493.5,KCIC 061155Z AUTO 00000KT 10SM BKN050 OVC085 18/08 A2993 RMK AO1,854.0,52.03,0.0,18.0,2018-08-06 11:55:00,1524.0,8.0,7.95,1.0,,KCIC,236,-121.85795,39.79879
248,101354.56,N,,,,0.0,101344.54,504.0,Overcast,10.0,100493.5,KCIC 061215Z AUTO 00000KT 10SM OVC050 18/08 A2993 RMK AO1,,52.03,0.0,18.0,2018-08-06 12:15:00,1524.0,8.0,7.95,1.0,,KCIC,236,-121.85795,39.79879
249,101388.43,N,,,,0.0,101378.4,504.0,Overcast,10.0,100527.08,KCIC 061235Z AUTO 00000KT 10SM OVC050 18/08 A2994 RMK AO1,,52.03,0.0,18.0,2018-08-06 12:35:00,1524.0,8.0,7.95,1.0,,KCIC,236,-121.85795,39.79879
250,101422.29,N,,,,0.0,101415.21,503.0,Overcast,10.0,100560.66,KCIC 061255Z AUTO 00000KT 10SM BKN050 OVC085 17/08 A2995 RMK AO1,854.0,55.41,0.0,17.0,2018-08-06 12:55:00,1524.0,8.0,7.94,1.0,,KCIC,236,-121.85795,39.79879
251,101422.29,NNW,,,,340.0,101418.18,506.0,Partly Cloudy,10.0,100560.66,KCIC 061315Z AUTO 34003KT 10SM FEW050 SCT085 16/08 A2995 RMK AO1,852.0,59.05,1.54,16.0,2018-08-06 13:15:00,,8.0,7.94,1.0,,KCIC,236,-121.85795,39.79879
252,101490.02,N,,,,0.0,101479.99,1.0,"Smoke,Haze",8.0,100627.81,KCIC 061356Z 00000KT 8SM FUHZ CLR 18/08 A2997,,52.03,0.0,18.0,2018-08-06 13:56:00,,8.0,7.95,1.0,487.0,KCIC,236,-121.85795,39.79879
253,101523.88,N,,,,0.0,101513.84,1.0,"Smoke,Haze",8.0,100661.38,KCIC 061452Z 00000KT 8SM FUHZ CLR 18/08 A2998,,52.03,0.0,18.0,2018-08-06 14:52:00,,8.0,7.95,1.0,487.0,KCIC,236,-121.85795,39.79879
254,101557.75,SW,,,,230.0,101538.99,1.0,"Smoke,Haze",8.0,100694.97,KCIC 061556Z 23003KT 8SM FUHZ CLR 21/08 A2999,,43.19,1.54,21.0,2018-08-06 15:56:00,,8.0,7.96,1.0,487.0,KCIC,236,-121.85795,39.79879
255,101523.88,N,,,,0.0,101499.4,1.0,"Smoke,Haze",6.0,100661.38,KCIC 061647Z 00000KT 6SM FUHZ SKC 23/08 A2998,,38.24,0.0,23.0,2018-08-06 16:47:00,,8.0,7.98,1.0,487.0,KCIC,236,-121.85795,39.79879
256,101523.88,S,,,,190.0,101490.98,1.0,"Smoke,Haze",6.0,100661.38,KCIC 061750Z 19004KT 6SM FUHZ SKC 26/05 A2998,,26.0,2.06,26.0,2018-08-06 17:50:00,,5.0,5.02,1.0,487.0,KCIC,236,-121.85795,39.79879
257,101490.02,S,,,26.44,190.0,101454.36,1.0,"Smoke,Haze",6.0,100627.81,KCIC 061850Z 19003KT 6SM FUHZ SKC 27/06 A2997,,26.28,1.54,27.0,2018-08-06 18:50:00,,6.0,6.03,1.0,487.0,KCIC,236,-121.85795,39.79879
258,101422.29,S,,,27.63,190.0,101381.17,1.0,"Smoke,Haze",6.0,100560.66,KCIC 061950Z 19005KT 6SM FUHZ SKC 29/07 A2995,,25.06,2.57,29.0,2018-08-06 19:50:00,,7.0,7.06,1.0,487.0,KCIC,236,-121.85795,39.79879
259,101354.56,S,,,28.46,180.0,101310.74,1.0,"Smoke,Haze",6.0,100493.5,KCIC 062047Z 18006KT 6SM FUHZ SKC 30/08 A2993,,25.33,3.09,30.0,2018-08-06 20:47:00,,8.0,8.08,1.0,487.0,KCIC,236,-121.85795,39.79879
260,101286.84,S,,,30.14,190.0,101237.69,1.0,"Smoke,Haze",5.0,100426.36,KCIC 062147Z 19005KT 5SM FUHZ SKC 32/08 A2991,,22.61,2.57,32.0,2018-08-06 21:47:00,,8.0,8.12,1.0,487.0,KCIC,236,-121.85795,39.79879
261,101219.11,S,,,31.04,170.0,101167.33,1.0,"Smoke,Haze",4.0,100359.2,KCIC 062258Z 17006KT 4SM FUHZ SKC 33/08 A2989,,21.37,3.09,33.0,2018-08-06 22:58:00,,8.0,8.14,1.0,487.0,KCIC,236,-121.85795,39.79879
262,101151.38,SE,,,31.0,140.0,101102.27,1.0,"Smoke,Haze",3.0,100292.05,KCIC 070047Z 14008KT 3SM FUHZ SKC 32/13 A2987,,31.55,4.12,32.0,2018-08-07 00:47:00,,13.0,13.09,1.0,487.0,KCIC,236,-121.85795,39.79879
263,101117.52,SE,,,30.07,130.0,101071.1,1.0,"Smoke,Haze",3.0,100258.48,KCIC 070155Z 13008KT 3SM FUHZ SKC 31/13 A2986,,33.39,4.12,31.0,2018-08-07 01:55:00,,13.0,13.07,1.0,487.0,KCIC,236,-121.85795,39.79879
264,101151.38,ESE,,,28.83,120.0,101107.64,1.0,Clear,10.0,100292.05,KCIC 070315Z AUTO 12004KT 10SM CLR 30/11 A2987 RMK AO1,,30.99,2.06,30.0,2018-08-07 03:15:00,,11.0,11.07,1.0,,KCIC,236,-121.85795,39.79879
265,101185.24,SE,,752.0,28.2,130.0,101144.19,326.0,Partly Cloudy,10.0,100325.62,KCIC 070335Z AUTO 13003KT 10SM FEW032 SCT042 SCT075 29/12 A2988 RMK AO1,422.0,35.07,1.54,29.0,2018-08-07 03:35:00,,12.0,12.05,1.0,,KCIC,236,-121.85795,39.79879
266,101185.24,ESE,,754.0,27.22,110.0,101146.93,346.0,Overcast,10.0,100325.62,KCIC 070355Z AUTO 11004KT 10SM FEW034 FEW039 OVC075 28/10 A2988 RMK AO1,396.0,32.54,2.06,28.0,2018-08-07 03:55:00,2286.0,10.0,10.04,1.0,,KCIC,236,-121.85795,39.79879
267,101219.11,ESE,,,27.22,110.0,101180.78,754.0,Overcast,10.0,100359.2,KCIC 070415Z AUTO 11003KT 10SM OVC075 28/10 A2989 RMK AO1,,32.54,1.54,28.0,2018-08-07 04:15:00,2286.0,10.0,10.04,1.0,,KCIC,236,-121.85795,39.79879
268,101219.11,ESE,,,27.12,120.0,101180.78,276.0,Overcast,10.0,100359.2,KCIC 070435Z AUTO 12003KT 10SM FEW027 OVC075 28/09 A2989 RMK AO1,754.0,30.43,1.54,28.0,2018-08-07 04:35:00,2286.0,9.0,9.04,1.0,,KCIC,236,-121.85795,39.79879
269,101219.11,NE,,,26.6,50.0,101183.53,603.0,Overcast,10.0,100359.2,KCIC 070455Z AUTO 05003KT 10SM BKN060 OVC075 27/09 A2989 RMK AO1,754.0,32.25,1.54,27.0,2018-08-07 04:55:00,1828.8,9.0,9.02,1.0,,KCIC,236,-121.85795,39.79879
270,101219.11,NE,,,26.6,50.0,101183.53,403.0,Overcast,10.0,100359.2,KCIC 070515Z AUTO 05004KT 10SM BKN040 OVC060 27/09 A2989 RMK AO1,604.0,32.25,2.06,27.0,2018-08-07 05:15:00,1219.2,9.0,9.02,1.0,,KCIC,236,-121.85795,39.79879
271,101219.11,NE,,,26.6,50.0,101183.53,404.0,Overcast,10.0,100359.2,KCIC 070535Z AUTO 05004KT 10SM OVC040 27/09 A2989 RMK AO1,,32.25,2.06,27.0,2018-08-07 05:35:00,1219.2,9.0,9.02,1.0,,KCIC,236,-121.85795,39.79879
272,101185.24,ENE,,,,70.0,101152.44,403.0,Overcast,10.0,100325.62,KCIC 070555Z AUTO 07003KT 10SM BKN040 OVC065 26/09 A2988 RMK AO1,654.0,34.21,1.54,26.0,2018-08-07 05:55:00,1219.2,9.0,9.01,1.0,,KCIC,236,-121.85795,39.79879
273,101185.24,E,,,,90.0,101155.22,382.0,Overcast,10.0,100325.62,KCIC 070615Z AUTO 09003KT 10SM SCT038 OVC065 25/09 A2988 RMK AO1,654.0,36.3,1.54,25.0,2018-08-07 06:15:00,1981.2,9.0,9.0,1.0,,KCIC,236,-121.85795,39.79879
274,101185.24,NE,,,,50.0,101155.22,383.0,Overcast,10.0,100325.62,KCIC 070635Z AUTO 05004KT 10SM BKN038 OVC065 25/09 A2988 RMK AO1,654.0,36.3,2.06,25.0,2018-08-07 06:35:00,1158.24,9.0,9.0,1.0,,KCIC,236,-121.85795,39.79879
275,101185.24,NE,,704.0,,50.0,101155.22,406.0,Overcast,10.0,100325.62,KCIC 070655Z AUTO 05003KT 10SM FEW040 BKN065 OVC070 25/09 A2988 RMK AO1,653.0,36.3,1.54,25.0,2018-08-07 06:55:00,1981.2,9.0,9.0,1.0,,KCIC,236,-121.85795,39.79879
276,101185.24,NE,,,,50.0,101152.44,266.0,Overcast,10.0,100325.62,KCIC 070715Z AUTO 05005KT 10SM FEW026 OVC065 26/08 A2988 RMK AO1,654.0,31.97,2.57,26.0,2018-08-07 07:15:00,1981.2,8.0,8.01,1.0,,KCIC,236,-121.85795,39.79879
277,101185.24,NE,,654.0,,50.0,101152.44,252.0,Overcast,10.0,100325.62,KCIC 070735Z AUTO 05004KT 10SM SCT025 SCT032 OVC065 26/08 A2988 RMK AO1,322.0,31.97,2.06,26.0,2018-08-07 07:35:00,1981.2,8.0,8.01,1.0,,KCIC,236,-121.85795,39.79879
278,101185.24,NE,,654.0,,40.0,101155.23,253.0,Overcast,10.0,100325.62,KCIC 070755Z AUTO 04005KT 10SM BKN025 BKN035 OVC065 25/07 A2988 RMK AO1,353.0,31.68,2.57,25.0,2018-08-07 07:55:00,762.0,7.0,7.0,1.0,,KCIC,236,-121.85795,39.79879
279,101151.38,N,,654.0,,0.0,101127.0,256.0,Overcast,10.0,100292.05,KCIC 070815Z AUTO 00000KT 10SM FEW025 SCT041 OVC065 23/08 A2987 RMK AO1,412.0,38.24,0.0,23.0,2018-08-07 08:15:00,1981.2,8.0,7.98,1.0,,KCIC,236,-121.85795,39.79879
280,101151.38,NW,,,,320.0,101129.83,432.0,Overcast,10.0,100292.05,KCIC 070835Z AUTO 32003KT 10SM SCT043 OVC065 22/09 A2987 RMK AO1,654.0,43.48,1.54,22.0,2018-08-07 08:35:00,1981.2,9.0,8.97,1.0,,KCIC,236,-121.85795,39.79879
281,101151.38,WNW,,,,300.0,101132.69,472.0,Overcast,10.0,100292.05,KCIC 070855Z AUTO 30005KT 10SM SCT047 OVC065 21/10 A2987 RMK AO1,654.0,49.43,2.57,21.0,2018-08-07 08:55:00,1981.2,10.0,9.96,1.0,,KCIC,236,-121.85795,39.79879
282,101151.38,NW,,,,310.0,101135.56,496.0,Overcast,10.0,100292.05,KCIC 070915Z AUTO 31006KT 10SM FEW049 OVC065 20/10 A2987 RMK AO1,654.0,52.57,3.09,20.0,2018-08-07 09:15:00,1981.2,10.0,9.96,1.0,,KCIC,236,-121.85795,39.79879
283,101151.38,NW,,,,320.0,101135.56,554.0,Overcast,10.0,100292.05,KCIC 070935Z AUTO 32006KT 10SM OVC055 20/10 A2987 RMK AO1,,52.57,3.09,20.0,2018-08-07 09:35:00,1676.4,10.0,9.96,1.0,,KCIC,236,-121.85795,39.79879
284,101117.52,NNW,,,,340.0,101098.84,554.0,Overcast,10.0,100258.48,KCIC 070955Z AUTO 34005KT 10SM OVC055 21/09 A2986 RMK AO1,,46.22,2.57,21.0,2018-08-07 09:55:00,1676.4,9.0,8.96,1.0,,KCIC,236,-121.85795,39.79879
285,101117.52,N,,,,350.0,101095.98,202.0,Overcast,10.0,100258.48,KCIC 071015Z AUTO 35004KT 10SM SCT020 OVC050 22/08 A2986 RMK AO1,504.0,40.63,2.06,22.0,2018-08-07 10:15:00,1524.0,8.0,7.97,1.0,,KCIC,236,-121.85795,39.79879
286,101117.52,N,,,,0.0,101095.99,206.0,Overcast,10.0,100258.48,KCIC 071035Z AUTO 00000KT 10SM FEW020 OVC050 22/07 A2986 RMK AO1,504.0,37.95,0.0,22.0,2018-08-07 10:35:00,1524.0,7.0,6.97,1.0,,KCIC,236,-121.85795,39.79879
287,101117.52,N,,,,0.0,101098.84,484.0,Overcast,10.0,100258.48,KCIC 071055Z AUTO 00000KT 10SM OVC048 21/08 A2986 RMK AO1,,43.19,0.0,21.0,2018-08-07 10:55:00,1463.04,8.0,7.96,1.0,,KCIC,236,-121.85795,39.79879
288,101117.52,N,,,,0.0,101101.72,192.0,Overcast,10.0,100258.48,KCIC 071115Z AUTO 00000KT 10SM SCT019 OVC046 20/08 A2986 RMK AO1,464.0,45.93,0.0,20.0,2018-08-07 11:15:00,1402.08,8.0,7.95,1.0,,KCIC,236,-121.85795,39.79879
289,101117.52,N,,,,0.0,101101.72,214.0,Overcast,10.0,100258.48,KCIC 071135Z AUTO 00000KT 10SM OVC021 20/08 A2986 RMK AO1,,45.93,0.0,20.0,2018-08-07 11:35:00,640.08,8.0,7.95,1.0,,KCIC,236,-121.85795,39.79879
290,101117.52,N,,,,0.0,101101.71,234.0,Overcast,10.0,100258.48,KCIC 071155Z AUTO 00000KT 10SM OVC023 20/09 A2986 RMK AO1,,49.15,0.0,20.0,2018-08-07 11:55:00,701.04,9.0,8.96,1.0,,KCIC,236,-121.85795,39.79879
291,101117.52,N,,414.0,,0.0,101101.71,253.0,Overcast,10.0,100258.48,KCIC 071215Z AUTO 00000KT 10SM BKN025 BKN033 OVC041 20/09 A2986 RMK AO1,333.0,49.15,0.0,20.0,2018-08-07 12:15:00,762.0,9.0,8.96,1.0,,KCIC,236,-121.85795,39.79879
292,101151.38,S,,,,170.0,101138.47,233.0,Overcast,10.0,100292.05,KCIC 071235Z AUTO 17003KT 10SM BKN023 OVC042 19/08 A2987 RMK AO1,424.0,48.87,1.54,19.0,2018-08-07 12:35:00,701.04,8.0,7.95,1.0,,KCIC,236,-121.85795,39.79879
293,101151.38,N,,,,0.0,101138.46,236.0,Overcast,10.0,100292.05,KCIC 071255Z AUTO 00000KT 10SM FEW023 OVC042 19/10 A2987 RMK AO1,424.0,55.93,0.0,19.0,2018-08-07 12:55:00,1280.16,10.0,9.96,1.0,,KCIC,236,-121.85795,39.79879
294,101151.38,N,,,,0.0,101135.57,422.0,Partly Cloudy,10.0,100292.05,KCIC 071315Z AUTO 00000KT 10SM SCT042 20/09 A2987 RMK AO1,,49.15,0.0,20.0,2018-08-07 13:15:00,,9.0,8.96,1.0,,KCIC,236,-121.85795,39.79879
295,101185.24,N,,,,0.0,101169.41,1.0,"Smoke,Haze",4.0,100325.62,KCIC 071355Z 00000KT 4SM FUHZ SKC 20/12 A2988,,60.03,0.0,20.0,2018-08-07 13:55:00,,12.0,11.97,1.0,487.0,KCIC,236,-121.85795,39.79879
296,101219.11,N,,,,0.0,101203.28,1.0,"Smoke,Haze",4.0,100359.2,KCIC 071450Z 00000KT 4SM FUHZ SKC 20/09 A2989,,49.15,0.0,20.0,2018-08-07 14:50:00,,9.0,8.96,1.0,487.0,KCIC,236,-121.85795,39.79879
297,101219.11,SSE,,,,150.0,101191.88,1.0,"Smoke,Haze",4.0,100359.2,KCIC 071548Z 15007KT 4SM FUHZ SKC 24/08 A2989,,36.01,3.6,24.0,2018-08-07 15:48:00,,8.0,7.99,1.0,487.0,KCIC,236,-121.85795,39.79879
298,101219.11,SSE,,,,160.0,101189.09,1.0,"Smoke,Haze",5.0,100359.2,KCIC 071652Z 16006KT 5SM FUHZ SKC 25/04 A2989,,25.73,3.09,25.0,2018-08-07 16:52:00,,4.0,4.01,1.0,487.0,KCIC,236,-121.85795,39.79879
299,101185.24,N,,,26.54,0.0,101149.68,1.0,"Smoke,Haze",4.0,100325.62,KCIC 071755Z 00000KT 4SM FUHZ SKC 27/08 A2988,,30.14,0.0,27.0,2018-08-07 17:55:00,,8.0,8.02,1.0,487.0,KCIC,236,-121.85795,39.79879
300,101151.38,WSW,,,27.12,250.0,101113.08,1.0,"Smoke,Haze",4.0,100292.05,KCIC 071852Z 25005KT 4SM FUHZ SKC 28/09 A2987,,30.43,2.57,28.0,2018-08-07 18:52:00,,9.0,9.04,1.0,487.0,KCIC,236,-121.85795,39.79879
301,101083.65,SSW,,,28.56,200.0,101039.94,1.0,"Smoke,Haze",4.0,100224.89,KCIC 071947Z 20006KT 4SM FUHZ SKC 30/09 A2985,,27.11,3.09,30.0,2018-08-07 19:47:00,,9.0,9.07,1.0,487.0,KCIC,236,-121.85795,39.79879
302,101015.92,S,,,29.67,180.0,100969.55,1.0,"Smoke,Haze",4.0,100157.74,KCIC 072047Z 18006KT 4SM FUHZ SKC 31/11 A2983,,29.27,3.09,31.0,2018-08-07 20:47:00,,11.0,11.08,1.0,487.0,KCIC,236,-121.85795,39.79879
303,100948.2,S,,,30.76,180.0,100899.19,1.0,"Smoke,Haze",4.0,100090.59,KCIC 072150Z 18008KT 4SM FUHZ SKC 32/12 A2981,,29.55,4.12,32.0,2018-08-07 21:50:00,,12.0,12.1,1.0,487.0,KCIC,236,-121.85795,39.79879
304,100914.33,SSE,,,31.72,160.0,100862.69,1.0,"Smoke,Haze",4.0,100057.01,KCIC 072248Z 16010KT 4SM FUHZ SKC 33/12 A2980,,27.93,5.14,33.0,2018-08-07 22:48:00,,12.0,12.12,1.0,487.0,KCIC,236,-121.85795,39.79879
305,100880.47,S,,,31.32,170.0,100828.86,1.0,"Smoke,Haze",4.0,100023.44,KCIC 072347Z 17010KT 4SM FUHZ SKC 33/10 A2979,,24.46,5.14,33.0,2018-08-07 23:47:00,,10.0,10.13,1.0,487.0,KCIC,236,-121.85795,39.79879
306,100812.74,S,,,31.32,170.0,100761.17,1.0,"Smoke,Haze",4.0,99956.29,KCIC 080047Z 17010KT 4SM FUHZ SKC 33/10 A2977,,24.46,5.14,33.0,2018-08-08 00:47:00,,10.0,10.13,1.0,487.0,KCIC,236,-121.85795,39.79879
307,100812.74,SE,,,31.04,140.0,100761.17,1.0,"Smoke,Haze",4.0,99956.29,KCIC 080147Z 14010KT 4SM FUHZ SKC 33/08 A2977,,21.37,5.14,33.0,2018-08-08 01:47:00,,8.0,8.14,1.0,487.0,KCIC,236,-121.85795,39.79879
308,100880.47,SE,,,28.68,140.0,100836.85,1.0,Clear,10.0,100023.44,KCIC 080315Z AUTO 14006KT 10SM CLR 30/10 A2979 RMK AO1,,28.99,3.09,30.0,2018-08-08 03:15:00,,10.0,10.07,1.0,,KCIC,236,-121.85795,39.79879
309,100880.47,ESE,,,28.68,120.0,100836.85,1.0,Clear,10.0,100023.44,KCIC 080335Z AUTO 12004KT 10SM CLR 30/10 A2979 RMK AO1,,28.99,2.06,30.0,2018-08-08 03:35:00,,10.0,10.07,1.0,,KCIC,236,-121.85795,39.79879
310,100914.33,E,,,27.91,100.0,100873.4,1.0,Clear,10.0,100057.01,KCIC 080355Z AUTO 10004KT 10SM CLR 29/10 A2980 RMK AO1,,30.71,2.06,29.0,2018-08-08 03:55:00,,10.0,10.05,1.0,,KCIC,236,-121.85795,39.79879
311,100948.2,E,,,27.91,100.0,100907.25,1.0,Clear,10.0,100090.59,KCIC 080415Z AUTO 10003KT 10SM CLR 29/10 A2981 RMK AO1,,30.71,1.54,29.0,2018-08-08 04:15:00,,10.0,10.05,1.0,,KCIC,236,-121.85795,39.79879
312,100948.2,N,,,28.05,0.0,100907.25,446.0,Mostly Clear,10.0,100090.59,KCIC 080435Z AUTO 00000KT 10SM FEW044 29/11 A2981 RMK AO1,,32.82,0.0,29.0,2018-08-08 04:35:00,,11.0,11.05,1.0,,KCIC,236,-121.85795,39.79879
313,100982.06,ENE,,,27.22,60.0,100943.83,443.0,Mostly Cloudy,10.0,100124.17,KCIC 080455Z AUTO 06003KT 10SM BKN044 28/10 A2982 RMK AO1,,32.54,1.54,28.0,2018-08-08 04:55:00,1341.12,10.0,10.04,1.0,,KCIC,236,-121.85795,39.79879
314,100982.06,NE,,,26.6,50.0,100946.57,424.0,Overcast,10.0,100124.17,KCIC 080515Z AUTO 05005KT 10SM OVC042 27/09 A2982 RMK AO1,,32.25,2.57,27.0,2018-08-08 05:15:00,1280.16,9.0,9.02,1.0,,KCIC,236,-121.85795,39.79879
315,100982.06,NE,,,26.6,50.0,100946.57,424.0,Overcast,10.0,100124.17,KCIC 080535Z AUTO 05004KT 10SM OVC042 27/09 A2982 RMK AO1,,32.25,2.06,27.0,2018-08-08 05:35:00,1280.16,9.0,9.02,1.0,,KCIC,236,-121.85795,39.79879
316,100982.06,N,,,,0.0,100949.33,443.0,Mostly Cloudy,10.0,100124.17,KCIC 080555Z AUTO 00000KT 10SM BKN044 26/09 A2982 RMK AO1,,34.21,0.0,26.0,2018-08-08 05:55:00,1341.12,9.0,9.01,1.0,,KCIC,236,-121.85795,39.79879
317,100982.06,N,,,,0.0,100952.1,443.0,Mostly Cloudy,10.0,100124.17,KCIC 080615Z AUTO 00000KT 10SM BKN044 25/09 A2982 RMK AO1,,36.3,0.0,25.0,2018-08-08 06:15:00,1341.12,9.0,9.0,1.0,,KCIC,236,-121.85795,39.79879
318,100982.06,N,,,,0.0,100952.1,424.0,Overcast,10.0,100124.17,KCIC 080635Z AUTO 00000KT 10SM OVC042 25/10 A2982 RMK AO1,,38.82,0.0,25.0,2018-08-08 06:35:00,1280.16,10.0,10.0,1.0,,KCIC,236,-121.85795,39.79879
319,100982.06,NW,,,,310.0,100957.71,424.0,Overcast,10.0,100124.17,KCIC 080655Z AUTO 31003KT 10SM OVC042 23/10 A2982 RMK AO1,,43.76,1.54,23.0,2018-08-08 06:55:00,1280.16,10.0,9.98,1.0,,KCIC,236,-121.85795,39.79879
320,101015.92,N,,,,0.0,100991.56,424.0,Overcast,10.0,100157.74,KCIC 080715Z AUTO 00000KT 10SM OVC042 23/10 A2983 RMK AO1,,43.76,0.0,23.0,2018-08-08 07:15:00,1280.16,10.0,9.98,1.0,,KCIC,236,-121.85795,39.79879
321,101015.92,N,,,,10.0,100988.75,444.0,Overcast,10.0,100157.74,KCIC 080735Z AUTO 01003KT 10SM OVC044 24/10 A2983 RMK AO1,,41.21,1.54,24.0,2018-08-08 07:35:00,1341.12,10.0,9.99,1.0,,KCIC,236,-121.85795,39.79879
322,101015.92,NNE,,,,20.0,100985.95,444.0,Overcast,10.0,100157.74,KCIC 080755Z AUTO 02003KT 10SM OVC044 25/11 A2983 RMK AO1,,41.49,1.54,25.0,2018-08-08 07:55:00,1341.12,11.0,10.99,1.0,,KCIC,236,-121.85795,39.79879
323,100982.06,N,,,,0.0,100957.71,463.0,Mostly Cloudy,10.0,100124.17,KCIC 080815Z AUTO 00000KT 10SM BKN046 23/10 A2982 RMK AO1,,43.76,0.0,23.0,2018-08-08 08:15:00,1402.08,10.0,9.98,1.0,,KCIC,236,-121.85795,39.79879
324,101015.92,WNW,,,,300.0,100994.4,496.0,Mostly Clear,10.0,100157.74,KCIC 080835Z AUTO 30003KT 10SM FEW049 22/10 A2983 RMK AO1,,46.5,1.54,22.0,2018-08-08 08:35:00,,10.0,9.97,1.0,,KCIC,236,-121.85795,39.79879
325,101015.92,NNW,,,,340.0,101000.12,1.0,Clear,10.0,100157.74,KCIC 080855Z AUTO 34003KT 10SM CLR 20/11 A2983 RMK AO1,,56.19,1.54,20.0,2018-08-08 08:55:00,,11.0,10.96,1.0,,KCIC,236,-121.85795,39.79879
326,101015.92,E,,,,100.0,100991.56,1.0,Clear,10.0,100157.74,KCIC 080915Z AUTO 10003KT 10SM CLR 23/11 A2983 RMK AO1,,46.78,1.54,23.0,2018-08-08 09:15:00,,11.0,10.98,1.0,,KCIC,236,-121.85795,39.79879
327,100982.06,E,,,,80.0,100960.54,1.0,Clear,10.0,100124.17,KCIC 080935Z AUTO 08003KT 10SM CLR 22/10 A2982 RMK AO1,,46.5,1.54,22.0,2018-08-08 09:35:00,,10.0,9.97,1.0,,KCIC,236,-121.85795,39.79879
328,101015.92,N,,,,0.0,100994.4,1.0,Clear,10.0,100157.74,KCIC 080955Z AUTO 00000KT 10SM CLR 22/10 A2983 RMK AO1,,46.5,0.0,22.0,2018-08-08 09:55:00,,10.0,9.97,1.0,,KCIC,236,-121.85795,39.79879
329,101015.92,ESE,,,,110.0,100994.4,1.0,Clear,10.0,100157.74,KCIC 081015Z AUTO 11003KT 10SM CLR 22/10 A2983 RMK AO1,,46.5,1.54,22.0,2018-08-08 10:15:00,,10.0,9.97,1.0,,KCIC,236,-121.85795,39.79879
330,101015.92,E,,,,100.0,100994.4,1.0,Clear,10.0,100157.74,KCIC 081035Z AUTO 10004KT 10SM CLR 22/10 A2983 RMK AO1,,46.5,2.06,22.0,2018-08-08 10:35:00,,10.0,9.97,1.0,,KCIC,236,-121.85795,39.79879
331,101015.92,N,,,,0.0,100994.39,1.0,Clear,10.0,100157.74,KCIC 081055Z AUTO 00000KT 10SM CLR 22/11 A2983 RMK AO1,,49.7,0.0,22.0,2018-08-08 10:55:00,,11.0,10.97,1.0,,KCIC,236,-121.85795,39.79879
332,101049.79,N,,,,0.0,101028.25,1.0,Clear,10.0,100191.32,KCIC 081115Z AUTO 00000KT 10SM CLR 22/11 A2984 RMK AO1,,49.7,0.0,22.0,2018-08-08 11:15:00,,11.0,10.97,1.0,,KCIC,236,-121.85795,39.79879
333,101049.79,N,,,,0.0,101025.42,1.0,Clear,10.0,100191.32,KCIC 081135Z AUTO 00000KT 10SM CLR 23/10 A2984 RMK AO1,,43.76,0.0,23.0,2018-08-08 11:35:00,,10.0,9.98,1.0,,KCIC,236,-121.85795,39.79879
334,101049.79,W,,,,270.0,101036.88,1.0,Clear,10.0,100191.32,KCIC 081155Z AUTO 27003KT 10SM CLR 19/11 A2984 RMK AO1,,59.79,1.54,19.0,2018-08-08 11:55:00,,11.0,10.96,1.0,,KCIC,236,-121.85795,39.79879
335,101049.79,N,,,,0.0,101033.98,1.0,Clear,10.0,100191.32,KCIC 081215Z AUTO 00000KT 10SM CLR 20/11 A2984 RMK AO1,,56.19,0.0,20.0,2018-08-08 12:15:00,,11.0,10.96,1.0,,KCIC,236,-121.85795,39.79879
336,101083.65,N,,,,0.0,101067.83,496.0,Mostly Clear,10.0,100224.89,KCIC 081235Z AUTO 00000KT 10SM FEW049 20/11 A2985 RMK AO1,,56.19,0.0,20.0,2018-08-08 12:35:00,,11.0,10.96,1.0,,KCIC,236,-121.85795,39.79879
337,101117.52,W,,,,280.0,101101.71,492.0,Partly Cloudy,10.0,100258.48,KCIC 081255Z AUTO 28003KT 10SM SCT049 20/11 A2986 RMK AO1,,56.19,1.54,20.0,2018-08-08 12:55:00,,11.0,10.96,1.0,,KCIC,236,-121.85795,39.79879
338,101117.52,N,,,,0.0,101101.71,496.0,Mostly Clear,10.0,100258.48,KCIC 081315Z AUTO 00000KT 10SM FEW049 20/11 A2986 RMK AO1,,56.19,0.0,20.0,2018-08-08 13:15:00,,11.0,10.96,1.0,,KCIC,236,-121.85795,39.79879
339,101185.24,SE,,,,130.0,101169.41,1.0,"Smoke,Haze",3.0,100325.62,KCIC 081355Z 13005KT 3SM FUHZ SKC 20/10 A2988,,52.57,2.57,20.0,2018-08-08 13:55:00,,10.0,9.96,1.0,487.0,KCIC,236,-121.85795,39.79879
340,101252.97,SE,,,,130.0,101231.39,1.0,"Smoke,Haze",3.0,100392.78,KCIC 081447Z 13005KT 3SM FUHZ SKC 22/12 A2990,,53.1,2.57,22.0,2018-08-08 14:47:00,,12.0,11.97,1.0,487.0,KCIC,236,-121.85795,39.79879
341,101320.7,SE,,,,130.0,101293.44,1.0,"Smoke,Haze",3.0,100459.93,KCIC 081550Z 13005KT 3SM FUHZ SKC 24/12 A2992,,47.06,2.57,24.0,2018-08-08 15:50:00,,12.0,11.99,1.0,487.0,KCIC,236,-121.85795,39.79879
342,101320.7,S,,,,180.0,101287.84,1.0,"Smoke,Haze",5.0,100459.93,KCIC 081650Z 18006KT 5SM FUHZ SKC 26/12 A2992,,41.78,3.09,26.0,2018-08-08 16:50:00,,12.0,12.01,1.0,487.0,KCIC,236,-121.85795,39.79879
343,101354.56,S,,,26.97,190.0,101318.92,1.0,"Smoke,Haze",5.0,100493.5,KCIC 081750Z 19005KT 5SM FUHZ SKC 27/13 A2993,,42.06,2.57,27.0,2018-08-08 17:50:00,,13.0,13.01,1.0,487.0,KCIC,236,-121.85795,39.79879
344,101286.84,SSW,,,29.2,210.0,101243.04,1.0,Smoke,5.0,100426.36,KCIC 081950Z 21006KT 5SM FU SKC 30/13 A2991,,35.35,3.09,30.0,2018-08-08 19:50:00,,13.0,13.06,1.0,7.0,KCIC,236,-121.85795,39.79879
345,101252.97,SE,,,31.0,130.0,101203.82,1.0,Smoke,5.0,100392.78,KCIC 082050Z 13006KT 5SM FU SKC 32/13 A2990,,31.55,3.09,32.0,2018-08-08 20:50:00,,13.0,13.09,1.0,7.0,KCIC,236,-121.85795,39.79879
346,101219.11,S,,,31.98,180.0,101167.31,1.0,Clear,5.0,100359.2,KCIC 082147Z 18007KT 5SM SKC 33/13 A2989,,29.83,3.6,33.0,2018-08-08 21:47:00,,13.0,13.12,1.0,,KCIC,236,-121.85795,39.79879
347,101185.24,SSE,,,31.98,160.0,101133.46,1.0,Smoke,5.0,100325.62,KCIC 082248Z 16009KT 5SM FU SKC 33/13 A2988,,29.83,4.63,33.0,2018-08-08 22:48:00,,13.0,13.12,1.0,7.0,KCIC,236,-121.85795,39.79879
348,101117.52,SSE,,,32.72,160.0,101063.14,1.0,Smoke,5.0,100258.48,KCIC 082347Z 16006KT 5SM FU SKC 34/12 A2986,,26.42,3.09,34.0,2018-08-08 23:47:00,,12.0,12.14,1.0,7.0,KCIC,236,-121.85795,39.79879
349,101049.79,SSE,,,32.72,150.0,100995.45,1.0,Smoke,5.0,100191.32,KCIC 090050Z 15006KT 5SM FU SKC 34/12 A2984,,26.42,3.09,34.0,2018-08-09 00:50:00,,12.0,12.14,1.0,7.0,KCIC,236,-121.85795,39.79879
350,101049.79,SSW,,,31.61,210.0,101000.72,1.0,Smoke,5.0,100191.32,KCIC 090150Z 21006KT 5SM FU SKC 32/15 A2984,,35.92,3.09,32.0,2018-08-09 01:50:00,,15.0,15.09,1.0,7.0,KCIC,236,-121.85795,39.79879
351,101083.65,N,,,29.72,0.0,101039.92,1.0,Clear,10.0,100224.89,KCIC 090315Z AUTO 00000KT 10SM CLR 30/15 A2985 RMK AO1,,40.24,0.0,30.0,2018-08-09 03:15:00,,15.0,15.05,1.0,,KCIC,236,-121.85795,39.79879
352,101117.52,N,,,29.72,0.0,101073.78,1.0,Clear,10.0,100258.48,KCIC 090335Z AUTO 00000KT 10SM CLR 30/15 A2986 RMK AO1,,40.24,0.0,30.0,2018-08-09 03:35:00,,15.0,15.05,1.0,,KCIC,236,-121.85795,39.79879
353,101117.52,NE,,603.0,28.6,50.0,101076.5,336.0,Mostly Cloudy,10.0,100258.48,KCIC 090355Z AUTO 05004KT 10SM FEW033 SCT049 BKN060 29/14 A2986 RMK AO1,492.0,39.96,2.06,29.0,2018-08-09 03:55:00,1828.8,14.0,14.04,1.0,,KCIC,236,-121.85795,39.79879
354,101151.38,NE,,604.0,28.2,50.0,101110.35,366.0,Overcast,10.0,100292.05,KCIC 090415Z AUTO 05004KT 10SM FEW036 BKN049 OVC060 29/12 A2987 RMK AO1,493.0,35.07,2.06,29.0,2018-08-09 04:15:00,1493.52,12.0,12.05,1.0,,KCIC,236,-121.85795,39.79879
355,101151.38,NE,,604.0,28.2,50.0,101110.35,386.0,Overcast,10.0,100292.05,KCIC 090435Z AUTO 05004KT 10SM FEW038 SCT050 OVC060 29/12 A2987 RMK AO1,502.0,35.07,2.06,29.0,2018-08-09 04:35:00,1828.8,12.0,12.05,1.0,,KCIC,236,-121.85795,39.79879
356,101151.38,NE,,,27.34,50.0,101113.08,386.0,Overcast,10.0,100292.05,KCIC 090455Z AUTO 05004KT 10SM FEW038 OVC060 28/11 A2987 RMK AO1,604.0,34.78,2.06,28.0,2018-08-09 04:55:00,1828.8,11.0,11.03,1.0,,KCIC,236,-121.85795,39.79879
357,101185.24,N,,,27.22,0.0,101146.93,604.0,Overcast,10.0,100325.62,KCIC 090515Z AUTO 00000KT 10SM OVC060 28/10 A2988 RMK AO1,,32.54,0.0,28.0,2018-08-09 05:15:00,1828.8,10.0,10.04,1.0,,KCIC,236,-121.85795,39.79879
358,101185.24,NNE,,,26.66,20.0,101149.67,604.0,Overcast,10.0,100325.62,KCIC 090535Z AUTO 02003KT 10SM OVC060 27/10 A2988 RMK AO1,,34.5,1.54,27.0,2018-08-09 05:35:00,1828.8,10.0,10.02,1.0,,KCIC,236,-121.85795,39.79879
359,101185.24,N,,,26.66,0.0,101149.67,604.0,Overcast,10.0,100325.62,KCIC 090555Z AUTO 00000KT 10SM OVC060 27/10 A2988 RMK AO1,,34.5,0.0,27.0,2018-08-09 05:55:00,1828.8,10.0,10.02,1.0,,KCIC,236,-121.85795,39.79879
360,101185.24,N,,,26.66,0.0,101149.67,604.0,Overcast,10.0,100325.62,KCIC 090615Z AUTO 00000KT 10SM OVC060 27/10 A2988 RMK AO1,,34.5,0.0,27.0,2018-08-09 06:15:00,1828.8,10.0,10.02,1.0,,KCIC,236,-121.85795,39.79879
361,101219.11,N,,,,0.0,101186.29,604.0,Overcast,10.0,100359.2,KCIC 090635Z AUTO 00000KT 10SM OVC060 26/10 A2989 RMK AO1,,36.59,0.0,26.0,2018-08-09 06:35:00,1828.8,10.0,10.01,1.0,,KCIC,236,-121.85795,39.79879
362,101219.11,ENE,,,,60.0,101186.3,604.0,Overcast,10.0,100359.2,KCIC 090655Z AUTO 06003KT 10SM OVC060 26/09 A2989 RMK AO1,,34.21,1.54,26.0,2018-08-09 06:55:00,1828.8,9.0,9.01,1.0,,KCIC,236,-121.85795,39.79879
363,101219.11,NE,,,,50.0,101186.3,604.0,Overcast,10.0,100359.2,KCIC 090715Z AUTO 05005KT 10SM OVC060 26/09 A2989 RMK AO1,,34.21,2.57,26.0,2018-08-09 07:15:00,1828.8,9.0,9.01,1.0,,KCIC,236,-121.85795,39.79879
364,101219.11,NE,,,,50.0,101186.3,604.0,Overcast,10.0,100359.2,KCIC 090735Z AUTO 05005KT 10SM OVC060 26/09 A2989 RMK AO1,,34.21,2.57,26.0,2018-08-09 07:35:00,1828.8,9.0,9.01,1.0,,KCIC,236,-121.85795,39.79879
365,101219.11,NE,,,,50.0,101186.3,604.0,Overcast,10.0,100359.2,KCIC 090755Z AUTO 05005KT 10SM OVC060 26/09 A2989 RMK AO1,,34.21,2.57,26.0,2018-08-09 07:55:00,1828.8,9.0,9.01,1.0,,KCIC,236,-121.85795,39.79879
366,101219.11,ENE,,,,60.0,101186.3,604.0,Overcast,10.0,100359.2,KCIC 090815Z AUTO 06005KT 10SM OVC060 26/09 A2989 RMK AO1,,34.21,2.57,26.0,2018-08-09 08:15:00,1828.8,9.0,9.01,1.0,,KCIC,236,-121.85795,39.79879
367,101219.11,NE,,,,50.0,101189.08,604.0,Overcast,10.0,100359.2,KCIC 090835Z AUTO 05003KT 10SM OVC060 25/09 A2989 RMK AO1,,36.3,1.54,25.0,2018-08-09 08:35:00,1828.8,9.0,9.0,1.0,,KCIC,236,-121.85795,39.79879
368,101219.11,N,,,,0.0,101189.08,604.0,Overcast,10.0,100359.2,KCIC 090855Z AUTO 00000KT 10SM OVC060 25/08 A2989 RMK AO1,,33.92,0.0,25.0,2018-08-09 08:55:00,1828.8,8.0,8.0,1.0,,KCIC,236,-121.85795,39.79879
369,101219.11,N,,,,0.0,101194.69,604.0,Overcast,10.0,100359.2,KCIC 090915Z AUTO 00000KT 10SM OVC060 23/11 A2989 RMK AO1,,46.78,0.0,23.0,2018-08-09 09:15:00,1828.8,11.0,10.98,1.0,,KCIC,236,-121.85795,39.79879
370,101219.11,NW,,,,310.0,101194.7,604.0,Overcast,10.0,100359.2,KCIC 090935Z AUTO 31003KT 10SM OVC060 23/10 A2989 RMK AO1,,43.76,1.54,23.0,2018-08-09 09:35:00,1828.8,10.0,9.98,1.0,,KCIC,236,-121.85795,39.79879
371,101219.11,N,,,,0.0,101197.54,604.0,Overcast,10.0,100359.2,KCIC 090955Z AUTO 00000KT 10SM OVC060 22/10 A2989 RMK AO1,,46.5,0.0,22.0,2018-08-09 09:55:00,1828.8,10.0,9.97,1.0,,KCIC,236,-121.85795,39.79879
372,101219.11,N,,,,0.0,101197.53,604.0,Overcast,10.0,100359.2,KCIC 091015Z AUTO 00000KT 10SM OVC060 22/11 A2989 RMK AO1,,49.7,0.0,22.0,2018-08-09 10:15:00,1828.8,11.0,10.97,1.0,,KCIC,236,-121.85795,39.79879
373,101252.97,N,,,,0.0,101231.4,604.0,Overcast,10.0,100392.78,KCIC 091035Z AUTO 00000KT 10SM OVC060 22/11 A2990 RMK AO1,,49.7,0.0,22.0,2018-08-09 10:35:00,1828.8,11.0,10.97,1.0,,KCIC,236,-121.85795,39.79879
374,101252.97,N,,,,0.0,101234.26,603.0,Overcast,10.0,100392.78,KCIC 091055Z AUTO 00000KT 10SM BKN060 OVC085 21/09 A2990 RMK AO1,854.0,46.22,0.0,21.0,2018-08-09 10:55:00,1828.8,9.0,8.96,1.0,,KCIC,236,-121.85795,39.79879
375,101252.97,NNW,,,,340.0,101231.4,603.0,Overcast,10.0,100392.78,KCIC 091115Z AUTO 34003KT 10SM BKN060 OVC085 22/09 A2990 RMK AO1,854.0,43.48,1.54,22.0,2018-08-09 11:15:00,1828.8,9.0,8.97,1.0,,KCIC,236,-121.85795,39.79879
376,101252.97,NNW,,,,330.0,101234.26,606.0,Overcast,10.0,100392.78,KCIC 091135Z AUTO 33005KT 10SM FEW060 OVC085 21/09 A2990 RMK AO1,854.0,46.22,2.57,21.0,2018-08-09 11:35:00,2590.8,9.0,8.96,1.0,,KCIC,236,-121.85795,39.79879
377,101252.97,NNW,,,,330.0,101231.4,854.0,Overcast,10.0,100392.78,KCIC 091155Z AUTO 33003KT 10SM OVC085 22/09 A2990 RMK AO1,,43.48,1.54,22.0,2018-08-09 11:55:00,2590.8,9.0,8.97,1.0,,KCIC,236,-121.85795,39.79879
378,101252.97,N,,,,0.0,101234.26,854.0,Overcast,10.0,100392.78,KCIC 091215Z AUTO 00000KT 10SM OVC085 21/09 A2990 RMK AO1,,46.22,0.0,21.0,2018-08-09 12:15:00,2590.8,9.0,8.96,1.0,,KCIC,236,-121.85795,39.79879
379,101252.97,E,,,,90.0,101234.26,854.0,Overcast,10.0,100392.78,KCIC 091235Z AUTO 09003KT 10SM OVC085 21/09 A2990 RMK AO1,,46.22,1.54,21.0,2018-08-09 12:35:00,2590.8,9.0,8.96,1.0,,KCIC,236,-121.85795,39.79879
380,101252.97,ESE,,854.0,,110.0,101237.14,426.0,Overcast,10.0,100392.78,KCIC 091255Z AUTO 11003KT 10SM FEW042 BKN050 OVC085 20/10 A2990 RMK AO1,503.0,52.57,1.54,20.0,2018-08-09 12:55:00,1524.0,10.0,9.96,1.0,,KCIC,236,-121.85795,39.79879
381,101252.97,N,,,,0.0,101237.14,466.0,Mostly Cloudy,10.0,100392.78,KCIC 091315Z AUTO 00000KT 10SM FEW046 BKN050 20/10 A2990 RMK AO1,503.0,52.57,0.0,20.0,2018-08-09 13:15:00,1524.0,10.0,9.96,1.0,,KCIC,236,-121.85795,39.79879
382,101286.84,N,,,,0.0,101271.01,1.0,"Smoke,Haze",4.0,100426.36,KCIC 091355Z 00000KT 4SM FUHZ SKC 20/09 A2991,,49.15,0.0,20.0,2018-08-09 13:55:00,,9.0,8.96,1.0,487.0,KCIC,236,-121.85795,39.79879
383,101320.7,N,,,,0.0,101301.97,1.0,"Smoke,Haze",4.0,100459.93,KCIC 091450Z 00000KT 4SM FUHZ SKC 21/10 A2992,,49.43,0.0,21.0,2018-08-09 14:50:00,,10.0,9.96,1.0,487.0,KCIC,236,-121.85795,39.79879
384,101354.56,N,,,,0.0,101330.12,1.0,"Smoke,Haze",4.0,100493.5,KCIC 091550Z 00000KT 4SM FUHZ SKC 23/09 A2993,,40.92,0.0,23.0,2018-08-09 15:50:00,,9.0,8.98,1.0,487.0,KCIC,236,-121.85795,39.79879
385,101354.56,SE,,,26.35,130.0,101318.95,1.0,Clear,4.0,100493.5,KCIC 091651Z 13005KT 4SM SKC 27/04 A2993 FU,,22.86,2.57,27.0,2018-08-09 16:51:00,,4.0,4.04,1.0,,KCIC,236,-121.85795,39.79879
386,101354.56,S,,,27.22,180.0,101316.18,1.0,"Smoke,Haze",4.0,100493.5,KCIC 091750Z 18008KT 4SM FUHZ SKC 28/10 A2993,,32.54,4.12,28.0,2018-08-09 17:50:00,,10.0,10.04,1.0,487.0,KCIC,236,-121.85795,39.79879
387,101320.7,SSW,,,28.2,210.0,101279.6,1.0,Smoke,4.0,100459.93,KCIC 091850Z 21006KT 4SM FU SKC 29/12 A2992,,35.07,3.09,29.0,2018-08-09 18:50:00,,12.0,12.05,1.0,7.0,KCIC,236,-121.85795,39.79879
388,101252.97,WSW,,,29.67,240.0,101206.5,1.0,"Smoke,Haze",4.0,100392.78,KCIC 091950Z 24004KT 4SM FUHZ SKC 31/11 A2990,,29.27,2.06,31.0,2018-08-09 19:50:00,,11.0,11.08,1.0,487.0,KCIC,236,-121.85795,39.79879
389,101185.24,SSW,,,31.51,210.0,101133.47,1.0,"Smoke,Haze",4.0,100325.62,KCIC 092050Z 21004KT 4SM FUHZ SKC 33/11 A2988,,26.15,2.06,33.0,2018-08-09 20:50:00,,11.0,11.13,1.0,487.0,KCIC,236,-121.85795,39.79879
390,101117.52,S,,,33.28,190.0,101060.53,1.0,Clear,4.0,100258.48,KCIC 092147Z 19005KT 4SM SKC 35/10 A2986 FUHZ,,21.89,2.57,35.0,2018-08-09 21:47:00,,10.0,10.18,1.0,,KCIC,236,-121.85795,39.79879
391,101049.79,SSE,,,34.3,160.0,100990.23,1.0,"Smoke,Haze",4.0,100191.32,KCIC 092255Z 16007KT 4SM FUHZ SKC 36/10 A2984,,20.72,3.6,36.0,2018-08-09 22:55:00,,10.0,10.21,1.0,487.0,KCIC,236,-121.85795,39.79879
392,101015.92,SSE,,,33.78,150.0,100956.4,1.0,"Smoke,Haze",4.0,100157.74,KCIC 092350Z 15007KT 4SM FUHZ SKC 36/07 A2983,,16.91,3.6,36.0,2018-08-09 23:50:00,,7.0,7.23,1.0,487.0,KCIC,236,-121.85795,39.79879
393,101015.92,SSE,,,34.1,160.0,100956.39,1.0,"Smoke,Haze",4.0,100157.74,KCIC 100050Z 16006KT 4SM FUHZ SKC 36/09 A2983,,19.37,3.09,36.0,2018-08-10 00:50:00,,9.0,9.21,1.0,487.0,KCIC,236,-121.85795,39.79879
394,101015.92,SSE,,,32.95,160.0,100958.99,1.0,"Smoke,Haze",4.0,100157.74,KCIC 100156Z 16006KT 4SM FUHZ SKC 35/08 A2983 RMK LAST,,19.13,3.09,35.0,2018-08-10 01:56:00,,8.0,8.2,1.0,487.0,KCIC,236,-121.85795,39.79879
395,101049.79,N,,,31.28,0.0,101000.72,1.0,Clear,10.0,100191.32,KCIC 100315Z AUTO 00000KT 10SM CLR 32/14 A2984 RMK AO1,,33.67,0.0,32.0,2018-08-10 03:15:00,,14.0,14.09,1.0,,KCIC,236,-121.85795,39.79879
396,101083.65,E,,,30.56,90.0,101034.58,652.0,Partly Cloudy,10.0,100224.89,KCIC 100335Z AUTO 09004KT 10SM SCT065 32/11 A2985 RMK AO1,,27.66,2.06,32.0,2018-08-10 03:35:00,,11.0,11.1,1.0,,KCIC,236,-121.85795,39.79879
397,101083.65,ENE,,,29.51,70.0,101037.25,654.0,Overcast,10.0,100224.89,KCIC 100355Z AUTO 07004KT 10SM OVC065 31/10 A2985 RMK AO1,,27.38,2.06,31.0,2018-08-10 03:55:00,1981.2,10.0,10.09,1.0,,KCIC,236,-121.85795,39.79879
398,101117.52,N,,,28.46,0.0,101073.81,496.0,Overcast,10.0,100258.48,KCIC 100415Z AUTO 00000KT 10SM FEW049 OVC065 30/08 A2986 RMK AO1,654.0,25.33,0.0,30.0,2018-08-10 04:15:00,1981.2,8.0,8.08,1.0,,KCIC,236,-121.85795,39.79879
399,101151.38,ENE,,,27.51,60.0,101110.37,554.0,Overcast,10.0,100292.05,KCIC 100435Z AUTO 06004KT 10SM OVC055 29/05 A2987 RMK AO1,,21.83,2.06,29.0,2018-08-10 04:35:00,1676.4,5.0,5.08,1.0,,KCIC,236,-121.85795,39.79879
400,101185.24,ENE,,,27.47,60.0,101144.22,554.0,Overcast,10.0,100325.62,KCIC 100455Z AUTO 06004KT 10SM OVC055 29/04 A2988 RMK AO1,,20.35,2.06,29.0,2018-08-10 04:55:00,1676.4,4.0,4.08,1.0,,KCIC,236,-121.85795,39.79879
401,101185.24,NE,,,27.47,50.0,101144.22,554.0,Overcast,10.0,100325.62,KCIC 100515Z AUTO 05005KT 10SM OVC055 29/04 A2988 RMK AO1,,20.35,2.57,29.0,2018-08-10 05:15:00,1676.4,4.0,4.08,1.0,,KCIC,236,-121.85795,39.79879
402,101185.24,NE,,,27.47,50.0,101144.22,554.0,Overcast,10.0,100325.62,KCIC 100535Z AUTO 05005KT 10SM OVC055 29/04 A2988 RMK AO1,,20.35,2.57,29.0,2018-08-10 05:35:00,1676.4,4.0,4.08,1.0,,KCIC,236,-121.85795,39.79879
403,101185.24,ENE,,,26.83,70.0,101146.94,554.0,Overcast,10.0,100325.62,KCIC 100555Z AUTO 07005KT 10SM OVC055 28/05 A2988 RMK AO1,,23.13,2.57,28.0,2018-08-10 05:55:00,1676.4,5.0,5.06,1.0,,KCIC,236,-121.85795,39.79879
404,101185.24,ENE,,,26.83,60.0,101146.94,554.0,Overcast,10.0,100325.62,KCIC 100615Z AUTO 06004KT 10SM OVC055 28/05 A2988 RMK AO1,,23.13,2.06,28.0,2018-08-10 06:15:00,1676.4,5.0,5.06,1.0,,KCIC,236,-121.85795,39.79879
405,101219.11,N,,,26.83,0.0,101180.8,554.0,Overcast,10.0,100359.2,KCIC 100635Z AUTO 00000KT 10SM OVC055 28/05 A2989 RMK AO1,,23.13,0.0,28.0,2018-08-10 06:35:00,1676.4,5.0,5.06,1.0,,KCIC,236,-121.85795,39.79879
406,101185.24,ENE,,,26.83,70.0,101146.94,554.0,Overcast,10.0,100325.62,KCIC 100655Z AUTO 07004KT 10SM OVC055 28/05 A2988 RMK AO1,,23.13,2.06,28.0,2018-08-10 06:55:00,1676.4,5.0,5.06,1.0,,KCIC,236,-121.85795,39.79879
407,101219.11,N,,,26.83,0.0,101180.8,554.0,Overcast,10.0,100359.2,KCIC 100715Z AUTO 00000KT 10SM OVC055 28/05 A2989 RMK AO1,,23.13,0.0,28.0,2018-08-10 07:15:00,1676.4,5.0,5.06,1.0,,KCIC,236,-121.85795,39.79879
408,101219.11,N,,,26.4,0.0,101183.54,554.0,Overcast,10.0,100359.2,KCIC 100735Z AUTO 00000KT 10SM OVC055 27/05 A2989 RMK AO1,,24.52,0.0,27.0,2018-08-10 07:35:00,1676.4,5.0,5.04,1.0,,KCIC,236,-121.85795,39.79879
409,101219.11,N,,,26.4,0.0,101183.54,554.0,Overcast,10.0,100359.2,KCIC 100755Z AUTO 00000KT 10SM OVC055 27/05 A2989 RMK AO1,,24.52,0.0,27.0,2018-08-10 07:55:00,1676.4,5.0,5.04,1.0,,KCIC,236,-121.85795,39.79879
410,101219.11,NE,,,26.4,50.0,101183.54,554.0,Overcast,10.0,100359.2,KCIC 100815Z AUTO 05004KT 10SM OVC055 27/05 A2989 RMK AO1,,24.52,2.06,27.0,2018-08-10 08:15:00,1676.4,5.0,5.04,1.0,,KCIC,236,-121.85795,39.79879
411,101219.11,E,,,26.4,80.0,101183.54,504.0,Overcast,10.0,100359.2,KCIC 100835Z AUTO 08003KT 10SM OVC050 27/05 A2989 RMK AO1,,24.52,1.54,27.0,2018-08-10 08:35:00,1524.0,5.0,5.04,1.0,,KCIC,236,-121.85795,39.79879
412,101252.97,W,,,,280.0,101225.74,504.0,Overcast,10.0,100392.78,KCIC 100855Z AUTO 28005KT 10SM OVC050 24/08 A2990 RMK AO1,,36.01,2.57,24.0,2018-08-10 08:55:00,1524.0,8.0,7.99,1.0,,KCIC,236,-121.85795,39.79879
413,101252.97,NW,,,,320.0,101231.4,504.0,Overcast,10.0,100392.78,KCIC 100915Z AUTO 32004KT 10SM OVC050 22/09 A2990 RMK AO1,,43.48,2.06,22.0,2018-08-10 09:15:00,1524.0,9.0,8.97,1.0,,KCIC,236,-121.85795,39.79879
414,101252.97,NW,,,,320.0,101228.55,504.0,Overcast,10.0,100392.78,KCIC 100935Z AUTO 32006KT 10SM OVC050 23/12 A2990 RMK AO1,,49.97,3.09,23.0,2018-08-10 09:35:00,1524.0,12.0,11.98,1.0,,KCIC,236,-121.85795,39.79879
415,101286.84,NNW,,,,330.0,101265.25,504.0,Overcast,10.0,100426.36,KCIC 100955Z AUTO 33004KT 10SM OVC050 22/12 A2991 RMK AO1,,53.1,2.06,22.0,2018-08-10 09:55:00,1524.0,12.0,11.97,1.0,,KCIC,236,-121.85795,39.79879
416,101286.84,N,,,,10.0,101259.6,504.0,Overcast,10.0,100426.36,KCIC 101015Z AUTO 01005KT 10SM OVC050 24/07 A2991 RMK AO1,,33.63,2.57,24.0,2018-08-10 10:15:00,1524.0,7.0,6.99,1.0,,KCIC,236,-121.85795,39.79879
417,101286.84,N,,,,0.0,101259.61,483.0,Overcast,10.0,100426.36,KCIC 101035Z AUTO 00000KT 10SM BKN048 OVC050 24/06 A2991 RMK AO1,504.0,31.39,0.0,24.0,2018-08-10 10:35:00,1463.04,6.0,5.99,1.0,,KCIC,236,-121.85795,39.79879
418,101320.7,SSW,,,,200.0,101299.11,504.0,Overcast,10.0,100459.93,KCIC 101055Z AUTO 20003KT 10SM OVC050 22/11 A2992 RMK AO1,,49.7,1.54,22.0,2018-08-10 10:55:00,1524.0,11.0,10.97,1.0,,KCIC,236,-121.85795,39.79879
419,101320.7,N,,,,0.0,101301.96,504.0,Overcast,10.0,100459.93,KCIC 101115Z AUTO 00000KT 10SM OVC050 21/13 A2992 RMK AO1,,60.27,0.0,21.0,2018-08-10 11:15:00,1524.0,13.0,12.97,1.0,,KCIC,236,-121.85795,39.79879
420,101354.56,N,,,,0.0,101332.94,604.0,Overcast,10.0,100493.5,KCIC 101135Z AUTO 00000KT 10SM OVC060 22/14 A2993 RMK AO1,,60.51,0.0,22.0,2018-08-10 11:35:00,1828.8,14.0,13.98,1.0,,KCIC,236,-121.85795,39.79879
421,101320.7,E,,,,100.0,101299.11,604.0,Overcast,10.0,100459.93,KCIC 101155Z AUTO 10003KT 10SM OVC060 22/11 A2992 RMK AO1,,49.7,1.54,22.0,2018-08-10 11:55:00,1828.8,11.0,10.97,1.0,,KCIC,236,-121.85795,39.79879
422,101320.7,E,,,,100.0,101299.11,483.0,Overcast,10.0,100459.93,KCIC 101215Z AUTO 10003KT 10SM BKN048 OVC050 22/09 A2992 RMK AO1,504.0,43.48,1.54,22.0,2018-08-10 12:15:00,1463.04,9.0,8.97,1.0,,KCIC,236,-121.85795,39.79879
423,101320.7,N,,,,0.0,101299.12,483.0,Overcast,10.0,100459.93,KCIC 101235Z AUTO 00000KT 10SM BKN048 OVC055 22/08 A2992 RMK AO1,554.0,40.63,0.0,22.0,2018-08-10 12:35:00,1463.04,8.0,7.97,1.0,,KCIC,236,-121.85795,39.79879
424,101354.56,N,,,,0.0,101335.83,504.0,Overcast,10.0,100493.5,KCIC 101255Z AUTO 00000KT 10SM OVC050 21/09 A2993 RMK AO1,,46.22,0.0,21.0,2018-08-10 12:55:00,1524.0,9.0,8.96,1.0,,KCIC,236,-121.85795,39.79879
425,101354.56,N,,,,0.0,101335.83,502.0,Partly Cloudy,10.0,100493.5,KCIC 101315Z AUTO 00000KT 10SM SCT050 21/09 A2993 RMK AO1,,46.22,0.0,21.0,2018-08-10 13:15:00,,9.0,8.96,1.0,,KCIC,236,-121.85795,39.79879
426,101422.29,N,,,,0.0,101395.02,1.0,Smoke,5.0,100560.66,KCIC 101455Z 00000KT 5SM FU SKC 24/08 A2995,,36.01,0.0,24.0,2018-08-10 14:55:00,,8.0,7.99,1.0,7.0,KCIC,236,-121.85795,39.79879
427,101456.15,N,,,,0.0,101426.06,1.0,Smoke,5.0,100594.23,KCIC 101550Z 00000KT 5SM FU SKC 25/08 A2996,,33.92,0.0,25.0,2018-08-10 15:50:00,,8.0,8.0,1.0,7.0,KCIC,236,-121.85795,39.79879
428,101456.15,N,,,27.91,0.0,101415.0,1.0,"Smoke,Haze",4.0,100594.23,KCIC 101650Z 00000KT 4SM FUHZ SKC 29/10 A2996,,30.71,0.0,29.0,2018-08-10 16:50:00,,10.0,10.05,1.0,487.0,KCIC,236,-121.85795,39.79879
429,101422.29,WSW,,,28.68,240.0,101378.44,1.0,Smoke,5.0,100560.66,KCIC 101755Z 24005KT 5SM FU SKC 30/10 A2995,,28.99,2.57,30.0,2018-08-10 17:55:00,,10.0,10.07,1.0,7.0,KCIC,236,-121.85795,39.79879
430,101320.7,N,,,32.29,0.0,101266.22,1.0,Smoke,5.0,100459.93,KCIC 101947Z 00000KT 5SM FU SKC 34/10 A2992,,23.13,0.0,34.0,2018-08-10 19:47:00,,10.0,10.15,1.0,7.0,KCIC,236,-121.85795,39.79879
431,101286.84,SSE,,,34.1,150.0,101227.15,1.0,Smoke,5.0,100426.36,KCIC 102050Z 15005KT 5SM FU SKC 36/09 A2991,,19.37,2.57,36.0,2018-08-10 20:50:00,,9.0,9.21,1.0,7.0,KCIC,236,-121.85795,39.79879
432,101219.11,SSW,,,35.33,200.0,101156.86,1.0,Smoke,5.0,100359.2,KCIC 102155Z 20005KT 5SM FU SKC 37/10 A2989,,19.62,2.57,37.0,2018-08-10 21:55:00,,10.0,10.24,1.0,7.0,KCIC,236,-121.85795,39.79879
433,101151.38,S,,,35.92,170.0,101086.62,1.0,Smoke,5.0,100292.05,KCIC 102250Z 17008KT 5SM FU SKC 38/08 A2987,,16.24,4.12,38.0,2018-08-10 22:50:00,,8.0,8.29,1.0,7.0,KCIC,236,-121.85795,39.79879
434,101117.52,S,,,35.45,180.0,101052.79,1.0,Smoke,5.0,100258.48,KCIC 102350Z 18003KT 5SM FU SKC 38/05 A2986,,13.21,1.54,38.0,2018-08-10 23:50:00,,5.0,5.32,1.0,7.0,KCIC,236,-121.85795,39.79879
435,101049.79,,,,35.45,,100985.1,1.0,Smoke,5.0,100191.32,KCIC 110050Z 1606KT 5SM FU SKC 38/05 A2984,,13.21,,38.0,2018-08-11 00:50:00,,5.0,5.32,1.0,7.0,KCIC,236,-121.85795,39.79879
436,101049.79,SSW,,,33.93,200.0,100990.24,1.0,Smoke,5.0,100191.32,KCIC 110147Z 20006KT 5SM FU SKC 36/08 A2984 RMK LAST,,18.1,3.09,36.0,2018-08-11 01:47:00,,8.0,8.22,1.0,7.0,KCIC,236,-121.85795,39.79879
437,101049.79,SE,,,32.42,140.0,101000.71,1.0,Clear,10.0,100191.32,KCIC 110315Z AUTO 14003KT 10SM CLR 32/17 A2984 RMK AO1,,40.8,1.54,32.0,2018-08-11 03:15:00,,17.0,17.07,1.0,,KCIC,236,-121.85795,39.79879
438,101049.79,SE,,,31.61,130.0,101000.72,853.0,Mostly Cloudy,10.0,100191.32,KCIC 110335Z AUTO 13003KT 10SM BKN085 32/15 A2984 RMK AO1,,35.92,1.54,32.0,2018-08-11 03:35:00,2590.8,15.0,15.09,1.0,,KCIC,236,-121.85795,39.79879
439,101083.65,ENE,,854.0,30.56,70.0,101034.58,402.0,Overcast,10.0,100224.89,KCIC 110355Z AUTO 07003KT 10SM SCT040 BKN050 OVC085 32/11 A2985 RMK AO1,503.0,27.66,1.54,32.0,2018-08-11 03:55:00,1524.0,11.0,11.1,1.0,,KCIC,236,-121.85795,39.79879
440,101117.52,ENE,,,30.25,70.0,101068.45,423.0,,10.0,100258.48,KCIC 110415Z AUTO 07003KT 10SM BKN042 OVC085 32/09 A2986 RMK AO1,854.0,24.2,1.54,32.0,2018-08-11 04:15:00,1280.16,9.0,9.12,1.0,,KCIC,236,-121.85795,39.79879
441,101117.52,N,,,29.27,0.0,101071.12,444.0,,10.0,100258.48,KCIC 110435Z AUTO 00000KT 10SM OVC044 31/08 A2986 RMK AO1,,23.93,0.0,31.0,2018-08-11 04:35:00,1341.12,8.0,8.1,1.0,,KCIC,236,-121.85795,39.79879
442,101151.38,N,,,28.46,0.0,101107.65,463.0,,10.0,100292.05,KCIC 110455Z AUTO 00000KT 10SM BKN046 OVC085 30/08 A2987 RMK AO1,854.0,25.33,0.0,30.0,2018-08-11 04:55:00,1402.08,8.0,8.08,1.0,,KCIC,236,-121.85795,39.79879
443,101151.38,ENE,,,28.38,70.0,101107.66,484.0,,10.0,100292.05,KCIC 110515Z AUTO 07003KT 10SM OVC048 30/07 A2987 RMK AO1,,23.66,1.54,30.0,2018-08-11 05:15:00,1463.04,7.0,7.08,1.0,,KCIC,236,-121.85795,39.79879
444,101151.38,E,,,28.38,80.0,101107.66,484.0,,10.0,100292.05,KCIC 110535Z AUTO 08003KT 10SM OVC048 30/07 A2987 RMK AO1,,23.66,1.54,30.0,2018-08-11 05:35:00,1463.04,7.0,7.08,1.0,,KCIC,236,-121.85795,39.79879
445,101151.38,ENE,,,27.63,70.0,101110.36,503.0,,10.0,100292.05,KCIC 110555Z AUTO 07003KT 10SM BKN050 OVC080 29/07 A2987 RMK AO1,804.0,25.06,1.54,29.0,2018-08-11 05:55:00,1524.0,7.0,7.06,1.0,,KCIC,236,-121.85795,39.79879
446,101117.52,E,,,27.63,80.0,101076.52,506.0,,10.0,100258.48,KCIC 110615Z AUTO 08005KT 10SM FEW050 OVC080 29/07 A2986 RMK AO1,804.0,25.06,2.57,29.0,2018-08-11 06:15:00,2438.4,7.0,7.06,1.0,,KCIC,236,-121.85795,39.79879
447,101151.38,E,,,26.95,100.0,101113.09,456.0,,10.0,100292.05,KCIC 110635Z AUTO 10003KT 10SM FEW045 OVC080 28/07 A2987 RMK AO1,804.0,26.56,1.54,28.0,2018-08-11 06:35:00,2438.4,7.0,7.05,1.0,,KCIC,236,-121.85795,39.79879
448,101151.38,ESE,,,27.03,120.0,101113.09,456.0,,10.0,100292.05,KCIC 110655Z AUTO 12003KT 10SM FEW045 OVC080 28/08 A2987 RMK AO1,804.0,28.43,1.54,28.0,2018-08-11 06:55:00,2438.4,8.0,8.04,1.0,,KCIC,236,-121.85795,39.79879
449,101151.38,N,,,26.95,0.0,101113.09,804.0,,10.0,100292.05,KCIC 110715Z AUTO 00000KT 10SM OVC080 28/07 A2987 RMK AO1,,26.56,0.0,28.0,2018-08-11 07:15:00,2438.4,7.0,7.05,1.0,,KCIC,236,-121.85795,39.79879
450,101151.38,N,,,26.95,0.0,101113.09,804.0,,10.0,100292.05,KCIC 110735Z AUTO 00000KT 10SM OVC080 28/07 A2987 RMK AO1,,26.56,0.0,28.0,2018-08-11 07:35:00,2438.4,7.0,7.05,1.0,,KCIC,236,-121.85795,39.79879
451,101151.38,ESE,,,26.88,120.0,101113.09,804.0,,10.0,100292.05,KCIC 110755Z AUTO 12003KT 10SM OVC080 28/06 A2987 RMK AO1,,24.79,1.54,28.0,2018-08-11 07:55:00,2438.4,6.0,6.05,1.0,,KCIC,236,-121.85795,39.79879
452,101151.38,N,,,26.44,0.0,101115.84,804.0,,10.0,100292.05,KCIC 110815Z AUTO 00000KT 10SM OVC080 27/06 A2987 RMK AO1,,26.28,0.0,27.0,2018-08-11 08:15:00,2438.4,6.0,6.03,1.0,,KCIC,236,-121.85795,39.79879
453,101151.38,N,,,26.4,0.0,101115.84,804.0,,10.0,100292.05,KCIC 110835Z AUTO 00000KT 10SM OVC080 27/05 A2987 RMK AO1,,24.52,0.0,27.0,2018-08-11 08:35:00,2438.4,5.0,5.04,1.0,,KCIC,236,-121.85795,39.79879
454,101151.38,N,,,26.4,0.0,101115.84,804.0,,10.0,100292.05,KCIC 110855Z AUTO 00000KT 10SM OVC080 27/05 A2987 RMK AO1,,24.52,0.0,27.0,2018-08-11 08:55:00,2438.4,5.0,5.04,1.0,,KCIC,236,-121.85795,39.79879
455,101151.38,NW,,,,310.0,101121.38,606.0,,10.0,100292.05,KCIC 110915Z AUTO 31003KT 10SM FEW060 OVC080 25/07 A2987 RMK AO1,804.0,31.68,1.54,25.0,2018-08-11 09:15:00,2438.4,7.0,7.0,1.0,,KCIC,236,-121.85795,39.79879
456,101185.24,NW,,,,320.0,101158.03,603.0,,10.0,100325.62,KCIC 110935Z AUTO 32003KT 10SM BKN060 OVC080 24/08 A2988 RMK AO1,804.0,36.01,1.54,24.0,2018-08-11 09:35:00,1828.8,8.0,7.99,1.0,,KCIC,236,-121.85795,39.79879
457,101185.24,NW,,,,320.0,101155.22,604.0,,10.0,100325.62,KCIC 110955Z AUTO 32003KT 10SM OVC060 25/08 A2988 RMK AO1,,33.92,1.54,25.0,2018-08-11 09:55:00,1828.8,8.0,8.0,1.0,,KCIC,236,-121.85795,39.79879
458,101185.24,N,,,,0.0,101158.02,603.0,,10.0,100325.62,KCIC 111015Z AUTO 00000KT 10SM BKN060 OVC075 24/09 A2988 RMK AO1,754.0,38.53,0.0,24.0,2018-08-11 10:15:00,1828.8,9.0,8.99,1.0,,KCIC,236,-121.85795,39.79879
459,101185.24,ESE,,,,110.0,101160.85,604.0,,10.0,100325.62,KCIC 111035Z AUTO 11003KT 10SM OVC060 23/08 A2988 RMK AO1,,38.24,1.54,23.0,2018-08-11 10:35:00,1828.8,8.0,7.98,1.0,,KCIC,236,-121.85795,39.79879
460,101185.24,E,,,,90.0,101158.03,704.0,,10.0,100325.62,KCIC 111055Z AUTO 09004KT 10SM OVC070 24/07 A2988 RMK AO1,,33.63,2.06,24.0,2018-08-11 10:55:00,2133.6,7.0,6.99,1.0,,KCIC,236,-121.85795,39.79879
461,101185.24,NE,,,,50.0,101158.03,704.0,,10.0,100325.62,KCIC 111115Z AUTO 05003KT 10SM OVC070 24/06 A2988 RMK AO1,,31.39,1.54,24.0,2018-08-11 11:15:00,2133.6,6.0,5.99,1.0,,KCIC,236,-121.85795,39.79879
462,101185.24,N,,,,0.0,101158.03,704.0,,10.0,100325.62,KCIC 111135Z AUTO 00000KT 10SM OVC070 24/06 A2988 RMK AO1,,31.39,0.0,24.0,2018-08-11 11:35:00,2133.6,6.0,5.99,1.0,,KCIC,236,-121.85795,39.79879
463,101219.11,N,,,,0.0,101194.71,704.0,,10.0,100359.2,KCIC 111155Z AUTO 00000KT 10SM OVC070 23/07 A2989 RMK AO1,,35.72,0.0,23.0,2018-08-11 11:55:00,2133.6,7.0,6.98,1.0,,KCIC,236,-121.85795,39.79879
464,101219.11,N,,,,0.0,101194.71,704.0,,10.0,100359.2,KCIC 111215Z AUTO 00000KT 10SM OVC070 23/05 A2989 RMK AO1,,31.11,0.0,23.0,2018-08-11 12:15:00,2133.6,5.0,4.98,1.0,,KCIC,236,-121.85795,39.79879
465,101252.97,N,,,,0.0,101225.75,704.0,,10.0,100392.78,KCIC 111235Z AUTO 00000KT 10SM OVC070 24/05 A2990 RMK AO1,,29.29,0.0,24.0,2018-08-11 12:35:00,2133.6,5.0,4.99,1.0,,KCIC,236,-121.85795,39.79879
466,101286.84,N,,,,0.0,101259.61,704.0,,10.0,100426.36,KCIC 111255Z AUTO 00000KT 10SM OVC070 24/05 A2991 RMK AO1,,29.29,0.0,24.0,2018-08-11 12:55:00,2133.6,5.0,4.99,1.0,,KCIC,236,-121.85795,39.79879
467,101320.7,N,,,,0.0,101293.46,703.0,,10.0,100459.93,KCIC 111315Z AUTO 00000KT 10SM BKN070 24/05 A2992 RMK AO1,,29.29,0.0,24.0,2018-08-11 13:15:00,2133.6,5.0,4.99,1.0,,KCIC,236,-121.85795,39.79879
468,101320.7,N,,,,0.0,101296.28,2503.0,,8.0,100459.93,KCIC 111357Z 00000KT 8SM FU BKN250 23/05 A2992,,31.11,0.0,23.0,2018-08-11 13:57:00,7620.0,5.0,4.98,1.0,7.0,KCIC,236,-121.85795,39.79879
469,101354.56,ESE,,,,110.0,101330.13,2003.0,,8.0,100493.5,KCIC 111449Z 11004KT 8SM FU BKN200 23/05 A2993,,31.11,2.06,23.0,2018-08-11 14:49:00,6096.0,5.0,4.98,1.0,7.0,KCIC,236,-121.85795,39.79879
470,101422.29,W,,,,260.0,101395.01,2003.0,,8.0,100560.66,KCIC 111558Z 26006KT 8SM FU BKN200 24/10 A2995,,41.21,3.09,24.0,2018-08-11 15:58:00,6096.0,10.0,9.99,1.0,7.0,KCIC,236,-121.85795,39.79879
471,101422.29,WSW,,,,240.0,101392.2,1.0,,8.0,100560.66,KCIC 111647Z 24003KT 8SM FU SKC 25/11 A2995,,41.49,1.54,25.0,2018-08-11 16:47:00,,11.0,10.99,1.0,7.0,KCIC,236,-121.85795,39.79879
472,101422.29,N,,,27.12,0.0,101383.89,1.0,,8.0,100560.66,KCIC 111747Z 00000KT 8SM FU SKC 28/09 A2995,,30.43,0.0,28.0,2018-08-11 17:47:00,,9.0,9.04,1.0,7.0,KCIC,236,-121.85795,39.79879
473,101388.43,SW,,,28.56,220.0,101344.59,1.0,,6.0,100527.08,KCIC 111847Z 22005KT 6SM FUHZ SKC 30/09 A2994,,27.11,2.57,30.0,2018-08-11 18:47:00,,9.0,9.07,1.0,487.0,KCIC,236,-121.85795,39.79879
474,101320.7,S,,,30.94,170.0,101268.87,1.0,,6.0,100459.93,KCIC 111950Z 17005KT 6SM FUHZ SKC 33/07 A2992,,19.96,2.57,33.0,2018-08-11 19:50:00,,7.0,7.15,1.0,487.0,KCIC,236,-121.85795,39.79879
475,101252.97,SSE,,,31.98,150.0,101198.54,1.0,,6.0,100392.78,KCIC 112047Z 15011KT 6SM FUHZ SKC 34/08 A2990,,20.21,5.66,34.0,2018-08-11 20:47:00,,8.0,8.17,1.0,487.0,KCIC,236,-121.85795,39.79879
476,101151.38,SSE,,,32.62,150.0,101094.39,1.0,,3.5,100292.05,KCIC 112155Z 15014KT 3 1/2SM FUHZ SKC 35/05 A2987,,15.56,7.2,35.0,2018-08-11 21:55:00,,5.0,5.22,1.0,487.0,KCIC,236,-121.85795,39.79879
477,101117.52,SSE,,,32.82,160.0,101060.54,1.0,,3.0,100258.48,KCIC 112247Z 16011KT 3SM FUHZ SKC 35/07 A2986,,17.86,5.66,35.0,2018-08-11 22:47:00,,7.0,7.2,1.0,487.0,KCIC,236,-121.85795,39.79879
478,101015.92,SSE,,,32.82,150.0,100959.0,1.0,,3.0,100157.74,KCIC 112347Z 15011KT 3SM FUHZ SKC 35/07 A2983,,17.86,5.66,35.0,2018-08-11 23:47:00,,7.0,7.2,1.0,487.0,KCIC,236,-121.85795,39.79879
479,101015.92,S,,,34.03,180.0,100958.98,1.0,,9.0,100157.74,KCIC 120018Z 18008KT 9SM FUHZ SKC 35/13 A2983,,26.69,4.12,35.0,2018-08-12 00:18:00,,13.0,13.16,1.0,487.0,KCIC,236,-121.85795,39.79879
480,100982.06,S,,,32.99,170.0,100927.75,1.0,,5.0,100124.17,KCIC 120047Z COR 17008KT 5SM FUHZ SKC 34/13 A2982,,28.21,4.12,34.0,2018-08-12 00:47:00,,13.0,13.14,1.0,487.0,KCIC,236,-121.85795,39.79879
481,100948.2,SSE,,,32.99,150.0,100893.9,1.0,,5.0,100090.59,KCIC 120147Z 15005KT 5SM FUHZ SKC 34/13 A2981 RMK LAST,,28.21,2.57,34.0,2018-08-12 01:47:00,,13.0,13.14,1.0,487.0,KCIC,236,-121.85795,39.79879
482,100982.06,SE,,,30.25,130.0,100933.05,1.0,,10.0,100124.17,KCIC 120315Z AUTO 13004KT 10SM CLR 32/09 A2982 RMK AO1,,24.2,2.06,32.0,2018-08-12 03:15:00,,9.0,9.12,1.0,,KCIC,236,-121.85795,39.79879
483,100982.06,E,,,30.25,100.0,100933.05,603.0,,10.0,100124.17,KCIC 120335Z AUTO 10004KT 10SM BKN060 32/09 A2982 RMK AO1,,24.2,2.06,32.0,2018-08-12 03:35:00,1828.8,9.0,9.12,1.0,,KCIC,236,-121.85795,39.79879
484,101015.92,E,,,30.14,90.0,100966.9,604.0,,10.0,100157.74,KCIC 120355Z AUTO 09005KT 10SM OVC060 32/08 A2983 RMK AO1,,22.61,2.57,32.0,2018-08-12 03:55:00,1828.8,8.0,8.12,1.0,,KCIC,236,-121.85795,39.79879
485,101015.92,ESE,,,29.9,110.0,100966.9,604.0,,10.0,100157.74,KCIC 120415Z AUTO 11006KT 10SM OVC060 32/05 A2983 RMK AO1,,18.39,3.09,32.0,2018-08-12 04:15:00,1828.8,5.0,5.14,1.0,,KCIC,236,-121.85795,39.79879
486,101049.79,ESE,,,29.85,110.0,101000.76,604.0,,10.0,100191.32,KCIC 120435Z AUTO 11006KT 10SM OVC060 32/04 A2984 RMK AO1,,17.15,3.09,32.0,2018-08-12 04:35:00,1828.8,4.0,4.15,1.0,,KCIC,236,-121.85795,39.79879
487,101049.79,SE,,,29.9,130.0,101000.76,704.0,,10.0,100191.32,KCIC 120455Z AUTO 13011KT 10SM OVC070 32/05 A2984 RMK AO1,,18.39,5.66,32.0,2018-08-12 04:55:00,2133.6,5.0,5.14,1.0,,KCIC,236,-121.85795,39.79879
488,101049.79,SE,,,29.06,130.0,101003.43,704.0,,10.0,100191.32,KCIC 120515Z AUTO 13007KT 10SM OVC070 31/05 A2984 RMK AO1,,19.46,3.6,31.0,2018-08-12 05:15:00,2133.6,5.0,5.11,1.0,,KCIC,236,-121.85795,39.79879
489,101049.79,SE,,,27.51,140.0,101008.82,704.0,,10.0,100191.32,KCIC 120535Z AUTO 14005KT 10SM OVC070 29/05 A2984 RMK AO1,,21.83,2.57,29.0,2018-08-12 05:35:00,2133.6,5.0,5.08,1.0,,KCIC,236,-121.85795,39.79879
490,101049.79,ESE,,,26.83,120.0,101011.54,704.0,,10.0,100191.32,KCIC 120555Z AUTO 12004KT 10SM OVC070 28/05 A2984 RMK AO1,,23.13,2.06,28.0,2018-08-12 05:55:00,2133.6,5.0,5.06,1.0,,KCIC,236,-121.85795,39.79879
491,101083.65,S,,,26.44,170.0,101048.13,804.0,,10.0,100224.89,KCIC 120615Z AUTO 17006KT 10SM OVC080 27/06 A2985 RMK AO1,,26.28,3.09,27.0,2018-08-12 06:15:00,2438.4,6.0,6.03,1.0,,KCIC,236,-121.85795,39.79879
492,101049.79,N,,,26.49,0.0,101014.28,804.0,,10.0,100191.32,KCIC 120655Z AUTO 00000KT 10SM OVC080 27/07 A2984 RMK AO1,,28.15,0.0,27.0,2018-08-12 06:55:00,2438.4,7.0,7.03,1.0,,KCIC,236,-121.85795,39.79879
493,101083.65,N,,,,0.0,101050.89,804.0,,10.0,100224.89,KCIC 120715Z AUTO 00000KT 10SM OVC080 26/06 A2985 RMK AO1,,27.87,0.0,26.0,2018-08-12 07:15:00,2438.4,6.0,6.01,1.0,,KCIC,236,-121.85795,39.79879
494,101117.52,N,,,,0.0,101087.53,804.0,,10.0,100258.48,KCIC 120735Z AUTO 00000KT 10SM OVC080 25/08 A2986 RMK AO1,,33.92,0.0,25.0,2018-08-12 07:35:00,2438.4,8.0,8.0,1.0,,KCIC,236,-121.85795,39.79879
495,101117.52,N,,,,10.0,101087.53,804.0,,10.0,100258.48,KCIC 120755Z AUTO 01003KT 10SM OVC080 25/07 A2986 RMK AO1,,31.68,1.54,25.0,2018-08-12 07:55:00,2438.4,7.0,7.0,1.0,,KCIC,236,-121.85795,39.79879
496,101151.38,NE,,,,50.0,101121.38,804.0,,10.0,100292.05,KCIC 120815Z AUTO 05003KT 10SM OVC080 25/07 A2987 RMK AO1,,31.68,1.54,25.0,2018-08-12 08:15:00,2438.4,7.0,7.0,1.0,,KCIC,236,-121.85795,39.79879
497,101151.38,N,,,,0.0,101121.38,804.0,,10.0,100292.05,KCIC 120835Z AUTO 00000KT 10SM OVC080 25/06 A2987 RMK AO1,,29.57,0.0,25.0,2018-08-12 08:35:00,2438.4,6.0,6.0,1.0,,KCIC,236,-121.85795,39.79879
498,101151.38,ESE,,,,110.0,101121.39,803.0,,10.0,100292.05,KCIC 120855Z AUTO 11003KT 10SM BKN080 25/05 A2987 RMK AO1,,27.59,1.54,25.0,2018-08-12 08:55:00,2438.4,5.0,5.0,1.0,,KCIC,236,-121.85795,39.79879
499,101185.24,ENE,,,,70.0,101158.03,806.0,,10.0,100325.62,KCIC 120915Z AUTO 07003KT 10SM FEW080 24/05 A2988 RMK AO1,,29.29,1.54,24.0,2018-08-12 09:15:00,,5.0,4.99,1.0,,KCIC,236,-121.85795,39.79879
500,101185.24,ESE,,,,120.0,101158.03,1.0,,10.0,100325.62,KCIC 120935Z AUTO 12003KT 10SM CLR 24/05 A2988 RMK AO1,,29.29,1.54,24.0,2018-08-12 09:35:00,,5.0,4.99,1.0,,KCIC,236,-121.85795,39.79879
501,101185.24,SE,,,,140.0,101158.03,1.0,,10.0,100325.62,KCIC 120955Z AUTO 14004KT 10SM CLR 24/05 A2988 RMK AO1,,29.29,2.06,24.0,2018-08-12 09:55:00,,5.0,4.99,1.0,,KCIC,236,-121.85795,39.79879
502,101185.24,E,,,,100.0,101160.85,1.0,,10.0,100325.62,KCIC 121015Z AUTO 10005KT 10SM CLR 23/05 A2988 RMK AO1,,31.11,2.57,23.0,2018-08-12 10:15:00,,5.0,4.98,1.0,,KCIC,236,-121.85795,39.79879
503,101185.24,ESE,,,,120.0,101160.86,1.0,,10.0,100325.62,KCIC 121035Z AUTO 12005KT 10SM CLR 23/04 A2988 RMK AO1,,29.0,2.57,23.0,2018-08-12 10:35:00,,4.0,3.98,1.0,,KCIC,236,-121.85795,39.79879
504,101185.24,ESE,,,,110.0,101160.86,1.0,,10.0,100325.62,KCIC 121055Z AUTO 11003KT 10SM CLR 23/04 A2988 RMK AO1,,29.0,1.54,23.0,2018-08-12 10:55:00,,4.0,3.98,1.0,,KCIC,236,-121.85795,39.79879
505,101185.24,E,,,,100.0,101160.86,1.0,,10.0,100325.62,KCIC 121115Z AUTO 10003KT 10SM CLR 23/04 A2988 RMK AO1,,29.0,1.54,23.0,2018-08-12 11:15:00,,4.0,3.98,1.0,,KCIC,236,-121.85795,39.79879
506,101219.11,E,,,,80.0,101197.56,1.0,,10.0,100359.2,KCIC 121135Z AUTO 08004KT 10SM CLR 22/04 A2989 RMK AO1,,30.82,2.06,22.0,2018-08-12 11:35:00,,4.0,3.97,1.0,,KCIC,236,-121.85795,39.79879
507,101219.11,N,,,,0.0,101197.56,1.0,,10.0,100359.2,KCIC 121155Z AUTO 00000KT 10SM CLR 22/04 A2989 RMK AO1,,30.82,0.0,22.0,2018-08-12 11:55:00,,4.0,3.97,1.0,,KCIC,236,-121.85795,39.79879
508,101219.11,N,,,,0.0,101200.41,1.0,,10.0,100359.2,KCIC 121215Z AUTO 00000KT 10SM CLR 21/05 A2989 RMK AO1,,35.13,0.0,21.0,2018-08-12 12:15:00,,5.0,4.95,1.0,,KCIC,236,-121.85795,39.79879
509,101252.97,NE,,,,40.0,101237.16,1.0,,10.0,100392.78,KCIC 121235Z AUTO 04004KT 10SM CLR 20/05 A2990 RMK AO1,,37.36,2.06,20.0,2018-08-12 12:35:00,,5.0,4.95,1.0,,KCIC,236,-121.85795,39.79879
510,101252.97,N,,,,0.0,101234.27,1.0,,10.0,100392.78,KCIC 121255Z AUTO 00000KT 10SM CLR 21/05 A2990 RMK AO1,,35.13,0.0,21.0,2018-08-12 12:55:00,,5.0,4.95,1.0,,KCIC,236,-121.85795,39.79879
511,101286.84,NE,,,,40.0,101271.02,1.0,,10.0,100426.36,KCIC 121315Z AUTO 04003KT 10SM CLR 20/05 A2991 RMK AO1,,37.36,1.54,20.0,2018-08-12 13:15:00,,5.0,4.95,1.0,,KCIC,236,-121.85795,39.79879
512,101320.7,NNE,,,,30.0,101304.87,1802.0,,40.0,100459.93,KCIC 121356Z 03004KT 40SM SCT180 20/04 A2992,,34.84,2.06,20.0,2018-08-12 13:56:00,,4.0,3.95,1.0,,KCIC,236,-121.85795,39.79879
513,101354.56,N,,,,0.0,101330.13,1802.0,,40.0,100493.5,KCIC 121458Z 00000KT 40SM SCT180 23/05 A2993,,31.11,0.0,23.0,2018-08-12 14:58:00,,5.0,4.98,1.0,,KCIC,236,-121.85795,39.79879
514,101354.56,N,,,,0.0,101327.31,1802.0,,40.0,100493.5,KCIC 121552Z 00000KT 40SM SCT180 24/05 A2993,,29.29,0.0,24.0,2018-08-12 15:52:00,,5.0,4.99,1.0,,KCIC,236,-121.85795,39.79879
515,101354.56,N,,,,0.0,101324.5,1802.0,,40.0,100493.5,KCIC 121650Z 00000KT 40SM SCT180 25/06 A2993,,29.57,0.0,25.0,2018-08-12 16:50:00,,6.0,6.0,1.0,,KCIC,236,-121.85795,39.79879
516,101354.56,N,,,27.03,0.0,101316.19,1.0,,40.0,100493.5,KCIC 121748Z 00000KT 40SM SKC 28/08 A2993,,28.43,0.0,28.0,2018-08-12 17:48:00,,8.0,8.04,1.0,,KCIC,236,-121.85795,39.79879
517,101286.84,SSW,,,27.71,210.0,101245.77,1.0,,15.0,100426.36,KCIC 121856Z 21005KT 15SM SKC 29/08 A2991,,26.83,2.57,29.0,2018-08-12 18:56:00,,8.0,8.06,1.0,,KCIC,236,-121.85795,39.79879
518,101219.11,WSW,,,29.27,250.0,101172.66,1.0,,9.0,100359.2,KCIC 121947Z 25003KT 9SM SKC 31/08 A2989 RMK FU ALQDS CONTINUES TO  GET THICKER AS AFTERNOON PROGRESSES.,,23.93,1.54,31.0,2018-08-12 19:47:00,,8.0,8.1,1.0,,KCIC,236,-121.85795,39.79879
519,101151.38,SSE,,,30.78,150.0,101099.64,1.0,,9.0,100292.05,KCIC 122047Z 15011KT 9SM SKC 33/05 A2987 RMK FU ALQDS,,17.39,5.66,33.0,2018-08-12 20:47:00,,5.0,5.17,1.0,,KCIC,236,-121.85795,39.79879
520,101015.92,SSE,,,31.86,160.0,100961.61,1.0,,10.0,100157.74,KCIC 122247Z 16011KT 10SM SKC 34/07 A2983 RMK FU ALQDS,,18.88,5.66,34.0,2018-08-12 22:47:00,,7.0,7.18,1.0,,KCIC,236,-121.85795,39.79879
521,100982.06,SSE,,,31.62,160.0,100927.78,1.0,,10.0,100124.17,KCIC 122350Z 16011KT 10SM SKC 34/04 A2982 RMK FU ALQDS,,15.33,5.66,34.0,2018-08-12 23:50:00,,4.0,4.2,1.0,,KCIC,236,-121.85795,39.79879
522,100948.2,S,,,31.04,170.0,100896.55,1.0,,8.0,100090.59,KCIC 130047Z 17009KT 8SM SKC 33/08 A2981 RMK FU ALQDS,,21.37,4.63,33.0,2018-08-13 00:47:00,,8.0,8.14,1.0,,KCIC,236,-121.85795,39.79879
523,100914.33,SE,,,30.39,140.0,100865.35,1.0,,8.0,100057.01,KCIC 130152Z 14004KT 8SM SKC 32/10 A2980 RMK FU ALQDS LAST,,25.88,2.06,32.0,2018-08-13 01:52:00,,10.0,10.11,1.0,,KCIC,236,-121.85795,39.79879
524,100982.06,ESE,,,29.2,120.0,100938.39,1.0,,10.0,100124.17,KCIC 130315Z AUTO 12004KT 10SM CLR 30/13 A2982 RMK AO1,,35.35,2.06,30.0,2018-08-13 03:15:00,,13.0,13.06,1.0,,KCIC,236,-121.85795,39.79879
525,100982.06,SE,,,29.2,130.0,100938.39,803.0,,10.0,100124.17,KCIC 130335Z AUTO 13005KT 10SM BKN080 30/13 A2982 RMK AO1,,35.35,2.57,30.0,2018-08-13 03:35:00,2438.4,13.0,13.06,1.0,,KCIC,236,-121.85795,39.79879
526,101015.92,ESE,,,29.0,120.0,100972.24,804.0,,10.0,100157.74,KCIC 130355Z AUTO 12003KT 10SM OVC080 30/12 A2983 RMK AO1,,33.11,1.54,30.0,2018-08-13 03:55:00,2438.4,12.0,12.06,1.0,,KCIC,236,-121.85795,39.79879
527,101049.79,ENE,,,27.91,70.0,101008.8,804.0,,10.0,100191.32,KCIC 130415Z AUTO 07003KT 10SM OVC080 29/10 A2984 RMK AO1,,30.71,1.54,29.0,2018-08-13 04:15:00,2438.4,10.0,10.05,1.0,,KCIC,236,-121.85795,39.79879
528,101049.79,E,,,27.03,90.0,101011.53,703.0,,10.0,100191.32,KCIC 130435Z AUTO 09004KT 10SM BKN070 28/08 A2984 RMK AO1,,28.43,2.06,28.0,2018-08-13 04:35:00,2133.6,8.0,8.04,1.0,,KCIC,236,-121.85795,39.79879
529,101083.65,E,,,26.95,90.0,101045.38,706.0,,10.0,100224.89,KCIC 130455Z AUTO 09004KT 10SM FEW070 28/07 A2985 RMK AO1,,26.56,2.06,28.0,2018-08-13 04:55:00,,7.0,7.05,1.0,,KCIC,236,-121.85795,39.79879
530,101083.65,ESE,,,27.51,110.0,101042.66,1.0,,10.0,100224.89,KCIC 130515Z AUTO 11004KT 10SM CLR 29/05 A2985 RMK AO1,,21.83,2.06,29.0,2018-08-13 05:15:00,,5.0,5.08,1.0,,KCIC,236,-121.85795,39.79879
531,101083.65,ESE,,,26.83,120.0,101045.39,1.0,,10.0,100224.89,KCIC 130535Z AUTO 12004KT 10SM CLR 28/05 A2985 RMK AO1,,23.13,2.06,28.0,2018-08-13 05:35:00,,5.0,5.06,1.0,,KCIC,236,-121.85795,39.79879
532,101083.65,ESE,,,26.83,110.0,101045.39,1.0,,10.0,100224.89,KCIC 130555Z AUTO 11005KT 10SM CLR 28/05 A2985 RMK AO1,,23.13,2.57,28.0,2018-08-13 05:55:00,,5.0,5.06,1.0,,KCIC,236,-121.85795,39.79879
533,101083.65,ESE,,,,120.0,101050.89,1.0,,10.0,100224.89,KCIC 130615Z AUTO 12003KT 10SM CLR 26/05 A2985 RMK AO1,,26.0,1.54,26.0,2018-08-13 06:15:00,,5.0,5.02,1.0,,KCIC,236,-121.85795,39.79879
534,101117.52,SE,,,26.35,130.0,101082.0,1.0,,10.0,100258.48,KCIC 130635Z AUTO 13009KT 10SM CLR 27/04 A2986 RMK AO1,,22.86,4.63,27.0,2018-08-13 06:35:00,,4.0,4.04,1.0,,KCIC,236,-121.85795,39.79879
535,101117.52,SSE,,,,150.0,101084.76,606.0,,10.0,100258.48,KCIC 130655Z AUTO 15004KT 10SM FEW060 26/05 A2986 RMK AO1,,26.0,2.06,26.0,2018-08-13 06:55:00,,5.0,5.02,1.0,,KCIC,236,-121.85795,39.79879
536,101117.52,N,,,,0.0,101087.54,606.0,,10.0,100258.48,KCIC 130715Z AUTO 00000KT 10SM FEW060 25/05 A2986 RMK AO1,,27.59,0.0,25.0,2018-08-13 07:15:00,,5.0,5.0,1.0,,KCIC,236,-121.85795,39.79879
537,101151.38,N,,,,0.0,101121.39,1.0,,10.0,100292.05,KCIC 130735Z AUTO 00000KT 10SM CLR 25/05 A2987 RMK AO1,,27.59,0.0,25.0,2018-08-13 07:35:00,,5.0,5.0,1.0,,KCIC,236,-121.85795,39.79879
538,101151.38,N,,,,0.0,101121.39,1.0,,10.0,100292.05,KCIC 130755Z AUTO 00000KT 10SM CLR 25/04 A2987 RMK AO1,,25.73,0.0,25.0,2018-08-13 07:55:00,,4.0,4.01,1.0,,KCIC,236,-121.85795,39.79879
539,101151.38,N,,,,0.0,101124.19,1.0,,10.0,100292.05,KCIC 130815Z AUTO 00000KT 10SM CLR 24/04 A2987 RMK AO1,,27.31,0.0,24.0,2018-08-13 08:15:00,,4.0,3.99,1.0,,KCIC,236,-121.85795,39.79879
540,101151.38,N,,,,0.0,101124.19,1.0,,10.0,100292.05,KCIC 130835Z AUTO 00000KT 10SM CLR 24/04 A2987 RMK AO1,,27.31,0.0,24.0,2018-08-13 08:35:00,,4.0,3.99,1.0,,KCIC,236,-121.85795,39.79879
541,101151.38,NNE,,,,20.0,101124.19,1.0,,10.0,100292.05,KCIC 130855Z AUTO 02004KT 10SM CLR 24/05 A2987 RMK AO1,,29.29,2.06,24.0,2018-08-13 08:55:00,,5.0,4.99,1.0,,KCIC,236,-121.85795,39.79879
542,101151.38,N,,,,0.0,101127.0,1.0,,10.0,100292.05,KCIC 130915Z AUTO 00000KT 10SM CLR 23/05 A2987 RMK AO1,,31.11,0.0,23.0,2018-08-13 09:15:00,,5.0,4.98,1.0,,KCIC,236,-121.85795,39.79879
543,101151.38,N,,,,0.0,101127.0,1.0,,10.0,100292.05,KCIC 130935Z AUTO 00000KT 10SM CLR 23/05 A2987 RMK AO1,,31.11,0.0,23.0,2018-08-13 09:35:00,,5.0,4.98,1.0,,KCIC,236,-121.85795,39.79879
544,101185.24,N,,,,0.0,101169.43,1.0,,10.0,100325.62,KCIC 130955Z AUTO 00000KT 10SM CLR 20/05 A2988 RMK AO1,,37.36,0.0,20.0,2018-08-13 09:55:00,,5.0,4.95,1.0,,KCIC,236,-121.85795,39.79879
545,101185.24,N,,,,0.0,101163.7,1.0,,10.0,100325.62,KCIC 131015Z AUTO 00000KT 10SM CLR 22/04 A2988 RMK AO1,,30.82,0.0,22.0,2018-08-13 10:15:00,,4.0,3.97,1.0,,KCIC,236,-121.85795,39.79879
546,101185.24,N,,,,0.0,101163.7,1.0,,10.0,100325.62,KCIC 131035Z AUTO 00000KT 10SM CLR 22/04 A2988 RMK AO1,,30.82,0.0,22.0,2018-08-13 10:35:00,,4.0,3.97,1.0,,KCIC,236,-121.85795,39.79879
547,101219.11,N,,,,0.0,101200.42,1.0,,10.0,100359.2,KCIC 131055Z AUTO 00000KT 10SM CLR 21/04 A2989 RMK AO1,,32.76,0.0,21.0,2018-08-13 10:55:00,,4.0,3.96,1.0,,KCIC,236,-121.85795,39.79879
548,101219.11,NE,,,,50.0,101203.3,1.0,,10.0,100359.2,KCIC 131115Z AUTO 05004KT 10SM CLR 20/04 A2989 RMK AO1,,34.84,2.06,20.0,2018-08-13 11:15:00,,4.0,3.95,1.0,,KCIC,236,-121.85795,39.79879
549,101185.24,NE,,,,50.0,101169.43,1.0,,10.0,100325.62,KCIC 131135Z AUTO 05004KT 10SM CLR 20/04 A2988 RMK AO1,,34.84,2.06,20.0,2018-08-13 11:35:00,,4.0,3.95,1.0,,KCIC,236,-121.85795,39.79879
550,101219.11,ENE,,,,60.0,101203.3,1.0,,10.0,100359.2,KCIC 131155Z AUTO 06004KT 10SM CLR 20/03 A2989 RMK AO1,,32.46,2.06,20.0,2018-08-13 11:55:00,,3.0,2.94,1.0,,KCIC,236,-121.85795,39.79879
551,101219.11,NE,,,,50.0,101203.3,1.0,,10.0,100359.2,KCIC 131215Z AUTO 05003KT 10SM CLR 20/04 A2989 RMK AO1,,34.84,1.54,20.0,2018-08-13 12:15:00,,4.0,3.95,1.0,,KCIC,236,-121.85795,39.79879
552,101219.11,N,,,,0.0,101203.3,1.0,,10.0,100359.2,KCIC 131235Z AUTO 00000KT 10SM CLR 20/04 A2989 RMK AO1,,34.84,0.0,20.0,2018-08-13 12:35:00,,4.0,3.95,1.0,,KCIC,236,-121.85795,39.79879
553,101219.11,NE,,,,50.0,101206.19,1.0,,10.0,100359.2,KCIC 131255Z AUTO 05003KT 10SM CLR 19/04 A2989 RMK AO1,,37.07,1.54,19.0,2018-08-13 12:55:00,,4.0,3.94,1.0,,KCIC,236,-121.85795,39.79879
554,101252.97,NE,,,,50.0,101240.06,1.0,,10.0,100392.78,KCIC 131315Z AUTO 05004KT 10SM CLR 19/04 A2990 RMK AO1,,37.07,2.06,19.0,2018-08-13 13:15:00,,4.0,3.94,1.0,,KCIC,236,-121.85795,39.79879
555,101286.84,NNE,,,,30.0,101271.02,2002.0,,10.0,100426.36,KCIC 131356Z 03005KT 10SM SCT200 20/03 A2991 RMK FU LAYER PRESENT  AT FL200 NORTH OF CHICO. FUHZ SW-W.,,32.46,2.57,20.0,2018-08-13 13:56:00,,3.0,2.94,1.0,,KCIC,236,-121.85795,39.79879
556,101320.7,N,,,,0.0,101304.87,2002.0,,10.0,100459.93,KCIC 131450Z 00000KT 10SM SCT200 20/04 A2992 RMK FUHZ DISTANT  ALQDS.,,34.84,0.0,20.0,2018-08-13 14:50:00,,4.0,3.95,1.0,,KCIC,236,-121.85795,39.79879
557,101320.7,,,,,,101296.27,2002.0,,10.0,100459.93,KCIC 131554Z VRB05KT 10SM SCT200 23/08 A2992 RMK PIREP/ IFC  REPORTED NORTH OF HAMILTON CITY/ WEST OF SACRAMENTO RIVER/  NORTHWEST AREA OF SACRAMENTO VALLEY DUE TO SMOKE.,,38.24,2.57,23.0,2018-08-13 15:54:00,,8.0,7.98,1.0,,KCIC,236,-121.85795,39.79879
558,101320.7,,,,,,101290.64,1.0,,10.0,100459.93,KCIC 131647Z VRB05KT 10SM SKC 25/09 A2992 RMK FU ALQDS,,36.3,2.57,25.0,2018-08-13 16:47:00,,9.0,9.0,1.0,,KCIC,236,-121.85795,39.79879
559,101320.7,,,,27.12,,101282.34,1.0,,9.0,100459.93,KCIC 131750Z VRB05KT 9SM SKC 28/09 A2992 RMK FU ALQDS,,30.43,2.57,28.0,2018-08-13 17:50:00,,9.0,9.04,1.0,,KCIC,236,-121.85795,39.79879
560,101219.11,,,,28.46,,101175.35,1.0,,9.0,100359.2,KCIC 131948Z VRB05KT 9SM SKC 30/08 A2989 RMK FU ALQDS,,25.33,2.57,30.0,2018-08-13 19:48:00,,8.0,8.08,1.0,,KCIC,236,-121.85795,39.79879
561,101151.38,SE,7.72,,30.78,140.0,101099.64,1.0,,10.0,100292.05,KCIC 132047Z 14007G15KT 10SM SKC 33/05 A2987 RMK FU ALQDS,,17.39,3.6,33.0,2018-08-13 20:47:00,,5.0,5.17,1.0,,KCIC,236,-121.85795,39.79879
562,101117.52,SSE,8.75,,30.94,150.0,101065.8,1.0,,10.0,100258.48,KCIC 132147Z 15010G17KT 10SM SKC 33/07 A2986 RMK FU ALQDS,,19.96,5.14,33.0,2018-08-13 21:47:00,,7.0,7.15,1.0,,KCIC,236,-121.85795,39.79879
563,101015.92,SSE,9.26,,31.98,160.0,100961.61,2002.0,,9.0,100157.74,KCIC 132252Z 16010G18KT 9SM SCT200 34/08 A2983 RMK FU ALQDS,,20.21,5.14,34.0,2018-08-13 22:52:00,,8.0,8.17,1.0,,KCIC,236,-121.85795,39.79879
564,100948.2,SSE,,,32.54,150.0,100891.32,1.0,,10.0,100090.59,KCIC 132355Z 15010KT 10SM SKC 35/04 A2981 RMK FU ALQDS,,14.51,5.14,35.0,2018-08-13 23:55:00,,4.0,4.24,1.0,,KCIC,236,-121.85795,39.79879
565,100914.33,S,,,31.98,170.0,100860.07,1.0,,9.0,100057.01,KCIC 140047Z 17008KT 9SM SKC 34/08 A2980 RMK FU ALQDS,,20.21,4.12,34.0,2018-08-14 00:47:00,,8.0,8.17,1.0,,KCIC,236,-121.85795,39.79879
566,100880.47,SSW,,,30.76,200.0,100831.5,1.0,,9.0,100023.44,KCIC 140147Z 20005KT 9SM SKC 32/12 A2979 RMK FU,,29.55,2.57,32.0,2018-08-14 01:47:00,,12.0,12.1,1.0,,KCIC,236,-121.85795,39.79879
567,100914.33,NW,,,28.6,320.0,100873.38,752.0,,10.0,100057.01,KCIC 140315Z AUTO 32004KT 10SM SCT075 29/14 A2980 RMK AO1,,39.96,2.06,29.0,2018-08-14 03:15:00,,14.0,14.04,1.0,,KCIC,236,-121.85795,39.79879
568,100948.2,N,,,28.85,0.0,100907.23,754.0,,10.0,100090.59,KCIC 140335Z AUTO 00000KT 10SM OVC075 29/15 A2981 RMK AO1,,42.63,0.0,29.0,2018-08-14 03:35:00,2286.0,15.0,15.04,1.0,,KCIC,236,-121.85795,39.79879
569,100948.2,N,,,28.6,0.0,100907.24,754.0,,10.0,100090.59,KCIC 140355Z AUTO 00000KT 10SM OVC075 29/14 A2981 RMK AO1,,39.96,0.0,29.0,2018-08-14 03:55:00,2286.0,14.0,14.04,1.0,,KCIC,236,-121.85795,39.79879
570,100982.06,E,,,27.48,90.0,100943.82,754.0,,10.0,100124.17,KCIC 140415Z AUTO 09004KT 10SM OVC075 28/12 A2982 RMK AO1,,37.16,2.06,28.0,2018-08-14 04:15:00,2286.0,12.0,12.03,1.0,,KCIC,236,-121.85795,39.79879
571,100982.06,ESE,,,27.48,110.0,100943.82,753.0,,10.0,100124.17,KCIC 140435Z AUTO 11004KT 10SM BKN075 28/12 A2982 RMK AO1,,37.16,2.06,28.0,2018-08-14 04:35:00,2286.0,12.0,12.03,1.0,,KCIC,236,-121.85795,39.79879
572,100982.06,N,,,27.22,0.0,100943.83,756.0,,10.0,100124.17,KCIC 140455Z AUTO 00000KT 10SM FEW075 28/10 A2982 RMK AO1,,32.54,0.0,28.0,2018-08-14 04:55:00,,10.0,10.04,1.0,,KCIC,236,-121.85795,39.79879
573,101015.92,ESE,,,26.66,120.0,100980.41,1.0,,10.0,100157.74,KCIC 140515Z AUTO 12003KT 10SM CLR 27/10 A2983 RMK AO1,,34.5,1.54,27.0,2018-08-14 05:15:00,,10.0,10.02,1.0,,KCIC,236,-121.85795,39.79879
574,101015.92,ESE,,,27.03,120.0,100977.68,1.0,,10.0,100157.74,KCIC 140535Z AUTO 12003KT 10SM CLR 28/08 A2983 RMK AO1,,28.43,1.54,28.0,2018-08-14 05:35:00,,8.0,8.04,1.0,,KCIC,236,-121.85795,39.79879
575,101015.92,ESE,,,,120.0,100983.18,1.0,,10.0,100157.74,KCIC 140555Z AUTO 12006KT 10SM CLR 26/08 A2983 RMK AO1,,31.97,3.09,26.0,2018-08-14 05:55:00,,8.0,8.01,1.0,,KCIC,236,-121.85795,39.79879
576,101015.92,SE,,,26.95,140.0,100977.68,1.0,,10.0,100157.74,KCIC 140615Z AUTO 14008KT 10SM CLR 28/07 A2983 RMK AO1,,26.56,4.12,28.0,2018-08-14 06:15:00,,7.0,7.05,1.0,,KCIC,236,-121.85795,39.79879
577,101015.92,SSE,,,,160.0,100985.96,1.0,,10.0,100157.74,KCIC 140635Z AUTO 16006KT 10SM CLR 25/08 A2983 RMK AO1,,33.92,3.09,25.0,2018-08-14 06:35:00,,8.0,8.0,1.0,,KCIC,236,-121.85795,39.79879
578,101015.92,SSE,,,,150.0,100985.95,1.0,,10.0,100157.74,KCIC 140655Z AUTO 15003KT 10SM CLR 25/09 A2983 RMK AO1,,36.3,1.54,25.0,2018-08-14 06:55:00,,9.0,9.0,1.0,,KCIC,236,-121.85795,39.79879
579,101049.79,N,,,,0.0,101022.61,276.0,,10.0,100191.32,KCIC 140715Z AUTO 00000KT 10SM FEW027 24/09 A2984 RMK AO1,,38.53,0.0,24.0,2018-08-14 07:15:00,,9.0,8.99,1.0,,KCIC,236,-121.85795,39.79879
580,101049.79,N,,,,0.0,101022.61,1.0,,10.0,100191.32,KCIC 140735Z AUTO 00000KT 10SM CLR 24/08 A2984 RMK AO1,,36.01,0.0,24.0,2018-08-14 07:35:00,,8.0,7.99,1.0,,KCIC,236,-121.85795,39.79879
581,101049.79,N,,,,0.0,101022.6,1.0,,10.0,100191.32,KCIC 140755Z AUTO 00000KT 10SM CLR 24/10 A2984 RMK AO1,,41.21,0.0,24.0,2018-08-14 07:55:00,,10.0,9.99,1.0,,KCIC,236,-121.85795,39.79879
582,101049.79,N,,,,0.0,101025.42,1.0,,10.0,100191.32,KCIC 140815Z AUTO 00000KT 10SM CLR 23/09 A2984 RMK AO1,,40.92,0.0,23.0,2018-08-14 08:15:00,,9.0,8.98,1.0,,KCIC,236,-121.85795,39.79879
583,101083.65,SSE,,,,160.0,101059.27,1.0,,10.0,100224.89,KCIC 140835Z AUTO 16003KT 10SM CLR 23/10 A2985 RMK AO1,,43.76,1.54,23.0,2018-08-14 08:35:00,,10.0,9.98,1.0,,KCIC,236,-121.85795,39.79879
584,101083.65,SSE,,,,150.0,101059.27,1.0,,10.0,100224.89,KCIC 140855Z AUTO 15004KT 10SM CLR 23/10 A2985 RMK AO1,,43.76,2.06,23.0,2018-08-14 08:55:00,,10.0,9.98,1.0,,KCIC,236,-121.85795,39.79879
585,101083.65,SE,,,,140.0,101062.11,1.0,,10.0,100224.89,KCIC 140915Z AUTO 14003KT 10SM CLR 22/10 A2985 RMK AO1,,46.5,1.54,22.0,2018-08-14 09:15:00,,10.0,9.97,1.0,,KCIC,236,-121.85795,39.79879
586,101083.65,SE,,,,130.0,101062.11,1.0,,10.0,100224.89,KCIC 140935Z AUTO 13004KT 10SM CLR 22/09 A2985 RMK AO1,,43.48,2.06,22.0,2018-08-14 09:35:00,,9.0,8.97,1.0,,KCIC,236,-121.85795,39.79879
587,101083.65,SSE,,,,150.0,101064.97,1.0,,10.0,100224.89,KCIC 140955Z AUTO 15004KT 10SM CLR 21/09 A2985 RMK AO1,,46.22,2.06,21.0,2018-08-14 09:55:00,,9.0,8.96,1.0,,KCIC,236,-121.85795,39.79879
588,101117.52,SSE,,,,150.0,101101.71,1.0,,10.0,100258.48,KCIC 141015Z AUTO 15003KT 10SM CLR 20/10 A2986 RMK AO1,,52.57,1.54,20.0,2018-08-14 10:15:00,,10.0,9.96,1.0,,KCIC,236,-121.85795,39.79879
589,101117.52,N,,,,0.0,101101.71,1.0,,10.0,100258.48,KCIC 141035Z AUTO 00000KT 10SM CLR 20/09 A2986 RMK AO1,,49.15,0.0,20.0,2018-08-14 10:35:00,,9.0,8.96,1.0,,KCIC,236,-121.85795,39.79879
590,101117.52,ENE,,,,60.0,101101.72,1.0,,10.0,100258.48,KCIC 141055Z AUTO 06003KT 10SM CLR 20/08 A2986 RMK AO1,,45.93,1.54,20.0,2018-08-14 10:55:00,,8.0,7.95,1.0,,KCIC,236,-121.85795,39.79879
591,101117.52,E,,,,100.0,101101.72,1.0,,10.0,100258.48,KCIC 141115Z AUTO 10004KT 10SM CLR 20/08 A2986 RMK AO1,,45.93,2.06,20.0,2018-08-14 11:15:00,,8.0,7.95,1.0,,KCIC,236,-121.85795,39.79879
592,101117.52,ESE,,,,120.0,101101.71,1.0,,10.0,100258.48,KCIC 141135Z AUTO 12006KT 10SM CLR 20/09 A2986 RMK AO1,,49.15,3.09,20.0,2018-08-14 11:35:00,,9.0,8.96,1.0,,KCIC,236,-121.85795,39.79879
593,101151.38,ESE,,,,120.0,101138.46,1.0,,10.0,100292.05,KCIC 141155Z AUTO 12006KT 10SM CLR 19/09 A2987 RMK AO1,,52.3,3.09,19.0,2018-08-14 11:55:00,,9.0,8.95,1.0,,KCIC,236,-121.85795,39.79879
594,101151.38,ESE,,,,120.0,101138.46,386.0,,10.0,100292.05,KCIC 141215Z AUTO 12005KT 10SM FEW038 19/09 A2987 RMK AO1,,52.3,2.57,19.0,2018-08-14 12:15:00,,9.0,8.95,1.0,,KCIC,236,-121.85795,39.79879
595,101151.38,SE,,,,130.0,101138.46,382.0,,10.0,100292.05,KCIC 141235Z AUTO 13007KT 10SM SCT038 19/10 A2987 RMK AO1,,55.93,3.6,19.0,2018-08-14 12:35:00,,10.0,9.96,1.0,,KCIC,236,-121.85795,39.79879
596,101151.38,ESE,,,,120.0,101141.38,386.0,,10.0,100292.05,KCIC 141255Z AUTO 12004KT 10SM FEW038 18/10 A2987 RMK AO1,,59.54,2.06,18.0,2018-08-14 12:55:00,,10.0,9.95,1.0,,KCIC,236,-121.85795,39.79879
597,101151.38,ESE,,,,120.0,101141.38,1.0,,10.0,100292.05,KCIC 141315Z AUTO 12004KT 10SM CLR 18/10 A2987 RMK AO1,,59.54,2.06,18.0,2018-08-14 13:15:00,,10.0,9.95,1.0,,KCIC,236,-121.85795,39.79879
598,101185.24,SE,,,,140.0,101175.23,1206.0,,25.0,100325.62,KCIC 141355Z 14004KT 25SM FEW120 18/10 A2988 RMK FU S-NE  PRIMARILY,,59.54,2.06,18.0,2018-08-14 13:55:00,,10.0,9.95,1.0,,KCIC,236,-121.85795,39.79879
599,101185.24,ESE,,,,120.0,101175.23,1206.0,,25.0,100325.62,KCIC 141448Z 12005KT 25SM FEW120 18/10 A2988 RMK FU ALQDS,,59.54,2.57,18.0,2018-08-14 14:48:00,,10.0,9.95,1.0,,KCIC,236,-121.85795,39.79879
600,101219.11,N,,,,0.0,101203.28,1206.0,,25.0,100359.2,KCIC 141547Z 00000KT 25SM FEW120 20/09 A2989 RMK FU ALQDS. VIS  SLOWLY DECREASING SE-NW.,,49.15,0.0,20.0,2018-08-14 15:47:00,,9.0,8.96,1.0,,KCIC,236,-121.85795,39.79879
601,101219.11,N,,,,0.0,101197.54,1806.0,,10.0,100359.2,KCIC 141647Z 00000KT 10SM FEW180 22/09 A2989 RMK FU DSNT S-N,,43.48,0.0,22.0,2018-08-14 16:47:00,,9.0,8.97,1.0,,KCIC,236,-121.85795,39.79879
602,101219.11,S,,,,180.0,101191.88,1806.0,,15.0,100359.2,KCIC 141750Z 18006KT 15SM FEW180 24/09 A2989 RMK FU DSNT S-N,,38.53,3.09,24.0,2018-08-14 17:50:00,,9.0,8.99,1.0,,KCIC,236,-121.85795,39.79879
603,101185.24,S,,,,180.0,101152.44,1802.0,,10.0,100325.62,KCIC 141850Z 18006KT 10SM SCT180 26/09 A2988 RMK FU DSNT W-N,,34.21,3.09,26.0,2018-08-14 18:50:00,,9.0,9.01,1.0,,KCIC,236,-121.85795,39.79879
604,101117.52,S,,,27.12,180.0,101079.24,1802.0,,10.0,100258.48,KCIC 141950Z 18005KT 10SM SCT180 28/09 A2986 RMK FU DSNT W-N,,30.43,2.57,28.0,2018-08-14 19:50:00,,9.0,9.04,1.0,,KCIC,236,-121.85795,39.79879
605,101049.79,S,,,28.56,180.0,101006.1,1802.0,,10.0,100191.32,KCIC 142050Z 18004KT 10SM SCT180 30/09 A2984 RMK FU DSNT W-N,,27.11,2.06,30.0,2018-08-14 20:50:00,,9.0,9.07,1.0,,KCIC,236,-121.85795,39.79879
606,100982.06,S,,,29.51,180.0,100935.72,1802.0,,10.0,100124.17,KCIC 142147Z 18008KT 10SM SCT180 31/10 A2982 RMK FU DSNT W-N,,27.38,4.12,31.0,2018-08-14 21:47:00,,10.0,10.09,1.0,,KCIC,236,-121.85795,39.79879
607,100914.33,SSE,,,29.96,150.0,100865.36,1802.0,,10.0,100057.01,KCIC 142248Z 15008KT 10SM SCT180 32/06 A2980 RMK FU DSNT W-N,,19.71,4.12,32.0,2018-08-14 22:48:00,,6.0,6.13,1.0,,KCIC,236,-121.85795,39.79879
608,100846.6,ESE,,,30.85,120.0,100795.02,1802.0,,10.0,99989.86,KCIC 142347Z 12012KT 10SM SCT180 33/06 A2978 RMK FU DSNT W-N,,18.64,6.17,33.0,2018-08-14 23:47:00,,6.0,6.16,1.0,,KCIC,236,-121.85795,39.79879
609,100846.6,SSE,,,30.51,150.0,100795.03,1502.0,,10.0,99989.86,KCIC 150047Z 15012KT 10SM SCT150 33/00 A2978 RMK FU DSNT W-N,,12.18,6.17,33.0,2018-08-15 00:47:00,,0.0,0.21,1.0,,KCIC,236,-121.85795,39.79879
610,100846.6,SSE,,,29.27,150.0,100800.32,1502.0,,10.0,99989.86,KCIC 150147Z 15012KT 10SM SCT150 31/08 A2978 RMK FU DSNT W-N,,23.93,6.17,31.0,2018-08-15 01:47:00,,8.0,8.1,1.0,,KCIC,236,-121.85795,39.79879
611,100880.47,SE,,,27.34,130.0,100842.27,1.0,,10.0,100023.44,KCIC 150315Z AUTO 13004KT 10SM CLR 28/11 A2979 RMK AO1,,34.78,2.06,28.0,2018-08-15 03:15:00,,11.0,11.03,1.0,,KCIC,236,-121.85795,39.79879
612,100880.47,ESE,,,27.22,120.0,100842.27,603.0,,10.0,100023.44,KCIC 150335Z AUTO 12005KT 10SM BKN060 28/10 A2979 RMK AO1,,32.54,2.57,28.0,2018-08-15 03:35:00,1828.8,10.0,10.04,1.0,,KCIC,236,-121.85795,39.79879
613,100880.47,SE,,,27.22,130.0,100842.27,604.0,,10.0,100023.44,KCIC 150355Z AUTO 13005KT 10SM OVC060 28/10 A2979 RMK AO1,,32.54,2.57,28.0,2018-08-15 03:55:00,1828.8,10.0,10.04,1.0,,KCIC,236,-121.85795,39.79879
614,100914.33,ESE,,,27.22,120.0,100876.12,604.0,,10.0,100057.01,KCIC 150415Z AUTO 12005KT 10SM OVC060 28/10 A2980 RMK AO1,,32.54,2.57,28.0,2018-08-15 04:15:00,1828.8,10.0,10.04,1.0,,KCIC,236,-121.85795,39.79879
615,100914.33,ESE,,,26.66,120.0,100878.85,604.0,,10.0,100057.01,KCIC 150435Z AUTO 12006KT 10SM OVC060 27/10 A2980 RMK AO1,,34.5,3.09,27.0,2018-08-15 04:35:00,1828.8,10.0,10.02,1.0,,KCIC,236,-121.85795,39.79879
616,100948.2,SE,,,26.66,130.0,100912.71,604.0,,10.0,100090.59,KCIC 150455Z AUTO 13003KT 10SM OVC060 27/10 A2981 RMK AO1,,34.5,1.54,27.0,2018-08-15 04:55:00,1828.8,10.0,10.02,1.0,,KCIC,236,-121.85795,39.79879
617,100948.2,SE,,,,140.0,100918.24,604.0,,10.0,100090.59,KCIC 150515Z AUTO 14005KT 10SM OVC060 25/10 A2981 RMK AO1,,38.82,2.57,25.0,2018-08-15 05:15:00,1828.8,10.0,10.0,1.0,,KCIC,236,-121.85795,39.79879
618,100948.2,SE,,,26.66,130.0,100912.71,604.0,,10.0,100090.59,KCIC 150535Z AUTO 13008KT 10SM OVC060 27/10 A2981 RMK AO1,,34.5,4.12,27.0,2018-08-15 05:35:00,1828.8,10.0,10.02,1.0,,KCIC,236,-121.85795,39.79879
619,100982.06,SSE,,,,150.0,100952.1,604.0,,10.0,100124.17,KCIC 150555Z AUTO 15006KT 10SM OVC060 25/10 A2982 RMK AO1,,38.82,3.09,25.0,2018-08-15 05:55:00,1828.8,10.0,10.0,1.0,,KCIC,236,-121.85795,39.79879
620,100982.06,SSE,,,,150.0,100952.1,604.0,,10.0,100124.17,KCIC 150615Z AUTO 15009KT 10SM OVC060 25/10 A2982 RMK AO1,,38.82,4.63,25.0,2018-08-15 06:15:00,1828.8,10.0,10.0,1.0,,KCIC,236,-121.85795,39.79879
621,101015.92,SSE,,,,150.0,100988.74,604.0,,10.0,100157.74,KCIC 150635Z AUTO 15008KT 10SM OVC060 24/11 A2983 RMK AO1,,44.05,4.12,24.0,2018-08-15 06:35:00,1828.8,11.0,10.99,1.0,,KCIC,236,-121.85795,39.79879
622,101015.92,SSE,,,,160.0,100991.55,604.0,,10.0,100157.74,KCIC 150655Z AUTO 16007KT 10SM OVC060 23/12 A2983 RMK AO1,,49.97,3.6,23.0,2018-08-15 06:55:00,1828.8,12.0,11.98,1.0,,KCIC,236,-121.85795,39.79879
623,101049.79,S,,,,180.0,101025.41,604.0,,10.0,100191.32,KCIC 150715Z AUTO 18006KT 10SM OVC060 23/12 A2984 RMK AO1,,49.97,3.09,23.0,2018-08-15 07:15:00,1828.8,12.0,11.98,1.0,,KCIC,236,-121.85795,39.79879
624,101083.65,SSE,,,,160.0,101062.1,604.0,,10.0,100224.89,KCIC 150735Z AUTO 16007KT 10SM OVC060 22/12 A2985 RMK AO1,,53.1,3.6,22.0,2018-08-15 07:35:00,1828.8,12.0,11.97,1.0,,KCIC,236,-121.85795,39.79879
625,101083.65,SSE,,,,160.0,101062.1,604.0,,10.0,100224.89,KCIC 150755Z AUTO 16005KT 10SM OVC060 22/12 A2985 RMK AO1,,53.1,2.57,22.0,2018-08-15 07:55:00,1828.8,12.0,11.97,1.0,,KCIC,236,-121.85795,39.79879
626,101083.65,SSE,,,,150.0,101064.95,603.0,,10.0,100224.89,KCIC 150815Z AUTO 15008KT 10SM BKN060 21/12 A2985 RMK AO1,,56.44,4.12,21.0,2018-08-15 08:15:00,1828.8,12.0,11.97,1.0,,KCIC,236,-121.85795,39.79879
627,101083.65,S,,,,170.0,101064.95,606.0,,10.0,100224.89,KCIC 150835Z AUTO 17007KT 10SM FEW060 21/12 A2985 RMK AO1,,56.44,3.6,21.0,2018-08-15 08:35:00,,12.0,11.97,1.0,,KCIC,236,-121.85795,39.79879
628,101083.65,S,,,,170.0,101067.83,1.0,,10.0,100224.89,KCIC 150855Z AUTO 17007KT 10SM CLR 20/12 A2985 RMK AO1,,60.03,3.6,20.0,2018-08-15 08:55:00,,12.0,11.97,1.0,,KCIC,236,-121.85795,39.79879
629,101117.52,S,,,,170.0,101101.7,1.0,,10.0,100258.48,KCIC 150915Z AUTO 17006KT 10SM CLR 20/12 A2986 RMK AO1,,60.03,3.09,20.0,2018-08-15 09:15:00,,12.0,11.97,1.0,,KCIC,236,-121.85795,39.79879
630,101117.52,N,,,,0.0,101104.6,196.0,,10.0,100258.48,KCIC 150935Z AUTO 00000KT 10SM FEW019 19/12 A2986 RMK AO1,,63.87,0.0,19.0,2018-08-15 09:35:00,,12.0,11.96,1.0,,KCIC,236,-121.85795,39.79879
631,101117.52,N,,,,0.0,101104.6,1.0,,10.0,100258.48,KCIC 150955Z AUTO 00000KT 10SM CLR 19/12 A2986 RMK AO1,,63.87,0.0,19.0,2018-08-15 09:55:00,,12.0,11.96,1.0,,KCIC,236,-121.85795,39.79879
632,101117.52,N,,,,0.0,101104.6,226.0,,10.0,100258.48,KCIC 151015Z AUTO 00000KT 10SM FEW022 19/12 A2986 RMK AO1,,63.87,0.0,19.0,2018-08-15 10:15:00,,12.0,11.96,1.0,,KCIC,236,-121.85795,39.79879
633,101151.38,N,,,,0.0,101138.45,246.0,,10.0,100292.05,KCIC 151035Z AUTO 00000KT 10SM FEW024 19/12 A2987 RMK AO1,,63.87,0.0,19.0,2018-08-15 10:35:00,,12.0,11.96,1.0,,KCIC,236,-121.85795,39.79879
634,101151.38,N,,,,0.0,101141.36,1.0,,10.0,100292.05,KCIC 151055Z AUTO 00000KT 10SM CLR 18/13 A2987 RMK AO1,,72.6,0.0,18.0,2018-08-15 10:55:00,,13.0,12.97,1.0,,KCIC,236,-121.85795,39.79879
635,101151.38,ESE,,,,120.0,101138.45,1.0,,10.0,100292.05,KCIC 151115Z AUTO 12006KT 10SM CLR 19/12 A2987 RMK AO1,,63.87,3.09,19.0,2018-08-15 11:15:00,,12.0,11.96,1.0,,KCIC,236,-121.85795,39.79879
636,101151.38,ESE,,,,120.0,101141.37,376.0,,10.0,100292.05,KCIC 151135Z AUTO 12006KT 10SM FEW037 18/12 A2987 RMK AO1,,67.99,3.09,18.0,2018-08-15 11:35:00,,12.0,11.96,1.0,,KCIC,236,-121.85795,39.79879
637,101151.38,SE,,,,130.0,101141.37,376.0,,10.0,100292.05,KCIC 151155Z AUTO 13007KT 10SM FEW037 18/12 A2987 RMK AO1,,67.99,3.6,18.0,2018-08-15 11:55:00,,12.0,11.96,1.0,,KCIC,236,-121.85795,39.79879
638,101185.24,SE,,,,130.0,101175.22,1.0,,10.0,100325.62,KCIC 151215Z AUTO 13006KT 10SM CLR 18/12 A2988 RMK AO1,,67.99,3.09,18.0,2018-08-15 12:15:00,,12.0,11.96,1.0,,KCIC,236,-121.85795,39.79879
639,101185.24,ESE,,,,120.0,101175.22,1.0,,10.0,100325.62,KCIC 151235Z AUTO 12006KT 10SM CLR 18/12 A2988 RMK AO1,,67.99,3.09,18.0,2018-08-15 12:35:00,,12.0,11.96,1.0,,KCIC,236,-121.85795,39.79879
640,101219.11,ESE,,,,120.0,101212.03,1.0,,10.0,100359.2,KCIC 151255Z AUTO 12005KT 10SM CLR 17/12 A2989 RMK AO1,,72.42,2.57,17.0,2018-08-15 12:55:00,,12.0,11.97,1.0,,KCIC,236,-121.85795,39.79879
641,101219.11,ESE,,,,120.0,101212.03,1.0,,10.0,100359.2,KCIC 151315Z AUTO 12006KT 10SM CLR 17/12 A2989 RMK AO1,,72.42,3.09,17.0,2018-08-15 13:15:00,,12.0,11.97,1.0,,KCIC,236,-121.85795,39.79879
642,101252.97,ESE,,,,110.0,101245.89,1806.0,,10.0,100392.78,KCIC 151350Z 11005KT 10SM FEW180 17/12 A2990 RMK FU DSNT S-N,,72.42,2.57,17.0,2018-08-15 13:50:00,,12.0,11.97,1.0,,KCIC,236,-121.85795,39.79879
643,101286.84,ESE,,,,120.0,101276.82,1.0,,10.0,100426.36,KCIC 151450Z 12005KT 10SM SKC 18/12 A2991 RMK FU DSNT S-N,,67.99,2.57,18.0,2018-08-15 14:50:00,,12.0,11.96,1.0,,KCIC,236,-121.85795,39.79879
644,101354.56,S,,,,170.0,101341.6,1.0,,10.0,100493.5,KCIC 151547Z 17008KT 10SM SKC 19/12 A2993,,63.87,4.12,19.0,2018-08-15 15:47:00,,12.0,11.96,1.0,,KCIC,236,-121.85795,39.79879
645,101354.56,,,,,,101338.7,1.0,,10.0,100493.5,KCIC 151647Z VRB05KT 10SM SKC 20/12 A2993,,60.03,2.57,20.0,2018-08-15 16:47:00,,12.0,11.97,1.0,,KCIC,236,-121.85795,39.79879
646,101354.56,N,,,,0.0,101330.11,1.0,,10.0,100493.5,KCIC 151750Z 00000KT 10SM SKC 23/12 A2993,,49.97,0.0,23.0,2018-08-15 17:50:00,,12.0,11.98,1.0,,KCIC,236,-121.85795,39.79879
647,101286.84,N,,,,0.0,101256.78,1.0,,10.0,100426.36,KCIC 151858Z 00000KT 10SM SKC 25/12 A2991,,44.33,0.0,25.0,2018-08-15 18:58:00,,12.0,12.0,1.0,,KCIC,236,-121.85795,39.79879
648,101252.97,S,,,26.83,180.0,101217.38,1.0,,10.0,100392.78,KCIC 151947Z 18005KT 10SM SKC 27/12 A2990,,39.39,2.57,27.0,2018-08-15 19:47:00,,12.0,12.02,1.0,,KCIC,236,-121.85795,39.79879
649,101185.24,SSE,,,28.2,160.0,101144.19,1.0,,10.0,100325.62,KCIC 152050Z 16007KT 10SM SKC 29/12 A2988,,35.07,3.6,29.0,2018-08-15 20:50:00,,12.0,12.05,1.0,,KCIC,236,-121.85795,39.79879
650,101117.52,SSE,,,29.0,150.0,101073.8,1.0,,10.0,100258.48,KCIC 152150Z 15005KT 10SM SKC 30/12 A2986,,33.11,2.57,30.0,2018-08-15 21:50:00,,12.0,12.06,1.0,,KCIC,236,-121.85795,39.79879
651,101219.11,SSE,,,30.25,160.0,101169.98,1806.0,,10.0,100359.2,KCIC 152247Z 16011KT 10SM FEW180 32/09 A2989,,24.2,5.66,32.0,2018-08-15 22:47:00,,9.0,9.12,1.0,,KCIC,236,-121.85795,39.79879
652,101015.92,SSE,,,30.25,150.0,100966.89,1.0,,10.0,100157.74,KCIC 152350Z 15012KT 10SM SKC 32/09 A2983,,24.2,6.17,32.0,2018-08-15 23:50:00,,9.0,9.12,1.0,,KCIC,236,-121.85795,39.79879
653,100982.06,SSE,,,32.82,160.0,100925.16,1.0,,10.0,100124.17,KCIC 160047Z 16011KT 10SM SKC 35/07 A2982,,17.86,5.66,35.0,2018-08-16 00:47:00,,7.0,7.2,1.0,,KCIC,236,-121.85795,39.79879
654,100982.06,S,,,30.25,170.0,100933.05,1.0,,10.0,100124.17,KCIC 160155Z 17010KT 10SM SKC 32/09 A2982,,24.2,5.14,32.0,2018-08-16 01:55:00,,9.0,9.12,1.0,,KCIC,236,-121.85795,39.79879
655,101049.79,SE,,,27.12,140.0,101011.53,1.0,,10.0,100191.32,KCIC 160315Z AUTO 14005KT 10SM CLR 28/09 A2984 RMK AO1,,30.43,2.57,28.0,2018-08-16 03:15:00,,9.0,9.04,1.0,,KCIC,236,-121.85795,39.79879
656,101083.65,ESE,,,27.22,120.0,101045.37,1.0,,10.0,100224.89,KCIC 160335Z AUTO 12005KT 10SM CLR 28/10 A2985 RMK AO1,,32.54,2.57,28.0,2018-08-16 03:35:00,,10.0,10.04,1.0,,KCIC,236,-121.85795,39.79879
657,101083.65,ESE,,,27.22,110.0,101045.37,1.0,,10.0,100224.89,KCIC 160355Z AUTO 11005KT 10SM CLR 28/10 A2985 RMK AO1,,32.54,2.57,28.0,2018-08-16 03:55:00,,10.0,10.04,1.0,,KCIC,236,-121.85795,39.79879
658,101117.52,ESE,,,27.12,110.0,101079.24,1.0,,10.0,100258.48,KCIC 160415Z AUTO 11004KT 10SM CLR 28/09 A2986 RMK AO1,,30.43,2.06,28.0,2018-08-16 04:15:00,,9.0,9.04,1.0,,KCIC,236,-121.85795,39.79879
659,101117.52,ESE,,,27.03,120.0,101079.24,1.0,,10.0,100258.48,KCIC 160435Z AUTO 12005KT 10SM CLR 28/08 A2986 RMK AO1,,28.43,2.57,28.0,2018-08-16 04:35:00,,8.0,8.04,1.0,,KCIC,236,-121.85795,39.79879
660,101151.38,SE,,,27.03,140.0,101113.09,1.0,,10.0,100292.05,KCIC 160455Z AUTO 14005KT 10SM CLR 28/08 A2987 RMK AO1,,28.43,2.57,28.0,2018-08-16 04:55:00,,8.0,8.04,1.0,,KCIC,236,-121.85795,39.79879
661,101185.24,SE,,,26.54,140.0,101149.68,1.0,,10.0,100325.62,KCIC 160515Z AUTO 14006KT 10SM CLR 27/08 A2988 RMK AO1,,30.14,3.09,27.0,2018-08-16 05:15:00,,8.0,8.02,1.0,,KCIC,236,-121.85795,39.79879
662,101185.24,SE,,,,140.0,101152.44,1.0,,10.0,100325.62,KCIC 160535Z AUTO 14007KT 10SM CLR 26/09 A2988 RMK AO1,,34.21,3.6,26.0,2018-08-16 05:35:00,,9.0,9.01,1.0,,KCIC,236,-121.85795,39.79879
663,101185.24,SE,,,,140.0,101155.22,1.0,,10.0,100325.62,KCIC 160555Z AUTO 14007KT 10SM CLR 25/10 A2988 RMK AO1,,38.82,3.6,25.0,2018-08-16 05:55:00,,10.0,10.0,1.0,,KCIC,236,-121.85795,39.79879
664,101219.11,SE,,,,140.0,101189.08,1.0,,10.0,100359.2,KCIC 160615Z AUTO 14009KT 10SM CLR 25/10 A2989 RMK AO1,,38.82,4.63,25.0,2018-08-16 06:15:00,,10.0,10.0,1.0,,KCIC,236,-121.85795,39.79879
665,101219.11,SE,,,,140.0,101191.88,1.0,,10.0,100359.2,KCIC 160635Z AUTO 14007KT 10SM CLR 24/10 A2989 RMK AO1,,41.21,3.6,24.0,2018-08-16 06:35:00,,10.0,9.99,1.0,,KCIC,236,-121.85795,39.79879
666,101219.11,SE,,,,130.0,101191.88,1.0,,10.0,100359.2,KCIC 160655Z AUTO 13006KT 10SM CLR 24/10 A2989 RMK AO1,,41.21,3.09,24.0,2018-08-16 06:55:00,,10.0,9.99,1.0,,KCIC,236,-121.85795,39.79879
667,101252.97,SSE,,,,150.0,101228.56,1.0,,10.0,100392.78,KCIC 160715Z AUTO 15007KT 10SM CLR 23/10 A2990 RMK AO1,,43.76,3.6,23.0,2018-08-16 07:15:00,,10.0,9.98,1.0,,KCIC,236,-121.85795,39.79879
668,101252.97,SSE,,,,150.0,101228.56,1.0,,10.0,100392.78,KCIC 160735Z AUTO 15006KT 10SM CLR 23/10 A2990 RMK AO1,,43.76,3.09,23.0,2018-08-16 07:35:00,,10.0,9.98,1.0,,KCIC,236,-121.85795,39.79879
669,101252.97,SE,,,,140.0,101228.56,1.0,,10.0,100392.78,KCIC 160755Z AUTO 14005KT 10SM CLR 23/10 A2990 RMK AO1,,43.76,2.57,23.0,2018-08-16 07:55:00,,10.0,9.98,1.0,,KCIC,236,-121.85795,39.79879
670,101286.84,SSE,,,,150.0,101265.26,1.0,,10.0,100426.36,KCIC 160815Z AUTO 15003KT 10SM CLR 22/11 A2991 RMK AO1,,49.7,1.54,22.0,2018-08-16 08:15:00,,11.0,10.97,1.0,,KCIC,236,-121.85795,39.79879
671,101286.84,S,,,,190.0,101265.26,1.0,,10.0,100426.36,KCIC 160835Z AUTO 19004KT 10SM CLR 22/11 A2991 RMK AO1,,49.7,2.06,22.0,2018-08-16 08:35:00,,11.0,10.97,1.0,,KCIC,236,-121.85795,39.79879
672,101320.7,N,,,,0.0,101299.11,1.0,,10.0,100459.93,KCIC 160855Z AUTO 00000KT 10SM CLR 22/11 A2992 RMK AO1,,49.7,0.0,22.0,2018-08-16 08:55:00,,11.0,10.97,1.0,,KCIC,236,-121.85795,39.79879
673,101320.7,N,,,,0.0,101299.11,1.0,,10.0,100459.93,KCIC 160915Z AUTO 00000KT 10SM CLR 22/11 A2992 RMK AO1,,49.7,0.0,22.0,2018-08-16 09:15:00,,11.0,10.97,1.0,,KCIC,236,-121.85795,39.79879
674,101354.56,N,,,,0.0,101335.83,1.0,,10.0,100493.5,KCIC 160935Z AUTO 00000KT 10SM CLR 21/09 A2993 RMK AO1,,46.22,0.0,21.0,2018-08-16 09:35:00,,9.0,8.96,1.0,,KCIC,236,-121.85795,39.79879
675,101354.56,N,,,,0.0,101335.83,1.0,,10.0,100493.5,KCIC 160955Z AUTO 00000KT 10SM CLR 21/09 A2993 RMK AO1,,46.22,0.0,21.0,2018-08-16 09:55:00,,9.0,8.96,1.0,,KCIC,236,-121.85795,39.79879
676,101354.56,N,,,,0.0,101338.71,1.0,,10.0,100493.5,KCIC 161015Z AUTO 00000KT 10SM CLR 20/09 A2993 RMK AO1,,49.15,0.0,20.0,2018-08-16 10:15:00,,9.0,8.96,1.0,,KCIC,236,-121.85795,39.79879
677,101354.56,N,,,,0.0,101338.71,1.0,,10.0,100493.5,KCIC 161035Z AUTO 00000KT 10SM CLR 20/09 A2993 RMK AO1,,49.15,0.0,20.0,2018-08-16 10:35:00,,9.0,8.96,1.0,,KCIC,236,-121.85795,39.79879
678,101354.56,N,,,,0.0,101338.71,1.0,,10.0,100493.5,KCIC 161055Z AUTO 00000KT 10SM CLR 20/09 A2993 RMK AO1,,49.15,0.0,20.0,2018-08-16 10:55:00,,9.0,8.96,1.0,,KCIC,236,-121.85795,39.79879
679,101388.43,N,,,,0.0,101375.47,1.0,,10.0,100527.08,KCIC 161115Z AUTO 00000KT 10SM CLR 19/10 A2994 RMK AO1,,55.93,0.0,19.0,2018-08-16 11:15:00,,10.0,9.96,1.0,,KCIC,236,-121.85795,39.79879
680,101388.43,N,,,,0.0,101375.48,1.0,,10.0,100527.08,KCIC 161135Z AUTO 00000KT 10SM CLR 19/09 A2994 RMK AO1,,52.3,0.0,19.0,2018-08-16 11:35:00,,9.0,8.95,1.0,,KCIC,236,-121.85795,39.79879
681,101422.29,N,,,,0.0,101409.34,1.0,,10.0,100560.66,KCIC 161155Z AUTO 00000KT 10SM CLR 19/10 A2995 RMK AO1,,55.93,0.0,19.0,2018-08-16 11:55:00,,10.0,9.96,1.0,,KCIC,236,-121.85795,39.79879
682,101422.29,N,,,,0.0,101409.33,1.0,,10.0,100560.66,KCIC 161215Z AUTO 00000KT 10SM CLR 19/11 A2995 RMK AO1,,59.79,0.0,19.0,2018-08-16 12:15:00,,11.0,10.96,1.0,,KCIC,236,-121.85795,39.79879
683,101422.29,N,,,,0.0,101409.34,1.0,,10.0,100560.66,KCIC 161235Z AUTO 00000KT 10SM CLR 19/10 A2995 RMK AO1,,55.93,0.0,19.0,2018-08-16 12:35:00,,10.0,9.96,1.0,,KCIC,236,-121.85795,39.79879
684,101456.15,N,,,,0.0,101446.12,1.0,,10.0,100594.23,KCIC 161255Z AUTO 00000KT 10SM CLR 18/10 A2996 RMK AO1,,59.54,0.0,18.0,2018-08-16 12:55:00,,10.0,9.95,1.0,,KCIC,236,-121.85795,39.79879
685,101456.15,ENE,,,,60.0,101446.12,1.0,,10.0,100594.23,KCIC 161315Z AUTO 06003KT 10SM CLR 18/09 A2996 RMK AO1,,55.67,1.54,18.0,2018-08-16 13:15:00,,9.0,8.95,1.0,,KCIC,236,-121.85795,39.79879
686,101523.88,N,,,,0.0,101516.79,1.0,,10.0,100661.38,KCIC 161350Z 00000KT 10SM SKC 17/09 A2998,,59.3,0.0,17.0,2018-08-16 13:50:00,,9.0,8.95,1.0,,KCIC,236,-121.85795,39.79879
687,101557.75,ESE,,,,120.0,101541.87,1.0,,10.0,100694.97,KCIC 161455Z 12006KT 10SM SKC 20/10 A2999,,52.57,3.09,20.0,2018-08-16 14:55:00,,10.0,9.96,1.0,,KCIC,236,-121.85795,39.79879
688,101625.47,S,,,,170.0,101600.97,1.0,,10.0,100762.11,KCIC 161647Z 17003KT 10SM SKC 23/09 A3001,,40.92,1.54,23.0,2018-08-16 16:47:00,,9.0,8.98,1.0,,KCIC,236,-121.85795,39.79879
689,101625.47,WNW,,,,300.0,101595.32,1.0,,10.0,100762.11,KCIC 161755Z 30003KT 10SM SKC 25/10 A3001,,38.82,1.54,25.0,2018-08-16 17:55:00,,10.0,10.0,1.0,,KCIC,236,-121.85795,39.79879
690,101625.47,N,,,26.6,0.0,101589.75,1.0,,10.0,100762.11,KCIC 161847Z 00000KT 10SM SKC 27/09 A3001,,32.25,0.0,27.0,2018-08-16 18:47:00,,9.0,9.02,1.0,,KCIC,236,-121.85795,39.79879
691,101523.88,SSE,,,30.94,160.0,101471.94,1.0,,10.0,100661.38,KCIC 162050Z 16008KT 10SM SKC 33/07 A2998 RMK FU NW,,19.96,4.12,33.0,2018-08-16 20:50:00,,7.0,7.15,1.0,,KCIC,236,-121.85795,39.79879
692,101490.02,SE,,,31.62,130.0,101435.46,1502.0,,10.0,100627.81,KCIC 162147Z 13011KT 10SM SCT150 34/04 A2997 RMK FU NW,,15.33,5.66,34.0,2018-08-16 21:47:00,,4.0,4.2,1.0,,KCIC,236,-121.85795,39.79879
693,101422.29,SE,,,31.06,130.0,101367.79,1502.0,,10.0,100560.66,KCIC 162250Z 13012KT 10SM SCT150 34/M02 A2995 RMK FU 10SM W TO  N,,9.95,6.17,34.0,2018-08-16 22:50:00,,-2.0,-1.73,1.0,,KCIC,236,-121.85795,39.79879
694,101388.43,SSE,,,31.17,160.0,101333.94,1502.0,,10.0,100527.08,KCIC 162355Z 16008KT 10SM SCT150 34/M01 A2994 RMK FU 10SM W TO  N,,10.71,4.12,34.0,2018-08-16 23:55:00,,-1.0,-0.74,1.0,,KCIC,236,-121.85795,39.79879
695,101354.56,SSE,,,31.06,160.0,101300.09,1502.0,,10.0,100493.5,KCIC 170055Z 16010KT 10SM SCT150 34/M02 A2993 RMK FU 10SM W TO  N,,9.95,5.14,34.0,2018-08-17 00:55:00,,-2.0,-1.73,1.0,,KCIC,236,-121.85795,39.79879
696,101320.7,S,,,31.53,180.0,101266.24,1502.0,,10.0,100459.93,KCIC 170147Z 18007KT 10SM SCT150 34/02 A2992 RMK FU 10SM W TO  N,,13.31,3.6,34.0,2018-08-17 01:47:00,,2.0,2.23,1.0,,KCIC,236,-121.85795,39.79879
697,101388.43,NNE,,,27.91,20.0,101347.3,1.0,,10.0,100527.08,KCIC 170315Z AUTO 02004KT 10SM CLR 29/10 A2994 RMK AO1,,30.71,2.06,29.0,2018-08-17 03:15:00,,10.0,10.05,1.0,,KCIC,236,-121.85795,39.79879
698,101388.43,N,,,28.31,0.0,101344.6,853.0,,10.0,100527.08,KCIC 170335Z AUTO 00000KT 10SM BKN085 30/06 A2994 RMK AO1,,22.09,0.0,30.0,2018-08-17 03:35:00,2590.8,6.0,6.09,1.0,,KCIC,236,-121.85795,39.79879
699,101422.29,N,,,27.41,0.0,101381.18,854.0,,10.0,100560.66,KCIC 170355Z AUTO 00000KT 10SM OVC085 29/02 A2995 RMK AO1,,17.66,0.0,29.0,2018-08-17 03:55:00,2590.8,2.0,2.09,1.0,,KCIC,236,-121.85795,39.79879
700,101422.29,N,,,27.41,0.0,101381.18,854.0,,10.0,100560.66,KCIC 170415Z AUTO 00000KT 10SM OVC085 29/02 A2995 RMK AO1,,17.66,0.0,29.0,2018-08-17 04:15:00,2590.8,2.0,2.09,1.0,,KCIC,236,-121.85795,39.79879
701,101456.15,N,,,26.71,0.0,101417.76,854.0,,10.0,100594.23,KCIC 170435Z AUTO 00000KT 10SM OVC085 28/02 A2996 RMK AO1,,18.72,0.0,28.0,2018-08-17 04:35:00,2590.8,2.0,2.07,1.0,,KCIC,236,-121.85795,39.79879
702,101490.02,N,,,26.71,0.0,101451.61,854.0,,10.0,100627.81,KCIC 170455Z AUTO 00000KT 10SM OVC085 28/02 A2997 RMK AO1,,18.72,0.0,28.0,2018-08-17 04:55:00,2590.8,2.0,2.07,1.0,,KCIC,236,-121.85795,39.79879
703,101523.88,N,,,26.27,0.0,101488.21,854.0,,10.0,100661.38,KCIC 170515Z AUTO 00000KT 10SM OVC085 27/02 A2998 RMK AO1,,19.84,0.0,27.0,2018-08-17 05:15:00,2590.8,2.0,2.05,1.0,,KCIC,236,-121.85795,39.79879
704,101523.88,N,,,26.27,0.0,101488.21,854.0,,10.0,100661.38,KCIC 170535Z AUTO 00000KT 10SM OVC085 27/02 A2998 RMK AO1,,19.84,0.0,27.0,2018-08-17 05:35:00,2590.8,2.0,2.05,1.0,,KCIC,236,-121.85795,39.79879
705,101523.88,N,,,26.24,0.0,101488.21,753.0,,10.0,100661.38,KCIC 170555Z AUTO 00000KT 10SM BKN075 OVC080 27/01 A2998 RMK AO1,804.0,18.47,0.0,27.0,2018-08-17 05:55:00,2286.0,1.0,1.06,1.0,,KCIC,236,-121.85795,39.79879
706,101523.88,N,,,26.2,0.0,101488.22,753.0,,10.0,100661.38,KCIC 170615Z AUTO 00000KT 10SM BKN075 OVC120 27/00 A2998 RMK AO1,1204.0,17.18,0.0,27.0,2018-08-17 06:15:00,2286.0,0.0,0.06,1.0,,KCIC,236,-121.85795,39.79879
707,101557.75,N,,,26.2,0.0,101522.08,756.0,,10.0,100694.97,KCIC 170635Z AUTO 00000KT 10SM FEW075 OVC120 27/00 A2999 RMK AO1,1204.0,17.18,0.0,27.0,2018-08-17 06:35:00,3657.6,0.0,0.06,1.0,,KCIC,236,-121.85795,39.79879
708,101523.88,N,,,26.24,0.0,101488.21,1202.0,,10.0,100661.38,KCIC 170655Z AUTO 00000KT 10SM SCT120 27/01 A2998 RMK AO1,,18.47,0.0,27.0,2018-08-17 06:55:00,,1.0,1.06,1.0,,KCIC,236,-121.85795,39.79879
709,101557.75,N,,,26.24,0.0,101522.08,1.0,,10.0,100694.97,KCIC 170715Z AUTO 00000KT 10SM CLR 27/01 A2999 RMK AO1,,18.47,0.0,27.0,2018-08-17 07:15:00,,1.0,1.06,1.0,,KCIC,236,-121.85795,39.79879
710,101557.75,N,,,,0.0,101527.64,1.0,,10.0,100694.97,KCIC 170735Z AUTO 00000KT 10SM CLR 25/02 A2999 RMK AO1,,22.33,0.0,25.0,2018-08-17 07:35:00,,2.0,2.02,1.0,,KCIC,236,-121.85795,39.79879
711,101557.75,N,,,,0.0,101530.46,1.0,,10.0,100694.97,KCIC 170755Z AUTO 00000KT 10SM CLR 24/01 A2999 RMK AO1,,22.06,0.0,24.0,2018-08-17 07:55:00,,1.0,1.0,1.0,,KCIC,236,-121.85795,39.79879
712,101557.75,NW,,,,310.0,101530.46,1.0,,10.0,100694.97,KCIC 170815Z AUTO 31005KT 10SM CLR 24/02 A2999 RMK AO1,,23.7,2.57,24.0,2018-08-17 08:15:00,,2.0,2.0,1.0,,KCIC,236,-121.85795,39.79879
713,101591.61,NW,,,,310.0,101572.85,1.0,,10.0,100728.54,KCIC 170835Z AUTO 31006KT 10SM CLR 21/03 A3000 RMK AO1,,30.53,3.09,21.0,2018-08-17 08:35:00,,3.0,2.96,1.0,,KCIC,236,-121.85795,39.79879
714,101591.61,NNW,,,,330.0,101572.85,1.0,,10.0,100728.54,KCIC 170855Z AUTO 33003KT 10SM CLR 21/04 A3000 RMK AO1,,32.76,1.54,21.0,2018-08-17 08:55:00,,4.0,3.96,1.0,,KCIC,236,-121.85795,39.79879
715,101591.61,NNW,,,,340.0,101567.14,1.0,,10.0,100728.54,KCIC 170915Z AUTO 34006KT 10SM CLR 23/02 A3000 RMK AO1,,25.17,3.09,23.0,2018-08-17 09:15:00,,2.0,1.98,1.0,,KCIC,236,-121.85795,39.79879
716,101591.61,N,,,,0.0,101564.3,1.0,,10.0,100728.54,KCIC 170935Z AUTO 00000KT 10SM CLR 24/02 A3000 RMK AO1,,23.7,0.0,24.0,2018-08-17 09:35:00,,2.0,2.0,1.0,,KCIC,236,-121.85795,39.79879
717,101591.61,N,,,,0.0,101572.85,1.0,,10.0,100728.54,KCIC 170955Z AUTO 00000KT 10SM CLR 21/04 A3000 RMK AO1,,32.76,0.0,21.0,2018-08-17 09:55:00,,4.0,3.96,1.0,,KCIC,236,-121.85795,39.79879
718,101591.61,N,,,,0.0,101569.98,1.0,,10.0,100728.54,KCIC 171015Z AUTO 00000KT 10SM CLR 22/03 A3000 RMK AO1,,28.72,0.0,22.0,2018-08-17 10:15:00,,3.0,2.97,1.0,,KCIC,236,-121.85795,39.79879
719,101625.47,N,,,,0.0,101603.83,1.0,,10.0,100762.11,KCIC 171035Z AUTO 00000KT 10SM CLR 22/03 A3001 RMK AO1,,28.72,0.0,22.0,2018-08-17 10:35:00,,3.0,2.97,1.0,,KCIC,236,-121.85795,39.79879
720,101625.47,N,,,,0.0,101603.83,1.0,,10.0,100762.11,KCIC 171055Z AUTO 00000KT 10SM CLR 22/03 A3001 RMK AO1,,28.72,0.0,22.0,2018-08-17 10:55:00,,3.0,2.97,1.0,,KCIC,236,-121.85795,39.79879
721,101625.47,N,,,,0.0,101603.83,1.0,,10.0,100762.11,KCIC 171115Z AUTO 00000KT 10SM CLR 22/03 A3001 RMK AO1,,28.72,0.0,22.0,2018-08-17 11:15:00,,3.0,2.97,1.0,,KCIC,236,-121.85795,39.79879
722,101659.34,N,,,,0.0,101640.57,1.0,,10.0,100795.69,KCIC 171135Z AUTO 00000KT 10SM CLR 21/03 A3002 RMK AO1,,30.53,0.0,21.0,2018-08-17 11:35:00,,3.0,2.96,1.0,,KCIC,236,-121.85795,39.79879
723,101659.34,N,,,,0.0,101640.57,1.0,,10.0,100795.69,KCIC 171155Z AUTO 00000KT 10SM CLR 21/03 A3002 RMK AO1,,30.53,0.0,21.0,2018-08-17 11:55:00,,3.0,2.96,1.0,,KCIC,236,-121.85795,39.79879
724,101659.34,N,,,,0.0,101640.56,1.0,,10.0,100795.69,KCIC 171215Z AUTO 00000KT 10SM CLR 21/04 A3002 RMK AO1,,32.76,0.0,21.0,2018-08-17 12:15:00,,4.0,3.96,1.0,,KCIC,236,-121.85795,39.79879
725,101659.34,ESE,,,,120.0,101643.46,1.0,,10.0,100795.69,KCIC 171235Z AUTO 12003KT 10SM CLR 20/04 A3002 RMK AO1,,34.84,1.54,20.0,2018-08-17 12:35:00,,4.0,3.95,1.0,,KCIC,236,-121.85795,39.79879
726,101625.47,N,,,,0.0,101609.59,1.0,,10.0,100762.11,KCIC 171255Z AUTO 00000KT 10SM CLR 20/04 A3001 RMK AO1,,34.84,0.0,20.0,2018-08-17 12:55:00,,4.0,3.95,1.0,,KCIC,236,-121.85795,39.79879
727,101659.34,N,,,,0.0,101643.46,1.0,,10.0,100795.69,KCIC 171315Z AUTO 00000KT 10SM CLR 20/04 A3002 RMK AO1,,34.84,0.0,20.0,2018-08-17 13:15:00,,4.0,3.95,1.0,,KCIC,236,-121.85795,39.79879
728,101693.2,N,,,,0.0,101671.55,1.0,,10.0,100829.27,KCIC 171455Z 00000KT 10SM SKC 22/07 A3003,,37.95,0.0,22.0,2018-08-17 14:55:00,,7.0,6.97,1.0,,KCIC,236,-121.85795,39.79879
729,101760.93,N,,,,0.0,101733.56,1.0,,10.0,100896.42,KCIC 171549Z 00000KT 10SM SKC 24/07 A3005,,33.63,0.0,24.0,2018-08-17 15:49:00,,7.0,6.99,1.0,,KCIC,236,-121.85795,39.79879
730,101760.93,WSW,,,,240.0,101730.75,1.0,,10.0,100896.42,KCIC 171648Z 24003KT 10SM SKC 25/05 A3005,,27.59,1.54,25.0,2018-08-17 16:48:00,,5.0,5.0,1.0,,KCIC,236,-121.85795,39.79879
731,101727.07,N,,,26.88,0.0,101688.57,1.0,,10.0,100862.85,KCIC 171750Z 00000KT 10SM SKC 28/06 A3004,,24.79,0.0,28.0,2018-08-17 17:50:00,,6.0,6.05,1.0,,KCIC,236,-121.85795,39.79879
732,101727.07,N,,,28.46,0.0,101683.1,1.0,,10.0,100862.85,KCIC 171855Z 00000KT 10SM SKC 30/08 A3004,,25.33,0.0,30.0,2018-08-17 18:55:00,,8.0,8.08,1.0,,KCIC,236,-121.85795,39.79879
733,101659.34,W,,,30.94,270.0,101607.33,1.0,,10.0,100795.69,KCIC 171953Z 27003KT 10SM SKC 33/07 A3002,,19.96,1.54,33.0,2018-08-17 19:53:00,,7.0,7.15,1.0,,KCIC,236,-121.85795,39.79879
734,101591.61,S,,,32.54,180.0,101534.37,1.0,,10.0,100728.54,KCIC 172050Z 18005KT 10SM SKC 35/04 A3000,,14.51,2.57,35.0,2018-08-17 20:50:00,,4.0,4.24,1.0,,KCIC,236,-121.85795,39.79879
735,101557.75,S,,,33.56,190.0,101497.92,1.0,,10.0,100694.97,KCIC 172150Z 19009KT 10SM SKC 36/05 A2999,,14.72,4.63,36.0,2018-08-17 21:50:00,,5.0,5.25,1.0,,KCIC,236,-121.85795,39.79879
736,101388.43,S,,,35.11,180.0,101326.08,1.0,,10.0,100527.08,KCIC 172350Z 18008KT 10SM SKC 37/09 A2994,,18.34,4.12,37.0,2018-08-17 23:50:00,,9.0,9.24,1.0,,KCIC,236,-121.85795,39.79879
737,101388.43,S,,,34.1,180.0,101328.67,1.0,,10.0,100527.08,KCIC 180050Z 18008KT 10SM SKC 36/09 A2994,,19.37,4.12,36.0,2018-08-18 00:50:00,,9.0,9.21,1.0,,KCIC,236,-121.85795,39.79879
738,101354.56,S,,,32.95,180.0,101297.44,1502.0,,10.0,100493.5,KCIC 180147Z 18007KT 10SM SCT150 35/08 A2993 RMK LAST,,19.13,3.6,35.0,2018-08-18 01:47:00,,8.0,8.2,1.0,,KCIC,236,-121.85795,39.79879
739,101388.43,N,,,30.76,0.0,101339.21,1.0,,10.0,100527.08,KCIC 180315Z AUTO 00000KT 10SM CLR 32/12 A2994 RMK AO1,,29.55,0.0,32.0,2018-08-18 03:15:00,,12.0,12.1,1.0,,KCIC,236,-121.85795,39.79879
740,101422.29,N,,,30.39,0.0,101373.06,753.0,,10.0,100560.66,KCIC 180335Z AUTO 00000KT 10SM BKN075 32/10 A2995 RMK AO1,,25.88,0.0,32.0,2018-08-18 03:35:00,2286.0,10.0,10.11,1.0,,KCIC,236,-121.85795,39.79879
741,101456.15,N,,,29.38,0.0,101409.59,754.0,,10.0,100594.23,KCIC 180355Z AUTO 00000KT 10SM OVC075 31/09 A2996 RMK AO1,,25.61,0.0,31.0,2018-08-18 03:55:00,2286.0,9.0,9.1,1.0,,KCIC,236,-121.85795,39.79879
742,101456.15,N,,,28.56,0.0,101412.29,553.0,,10.0,100594.23,KCIC 180415Z AUTO 00000KT 10SM BKN055 OVC075 30/09 A2996 RMK AO1,754.0,27.11,0.0,30.0,2018-08-18 04:15:00,1676.4,9.0,9.07,1.0,,KCIC,236,-121.85795,39.79879
743,101490.02,N,,,28.56,0.0,101446.14,553.0,,10.0,100627.81,KCIC 180435Z AUTO 00000KT 10SM BKN055 OVC075 30/09 A2997 RMK AO1,754.0,27.11,0.0,30.0,2018-08-18 04:35:00,1676.4,9.0,9.07,1.0,,KCIC,236,-121.85795,39.79879
744,101523.88,N,,,27.8,0.0,101482.7,653.0,,10.0,100661.38,KCIC 180455Z AUTO 00000KT 10SM BKN065 OVC075 29/09 A2998 RMK AO1,754.0,28.71,0.0,29.0,2018-08-18 04:55:00,1981.2,9.0,9.05,1.0,,KCIC,236,-121.85795,39.79879
745,101523.88,N,,,27.8,0.0,101482.7,653.0,,10.0,100661.38,KCIC 180515Z AUTO 00000KT 10SM BKN065 OVC075 29/09 A2998 RMK AO1,754.0,28.71,0.0,29.0,2018-08-18 05:15:00,1981.2,9.0,9.05,1.0,,KCIC,236,-121.85795,39.79879
746,101523.88,N,,,27.8,0.0,101482.7,652.0,,10.0,100661.38,KCIC 180535Z AUTO 00000KT 10SM SCT065 29/09 A2998 RMK AO1,,28.71,0.0,29.0,2018-08-18 05:35:00,,9.0,9.05,1.0,,KCIC,236,-121.85795,39.79879
747,101523.88,N,,,27.12,0.0,101485.44,802.0,,10.0,100661.38,KCIC 180555Z AUTO 00000KT 10SM SCT080 28/09 A2998 RMK AO1,,30.43,0.0,28.0,2018-08-18 05:55:00,,9.0,9.04,1.0,,KCIC,236,-121.85795,39.79879
748,101523.88,N,,,27.03,0.0,101485.44,802.0,,10.0,100661.38,KCIC 180615Z AUTO 00000KT 10SM SCT080 28/08 A2998 RMK AO1,,28.43,0.0,28.0,2018-08-18 06:15:00,,8.0,8.04,1.0,,KCIC,236,-121.85795,39.79879
749,101523.88,N,,,27.03,0.0,101485.44,806.0,,10.0,100661.38,KCIC 180635Z AUTO 00000KT 10SM FEW080 28/08 A2998 RMK AO1,,28.43,0.0,28.0,2018-08-18 06:35:00,,8.0,8.04,1.0,,KCIC,236,-121.85795,39.79879
750,101523.88,N,,,26.54,0.0,101488.2,806.0,,10.0,100661.38,KCIC 180655Z AUTO 00000KT 10SM FEW080 BKN120 27/08 A2998 RMK AO1,1203.0,30.14,0.0,27.0,2018-08-18 06:55:00,3657.6,8.0,8.02,1.0,,KCIC,236,-121.85795,39.79879
751,101523.88,N,,,26.54,0.0,101488.2,1203.0,,10.0,100661.38,KCIC 180715Z AUTO 00000KT 10SM BKN120 27/08 A2998 RMK AO1,,30.14,0.0,27.0,2018-08-18 07:15:00,3657.6,8.0,8.02,1.0,,KCIC,236,-121.85795,39.79879
752,101523.88,N,,,27.03,0.0,101485.44,1104.0,,10.0,100661.38,KCIC 180735Z AUTO 00000KT 10SM OVC110 28/08 A2998 RMK AO1,,28.43,0.0,28.0,2018-08-18 07:35:00,3352.8,8.0,8.04,1.0,,KCIC,236,-121.85795,39.79879
753,101523.88,ENE,,,27.12,60.0,101485.44,1104.0,,10.0,100661.38,KCIC 180755Z AUTO 06003KT 10SM OVC110 28/09 A2998 RMK AO1,,30.43,1.54,28.0,2018-08-18 07:55:00,3352.8,9.0,9.04,1.0,,KCIC,236,-121.85795,39.79879
754,101523.88,N,,,26.54,0.0,101488.2,1004.0,,10.0,100661.38,KCIC 180815Z AUTO 00000KT 10SM OVC100 27/08 A2998 RMK AO1,,30.14,0.0,27.0,2018-08-18 08:15:00,3048.0,8.0,8.02,1.0,,KCIC,236,-121.85795,39.79879
755,101523.88,N,,,,0.0,101490.97,1004.0,,10.0,100661.38,KCIC 180835Z AUTO 00000KT 10SM OVC100 26/08 A2998 RMK AO1,,31.97,0.0,26.0,2018-08-18 08:35:00,3048.0,8.0,8.01,1.0,,KCIC,236,-121.85795,39.79879
756,101523.88,WNW,,,,290.0,101496.57,1004.0,,10.0,100661.38,KCIC 180855Z AUTO 29005KT 10SM OVC100 24/09 A2998 RMK AO1,,38.53,2.57,24.0,2018-08-18 08:55:00,3048.0,9.0,8.99,1.0,,KCIC,236,-121.85795,39.79879
757,101557.75,NW,,,,320.0,101536.12,1104.0,,10.0,100694.97,KCIC 180915Z AUTO 32005KT 10SM OVC110 22/09 A2999 RMK AO1,,43.48,2.57,22.0,2018-08-18 09:15:00,3352.8,9.0,8.97,1.0,,KCIC,236,-121.85795,39.79879
758,101557.75,NNW,,,,330.0,101536.12,1004.0,,10.0,100694.97,KCIC 180935Z AUTO 33005KT 10SM OVC100 22/09 A2999 RMK AO1,,43.48,2.57,22.0,2018-08-18 09:35:00,3048.0,9.0,8.97,1.0,,KCIC,236,-121.85795,39.79879
759,101557.75,NW,,,,320.0,101536.11,1004.0,,10.0,100694.97,KCIC 180955Z AUTO 32003KT 10SM OVC100 22/10 A2999 RMK AO1,,46.5,1.54,22.0,2018-08-18 09:55:00,3048.0,10.0,9.97,1.0,,KCIC,236,-121.85795,39.79879
760,101591.61,N,,,,0.0,101569.96,902.0,,10.0,100728.54,KCIC 181015Z AUTO 00000KT 10SM SCT090 OVC110 22/10 A3000 RMK AO1,1104.0,46.5,0.0,22.0,2018-08-18 10:15:00,3352.8,10.0,9.97,1.0,,KCIC,236,-121.85795,39.79879
761,101591.61,N,,,,0.0,101569.96,1104.0,,10.0,100728.54,KCIC 181035Z AUTO 00000KT 10SM OVC110 22/10 A3000 RMK AO1,,46.5,0.0,22.0,2018-08-18 10:35:00,3352.8,10.0,9.97,1.0,,KCIC,236,-121.85795,39.79879
762,101591.61,N,,,,0.0,101569.96,1104.0,,10.0,100728.54,KCIC 181055Z AUTO 00000KT 10SM OVC110 22/10 A3000 RMK AO1,,46.5,0.0,22.0,2018-08-18 10:55:00,3352.8,10.0,9.97,1.0,,KCIC,236,-121.85795,39.79879
763,101591.61,N,,,,0.0,101569.96,856.0,,10.0,100728.54,KCIC 181115Z AUTO 00000KT 10SM FEW085 OVC110 22/10 A3000 RMK AO1,1104.0,46.5,0.0,22.0,2018-08-18 11:15:00,3352.8,10.0,9.97,1.0,,KCIC,236,-121.85795,39.79879
764,101591.61,N,,,,0.0,101569.96,1104.0,,10.0,100728.54,KCIC 181135Z AUTO 00000KT 10SM OVC110 22/10 A3000 RMK AO1,,46.5,0.0,22.0,2018-08-18 11:35:00,3352.8,10.0,9.97,1.0,,KCIC,236,-121.85795,39.79879
765,101591.61,N,,,,0.0,101569.96,1104.0,,10.0,100728.54,KCIC 181155Z AUTO 00000KT 10SM OVC110 22/11 A3000 RMK AO1,,49.7,0.0,22.0,2018-08-18 11:55:00,3352.8,11.0,10.97,1.0,,KCIC,236,-121.85795,39.79879
766,101625.47,N,,,,0.0,101609.57,1104.0,,10.0,100762.11,KCIC 181215Z AUTO 00000KT 10SM OVC110 20/12 A3001 RMK AO1,,60.03,0.0,20.0,2018-08-18 12:15:00,3352.8,12.0,11.97,1.0,,KCIC,236,-121.85795,39.79879
767,101625.47,N,,,,0.0,101609.57,1004.0,,10.0,100762.11,KCIC 181235Z AUTO 00000KT 10SM OVC100 20/12 A3001 RMK AO1,,60.03,0.0,20.0,2018-08-18 12:35:00,3048.0,12.0,11.97,1.0,,KCIC,236,-121.85795,39.79879
768,101659.34,N,,,,0.0,101643.43,1004.0,,10.0,100795.69,KCIC 181255Z AUTO 00000KT 10SM OVC100 20/12 A3002 RMK AO1,,60.03,0.0,20.0,2018-08-18 12:55:00,3048.0,12.0,11.97,1.0,,KCIC,236,-121.85795,39.79879
769,101625.47,N,,,,0.0,101606.68,1004.0,,10.0,100762.11,KCIC 181315Z AUTO 00000KT 10SM OVC100 21/12 A3001 RMK AO1,,56.44,0.0,21.0,2018-08-18 13:15:00,3048.0,12.0,11.97,1.0,,KCIC,236,-121.85795,39.79879
770,101659.34,N,,,,0.0,101640.54,1803.0,,40.0,100795.69,KCIC 181358Z 00000KT 40SM BKN180 21/12 A3002,,56.44,0.0,21.0,2018-08-18 13:58:00,5486.4,12.0,11.97,1.0,,KCIC,236,-121.85795,39.79879
771,101727.07,N,,,,0.0,101711.16,1006.0,,40.0,100862.85,KCIC 181448Z 00000KT 40SM FEW100 BKN180 20/10 A3004,1803.0,52.57,0.0,20.0,2018-08-18 14:48:00,5486.4,10.0,9.96,1.0,,KCIC,236,-121.85795,39.79879
772,101727.07,N,,,,0.0,101699.71,1006.0,,40.0,100862.85,KCIC 181550Z 00000KT 40SM FEW100 BKN180 24/09 A3004,1803.0,38.53,0.0,24.0,2018-08-18 15:50:00,5486.4,9.0,8.99,1.0,,KCIC,236,-121.85795,39.79879
773,101727.07,S,,,26.95,170.0,101688.56,1803.0,,8.0,100862.85,KCIC 181652Z 17005KT 8SM FU BKN180 28/07 A3004,,26.56,2.57,28.0,2018-08-18 16:52:00,5486.4,7.0,7.05,1.0,7.0,KCIC,236,-121.85795,39.79879
774,101727.07,SSW,,,27.63,200.0,101685.82,1803.0,,10.0,100862.85,KCIC 181747Z 20005KT 10SM BKN180 29/07 A3004 RMK FU ALQDS,,25.06,2.57,29.0,2018-08-18 17:47:00,5486.4,7.0,7.06,1.0,,KCIC,236,-121.85795,39.79879
775,101693.2,SSW,,,28.38,210.0,101649.25,1803.0,,10.0,100829.27,KCIC 181847Z 21004KT 10SM BKN180 30/07 A3003 RMK FU ALQDS,,23.66,2.06,30.0,2018-08-18 18:47:00,5486.4,7.0,7.08,1.0,,KCIC,236,-121.85795,39.79879
776,101659.34,N,,,30.04,0.0,101610.0,1803.0,,10.0,100795.69,KCIC 181950Z 00000KT 10SM BKN180 32/07 A3002 RMK FU ALQDS,,21.12,0.0,32.0,2018-08-18 19:50:00,5486.4,7.0,7.13,1.0,,KCIC,236,-121.85795,39.79879
777,101557.75,SSW,,,31.98,200.0,101503.15,2003.0,,10.0,100694.97,KCIC 182050Z 20004KT 10SM BKN200 34/08 A2999 RMK FU ALL QUADS,,20.21,2.06,34.0,2018-08-18 20:50:00,6096.0,8.0,8.17,1.0,,KCIC,236,-121.85795,39.79879
778,101490.02,SW,,,33.1,220.0,101432.82,2003.0,,10.0,100627.81,KCIC 182150Z 22004KT 10SM BKN200 35/09 A2997 RMK FU ALL QUAD,,20.47,2.06,35.0,2018-08-18 21:50:00,6096.0,9.0,9.19,1.0,,KCIC,236,-121.85795,39.79879
779,101388.43,S,,,34.92,190.0,101326.09,2003.0,,10.0,100527.08,KCIC 182250Z 19006KT 10SM BKN200 37/08 A2994 RMK FU ALL QUAD,,17.14,3.09,37.0,2018-08-18 22:50:00,6096.0,8.0,8.25,1.0,,KCIC,236,-121.85795,39.79879
780,101320.7,S,,,35.33,190.0,101258.4,2002.0,,10.0,100459.93,KCIC 182350Z 19007KT 10SM SCT200 37/10 A2992 RMK FU ALL QUADS,,19.62,3.6,37.0,2018-08-18 23:50:00,,10.0,10.24,1.0,,KCIC,236,-121.85795,39.79879
781,101286.84,S,,,34.62,170.0,101224.57,1.0,,10.0,100426.36,KCIC 190058Z 17007KT 10SM SKC 37/06 A2991,,14.94,3.6,37.0,2018-08-19 00:58:00,,6.0,6.27,1.0,,KCIC,236,-121.85795,39.79879
782,101252.97,SSW,,,32.95,200.0,101195.91,1.0,,10.0,100392.78,KCIC 190150Z 20004KT 10SM SKC 35/08 A2990,,19.13,2.06,35.0,2018-08-19 01:50:00,,8.0,8.2,1.0,,KCIC,236,-121.85795,39.79879
783,101252.97,N,,,30.56,0.0,101203.82,1.0,,10.0,100392.78,KCIC 190315Z AUTO 00000KT 10SM CLR 32/11 A2990 RMK AO1,,27.66,0.0,32.0,2018-08-19 03:15:00,,11.0,11.1,1.0,,KCIC,236,-121.85795,39.79879
784,101252.97,ENE,,,28.38,60.0,101209.21,1106.0,,10.0,100392.78,KCIC 190335Z AUTO 06005KT 10SM FEW110 30/07 A2990 RMK AO1,,23.66,2.57,30.0,2018-08-19 03:35:00,,7.0,7.08,1.0,,KCIC,236,-121.85795,39.79879
785,101286.84,ENE,,,28.38,60.0,101243.06,853.0,,10.0,100426.36,KCIC 190355Z AUTO 06004KT 10SM BKN085 30/07 A2991 RMK AO1,,23.66,2.06,30.0,2018-08-19 03:55:00,2590.8,7.0,7.08,1.0,,KCIC,236,-121.85795,39.79879
786,101286.84,NE,,,27.63,50.0,101245.77,472.0,,10.0,100426.36,KCIC 190415Z AUTO 05005KT 10SM SCT047 OVC085 29/07 A2991 RMK AO1,854.0,25.06,2.57,29.0,2018-08-19 04:15:00,2590.8,7.0,7.06,1.0,,KCIC,236,-121.85795,39.79879
787,101286.84,N,,,27.63,0.0,101245.77,474.0,,10.0,100426.36,KCIC 190435Z AUTO 00000KT 10SM OVC047 29/07 A2991 RMK AO1,,25.06,0.0,29.0,2018-08-19 04:35:00,1432.56,7.0,7.06,1.0,,KCIC,236,-121.85795,39.79879
788,101286.84,N,,,27.56,0.0,101245.77,494.0,,10.0,100426.36,KCIC 190455Z AUTO 00000KT 10SM OVC049 29/06 A2991 RMK AO1,,23.4,0.0,29.0,2018-08-19 04:55:00,1493.52,6.0,6.07,1.0,,KCIC,236,-121.85795,39.79879
789,101320.7,N,,,27.56,0.0,101279.62,494.0,,10.0,100459.93,KCIC 190515Z AUTO 00000KT 10SM OVC049 29/06 A2992 RMK AO1,,23.4,0.0,29.0,2018-08-19 05:15:00,1493.52,6.0,6.07,1.0,,KCIC,236,-121.85795,39.79879
790,101320.7,N,,,26.88,0.0,101282.35,554.0,,10.0,100459.93,KCIC 190535Z AUTO 00000KT 10SM OVC055 28/06 A2992 RMK AO1,,24.79,0.0,28.0,2018-08-19 05:35:00,1676.4,6.0,6.05,1.0,,KCIC,236,-121.85795,39.79879
791,101320.7,N,,,26.95,0.0,101282.35,553.0,,10.0,100459.93,KCIC 190555Z AUTO 00000KT 10SM BKN055 OVC065 28/07 A2992 RMK AO1,654.0,26.56,0.0,28.0,2018-08-19 05:55:00,1676.4,7.0,7.05,1.0,,KCIC,236,-121.85795,39.79879
792,101286.84,NE,,,26.83,50.0,101248.51,554.0,,10.0,100426.36,KCIC 190615Z AUTO 05005KT 10SM OVC055 28/05 A2991 RMK AO1,,23.13,2.57,28.0,2018-08-19 06:15:00,1676.4,5.0,5.06,1.0,,KCIC,236,-121.85795,39.79879
793,101286.84,ENE,,,26.83,60.0,101248.51,554.0,,10.0,100426.36,KCIC 190635Z AUTO 06004KT 10SM OVC055 28/05 A2991 RMK AO1,,23.13,2.06,28.0,2018-08-19 06:35:00,1676.4,5.0,5.06,1.0,,KCIC,236,-121.85795,39.79879
794,101286.84,N,,,26.4,0.0,101251.25,554.0,,10.0,100426.36,KCIC 190655Z AUTO 00000KT 10SM OVC055 27/05 A2991 RMK AO1,,24.52,0.0,27.0,2018-08-19 06:55:00,1676.4,5.0,5.04,1.0,,KCIC,236,-121.85795,39.79879
795,101286.84,N,,,26.4,0.0,101251.25,554.0,,10.0,100426.36,KCIC 190715Z AUTO 00000KT 10SM OVC055 27/05 A2991 RMK AO1,,24.52,0.0,27.0,2018-08-19 07:15:00,1676.4,5.0,5.04,1.0,,KCIC,236,-121.85795,39.79879
796,101320.7,NE,,,26.4,50.0,101285.1,554.0,,10.0,100459.93,KCIC 190735Z AUTO 05005KT 10SM OVC055 27/05 A2992 RMK AO1,,24.52,2.57,27.0,2018-08-19 07:35:00,1676.4,5.0,5.04,1.0,,KCIC,236,-121.85795,39.79879
797,101320.7,N,,,,0.0,101287.87,554.0,,10.0,100459.93,KCIC 190755Z AUTO 00000KT 10SM OVC055 26/05 A2992 RMK AO1,,26.0,0.0,26.0,2018-08-19 07:55:00,1676.4,5.0,5.02,1.0,,KCIC,236,-121.85795,39.79879
798,101320.7,N,,,,0.0,101290.65,654.0,,10.0,100459.93,KCIC 190815Z AUTO 00000KT 10SM OVC065 25/06 A2992 RMK AO1,,29.57,0.0,25.0,2018-08-19 08:15:00,1981.2,6.0,6.0,1.0,,KCIC,236,-121.85795,39.79879
799,101286.84,N,,,,0.0,101259.6,654.0,,10.0,100426.36,KCIC 190835Z AUTO 00000KT 10SM OVC065 24/07 A2991 RMK AO1,,33.63,0.0,24.0,2018-08-19 08:35:00,1981.2,7.0,6.99,1.0,,KCIC,236,-121.85795,39.79879
800,101286.84,N,,,,0.0,101259.6,654.0,,10.0,100426.36,KCIC 190855Z AUTO 00000KT 10SM OVC065 24/07 A2991 RMK AO1,,33.63,0.0,24.0,2018-08-19 08:55:00,1981.2,7.0,6.99,1.0,,KCIC,236,-121.85795,39.79879
801,101286.84,N,,,,0.0,101262.43,654.0,,10.0,100426.36,KCIC 190915Z AUTO 00000KT 10SM OVC065 23/07 A2991 RMK AO1,,35.72,0.0,23.0,2018-08-19 09:15:00,1981.2,7.0,6.98,1.0,,KCIC,236,-121.85795,39.79879
802,101320.7,N,,,,0.0,101296.28,654.0,,10.0,100459.93,KCIC 190935Z AUTO 00000KT 10SM OVC065 23/07 A2992 RMK AO1,,35.72,0.0,23.0,2018-08-19 09:35:00,1981.2,7.0,6.98,1.0,,KCIC,236,-121.85795,39.79879
803,101320.7,N,,,,0.0,101299.12,654.0,,10.0,100459.93,KCIC 190955Z AUTO 00000KT 10SM OVC065 22/07 A2992 RMK AO1,,37.95,0.0,22.0,2018-08-19 09:55:00,1981.2,7.0,6.97,1.0,,KCIC,236,-121.85795,39.79879
804,101320.7,NNW,,,,330.0,101299.11,654.0,,10.0,100459.93,KCIC 191015Z AUTO 33004KT 10SM OVC065 22/09 A2992 RMK AO1,,43.48,2.06,22.0,2018-08-19 10:15:00,1981.2,9.0,8.97,1.0,,KCIC,236,-121.85795,39.79879
805,101320.7,NNW,,,,330.0,101296.28,654.0,,10.0,100459.93,KCIC 191035Z AUTO 33003KT 10SM OVC065 23/06 A2992 RMK AO1,,33.34,1.54,23.0,2018-08-19 10:35:00,1981.2,6.0,5.98,1.0,,KCIC,236,-121.85795,39.79879
806,101320.7,N,,,,0.0,101296.28,654.0,,10.0,100459.93,KCIC 191055Z AUTO 00000KT 10SM OVC065 23/07 A2992 RMK AO1,,35.72,0.0,23.0,2018-08-19 10:55:00,1981.2,7.0,6.98,1.0,,KCIC,236,-121.85795,39.79879
807,101354.56,N,,,,0.0,101332.97,654.0,,10.0,100493.5,KCIC 191115Z AUTO 00000KT 10SM OVC065 22/08 A2993 RMK AO1,,40.63,0.0,22.0,2018-08-19 11:15:00,1981.2,8.0,7.97,1.0,,KCIC,236,-121.85795,39.79879
808,101354.56,N,,,,0.0,101332.97,654.0,,10.0,100493.5,KCIC 191135Z AUTO 00000KT 10SM OVC065 22/08 A2993 RMK AO1,,40.63,0.0,22.0,2018-08-19 11:35:00,1981.2,8.0,7.97,1.0,,KCIC,236,-121.85795,39.79879
809,101354.56,N,,,,0.0,101335.84,654.0,,10.0,100493.5,KCIC 191155Z AUTO 00000KT 10SM OVC065 21/06 A2993 RMK AO1,,37.66,0.0,21.0,2018-08-19 11:55:00,1981.2,6.0,5.96,1.0,,KCIC,236,-121.85795,39.79879
810,101354.56,N,,,,0.0,101335.84,654.0,,10.0,100493.5,KCIC 191215Z AUTO 00000KT 10SM OVC065 21/05 A2993 RMK AO1,,35.13,0.0,21.0,2018-08-19 12:15:00,1981.2,5.0,4.95,1.0,,KCIC,236,-121.85795,39.79879
811,101354.56,N,,,,0.0,101332.98,654.0,,10.0,100493.5,KCIC 191235Z AUTO 00000KT 10SM OVC065 22/05 A2993 RMK AO1,,33.05,0.0,22.0,2018-08-19 12:35:00,1981.2,5.0,4.97,1.0,,KCIC,236,-121.85795,39.79879
812,101320.7,N,,,,0.0,101301.99,654.0,,10.0,100459.93,KCIC 191255Z AUTO 00000KT 10SM OVC065 21/05 A2992 RMK AO1,,35.13,0.0,21.0,2018-08-19 12:55:00,1981.2,5.0,4.95,1.0,,KCIC,236,-121.85795,39.79879
813,101354.56,N,,,,0.0,101341.63,653.0,,10.0,100493.5,KCIC 191315Z AUTO 00000KT 10SM BKN065 19/05 A2993 RMK AO1,,39.75,0.0,19.0,2018-08-19 13:15:00,1981.2,5.0,4.94,1.0,,KCIC,236,-121.85795,39.79879
814,101388.43,N,,,,0.0,101372.56,1.0,,10.0,100527.08,KCIC 191358Z 00000KT 10SM SKC 20/13 A2994,,64.1,0.0,20.0,2018-08-19 13:58:00,,13.0,12.97,1.0,,KCIC,236,-121.85795,39.79879
815,101388.43,N,,,,0.0,101366.83,2003.0,,10.0,100527.08,KCIC 191452Z 00000KT 10SM BKN200 22/07 A2994,,37.95,0.0,22.0,2018-08-19 14:52:00,6096.0,7.0,6.97,1.0,,KCIC,236,-121.85795,39.79879
816,101422.29,N,,,,0.0,101395.01,2002.0,,10.0,100560.66,KCIC 191552Z 00000KT 10SM SCT200 24/09 A2995,,38.53,0.0,24.0,2018-08-19 15:52:00,,9.0,8.99,1.0,,KCIC,236,-121.85795,39.79879
817,101388.43,N,,,,0.0,101355.56,2002.0,,10.0,100527.08,KCIC 191647Z 00000KT 10SM SCT200 26/09 A2994,,34.21,0.0,26.0,2018-08-19 16:47:00,,9.0,9.01,1.0,,KCIC,236,-121.85795,39.79879
818,101354.56,WSW,,,27.03,250.0,101316.19,2002.0,,10.0,100493.5,KCIC 191747Z 25005KT 10SM SCT200 28/08 A2993,,28.43,2.57,28.0,2018-08-19 17:47:00,,8.0,8.04,1.0,,KCIC,236,-121.85795,39.79879
819,101286.84,WSW,,,28.56,240.0,101243.05,2002.0,,10.0,100426.36,KCIC 191847Z 24005KT 10SM SCT200 30/09 A2991 RMK FU ALQDS,,27.11,2.57,30.0,2018-08-19 18:47:00,,9.0,9.07,1.0,,KCIC,236,-121.85795,39.79879
