,date_time,altimeter_set_1,wind_cardinal_direction_set_1d,wind_gust_set_1,metar_set_1,ceiling_set_1,dew_point_temperature_set_1,cloud_layer_2_code_set_1,cloud_layer_3_code_set_1,dew_point_temperature_set_1d,visibility_set_1,weather_condition_set_1d,heat_index_set_1d,cloud_layer_1_code_set_1,metar_origin_set_1,pressure_set_1d,relative_humidity_set_1,wind_speed_set_1,sea_level_pressure_set_1d,air_temp_set_1,wind_direction_set_1,_meta_station_id,_meta_elevation,_meta_longitude,_meta_latitude
0,2018-08-01 00:00:00,101727.07,SSW,,KGOO 010000Z AUTO 21004KT 10SM CLR 33/11 A3004 RMK AO1,,11.0,,,11.13,10.0,Clear,31.51,1.0,1.0,90650.16,26.15,2.06,100805.0,33.0,210.0,KGOO,3154,-121.003083,39.224028
1,2018-08-01 00:20:00,101727.07,SW,,KGOO 010020Z AUTO 22005KT 10SM CLR 33/12 A3004 RMK AO1,,12.0,,,12.12,10.0,Clear,31.72,1.0,1.0,90650.16,27.93,2.57,100804.94,33.0,220.0,KGOO,3154,-121.003083,39.224028
2,2018-08-01 00:40:00,101727.07,SW,,KGOO 010040Z AUTO 22003KT 10SM CLR 33/12 A3004 RMK AO1,,12.0,,,12.12,10.0,Clear,31.72,1.0,1.0,90650.16,27.93,1.54,100804.94,33.0,220.0,KGOO,3154,-121.003083,39.224028
3,2018-08-01 01:00:00,101727.07,SW,,KGOO 010100Z AUTO 22004KT 10SM CLR 32/12 A3004 RMK AO1,,12.0,,,12.1,10.0,Clear,30.76,1.0,1.0,90650.16,29.55,2.06,100839.67,32.0,220.0,KGOO,3154,-121.003083,39.224028
4,2018-08-01 01:20:00,101693.2,N,,KGOO 010120Z AUTO 00000KT 10SM CLR 32/11 A3003 RMK AO1,,11.0,,,11.1,10.0,Clear,30.56,1.0,1.0,90619.98,27.66,0.0,100806.15,32.0,0.0,KGOO,3154,-121.003083,39.224028
5,2018-08-01 01:40:00,101693.2,N,,KGOO 010140Z AUTO 00000KT 10SM CLR 31/11 A3003 RMK AO1,,11.0,,,11.08,10.0,Clear,29.67,1.0,1.0,90619.98,29.27,0.0,100841.1,31.0,0.0,KGOO,3154,-121.003083,39.224028
6,2018-08-01 02:00:00,101693.2,N,,KGOO 010200Z AUTO 00000KT 10SM CLR 30/12 A3003 RMK AO1,,12.0,,,12.06,10.0,Clear,29.0,1.0,1.0,90619.98,33.11,0.0,100876.24,30.0,0.0,KGOO,3154,-121.003083,39.224028
7,2018-08-01 02:20:00,101693.2,N,,KGOO 010220Z AUTO 00000KT 10SM CLR 30/12 A3003 RMK AO1,,12.0,,,12.06,10.0,Clear,29.0,1.0,1.0,90619.98,33.11,0.0,100876.24,30.0,0.0,KGOO,3154,-121.003083,39.224028
8,2018-08-01 02:40:00,101693.2,N,,KGOO 010240Z AUTO 00000KT 10SM CLR 29/12 A3003 RMK AO1,,12.0,,,12.05,10.0,Clear,28.2,1.0,1.0,90619.98,35.07,0.0,100911.68,29.0,0.0,KGOO,3154,-121.003083,39.224028
9,2018-08-01 03:00:00,101693.2,N,,KGOO 010300Z AUTO 00000KT 10SM CLR 29/13 A3003 RMK AO1,,13.0,,,13.04,10.0,Clear,28.39,1.0,1.0,90619.98,37.44,0.0,100911.62,29.0,0.0,KGOO,3154,-121.003083,39.224028
10,2018-08-01 03:20:00,101727.07,N,,KGOO 010320Z AUTO 00000KT 10SM CLR 28/13 A3004 RMK AO1,,13.0,,,13.03,10.0,Clear,27.64,1.0,1.0,90650.16,39.68,0.0,100980.92,28.0,0.0,KGOO,3154,-121.003083,39.224028
11,2018-08-01 03:40:00,101727.07,N,,KGOO 010340Z AUTO 00000KT 10SM CLR 27/13 A3004 RMK AO1,,13.0,,,13.01,10.0,Clear,26.97,1.0,1.0,90650.16,42.06,0.0,101016.86,27.0,0.0,KGOO,3154,-121.003083,39.224028
12,2018-08-01 04:00:00,101727.07,N,,KGOO 010400Z AUTO 00000KT 10SM CLR 26/13 A3004 RMK AO1,,13.0,,,13.0,10.0,Clear,,1.0,1.0,90650.16,44.61,0.0,101053.05,26.0,0.0,KGOO,3154,-121.003083,39.224028
13,2018-08-01 04:20:00,101760.93,N,,KGOO 010420Z AUTO 00000KT 10SM CLR 26/12 A3005 RMK AO1,,12.0,,,12.01,10.0,Clear,,1.0,1.0,90680.34,41.78,0.0,101086.75,26.0,0.0,KGOO,3154,-121.003083,39.224028
14,2018-08-01 04:40:00,101760.93,ESE,,KGOO 010440Z AUTO 12003KT 10SM CLR 27/12 A3005 RMK AO1,,12.0,,,12.02,10.0,Clear,26.83,1.0,1.0,90680.34,39.39,1.54,101050.55,27.0,120.0,KGOO,3154,-121.003083,39.224028
15,2018-08-01 05:00:00,101794.79,ESE,,KGOO 010500Z AUTO 11004KT 10SM CLR 27/12 A3006 RMK AO1,,12.0,,,12.02,10.0,Clear,26.83,1.0,1.0,90710.51,39.39,2.06,101084.17,27.0,110.0,KGOO,3154,-121.003083,39.224028
16,2018-08-01 05:20:00,101794.79,ESE,,KGOO 010520Z AUTO 11005KT 10SM CLR 27/12 A3006 RMK AO1,,12.0,,,12.02,10.0,Clear,26.83,1.0,1.0,90710.51,39.39,2.57,101084.17,27.0,110.0,KGOO,3154,-121.003083,39.224028
17,2018-08-01 05:40:00,101760.93,E,,KGOO 010540Z AUTO 10005KT 10SM CLR 27/11 A3005 RMK AO1,,11.0,,,11.02,10.0,Clear,26.71,1.0,1.0,90680.34,36.87,2.57,101050.6,27.0,100.0,KGOO,3154,-121.003083,39.224028
18,2018-08-01 06:00:00,101760.93,ESE,,KGOO 010600Z AUTO 11003KT 10SM CLR 27/11 A3005 RMK AO1,,11.0,,,11.02,10.0,Clear,26.71,1.0,1.0,90680.34,36.87,1.54,101050.6,27.0,110.0,KGOO,3154,-121.003083,39.224028
19,2018-08-01 06:20:00,101760.93,N,,KGOO 010620Z AUTO 00000KT 10SM CLR 27/11 A3005 RMK AO1,,11.0,,,11.02,10.0,Clear,26.71,1.0,1.0,90680.34,36.87,0.0,101050.6,27.0,0.0,KGOO,3154,-121.003083,39.224028
20,2018-08-01 06:40:00,101760.93,N,,KGOO 010640Z AUTO 00000KT 10SM CLR 27/10 A3005 RMK AO1,,10.0,,,10.02,10.0,Clear,26.66,1.0,1.0,90680.34,34.5,0.0,101050.65,27.0,0.0,KGOO,3154,-121.003083,39.224028
21,2018-08-01 07:00:00,101760.93,N,,KGOO 010700Z AUTO 00000KT 10SM CLR 27/10 A3005 RMK AO1,,10.0,,,10.02,10.0,Clear,26.66,1.0,1.0,90680.34,34.5,0.0,101050.65,27.0,0.0,KGOO,3154,-121.003083,39.224028
22,2018-08-01 07:20:00,101760.93,N,,KGOO 010720Z AUTO 00000KT 10SM CLR 26/11 A3005 RMK AO1,,11.0,,,11.01,10.0,Clear,,1.0,1.0,90680.34,39.11,0.0,101086.81,26.0,0.0,KGOO,3154,-121.003083,39.224028
23,2018-08-01 07:40:00,101760.93,N,,KGOO 010740Z AUTO 00000KT 10SM CLR 26/10 A3005 RMK AO1,,10.0,,,10.01,10.0,Clear,,1.0,1.0,90680.34,36.59,0.0,101086.86,26.0,0.0,KGOO,3154,-121.003083,39.224028
24,2018-08-01 08:00:00,101760.93,N,,KGOO 010800Z AUTO 00000KT 10SM CLR 26/10 A3005 RMK AO1,,10.0,,,10.01,10.0,Clear,,1.0,1.0,90680.34,36.59,0.0,101086.86,26.0,0.0,KGOO,3154,-121.003083,39.224028
25,2018-08-01 08:20:00,101760.93,N,,KGOO 010820Z AUTO 00000KT 10SM CLR 26/10 A3005 RMK AO1,,10.0,,,10.01,10.0,Clear,,1.0,1.0,90680.34,36.59,0.0,101086.86,26.0,0.0,KGOO,3154,-121.003083,39.224028
26,2018-08-01 08:40:00,101760.93,N,,KGOO 010840Z AUTO 00000KT 10SM CLR 26/10 A3005 RMK AO1,,10.0,,,10.01,10.0,Clear,,1.0,1.0,90680.34,36.59,0.0,101086.86,26.0,0.0,KGOO,3154,-121.003083,39.224028
27,2018-08-01 09:00:00,101760.93,N,,KGOO 010900Z AUTO 00000KT 10SM CLR 25/09 A3005 RMK AO1,,9.0,,,9.0,10.0,Clear,,1.0,1.0,90680.34,36.3,0.0,101123.36,25.0,0.0,KGOO,3154,-121.003083,39.224028
28,2018-08-01 09:20:00,101760.93,N,,KGOO 010920Z AUTO 00000KT 10SM CLR 25/09 A3005 RMK AO1,,9.0,,,9.0,10.0,Clear,,1.0,1.0,90680.34,36.3,0.0,101123.36,25.0,0.0,KGOO,3154,-121.003083,39.224028
29,2018-08-01 09:40:00,101727.07,N,,KGOO 010940Z AUTO 00000KT 10SM CLR 25/09 A3004 RMK AO1,,9.0,,,9.0,10.0,Clear,,1.0,1.0,90650.16,36.3,0.0,101089.71,25.0,0.0,KGOO,3154,-121.003083,39.224028
30,2018-08-01 10:00:00,101727.07,N,,KGOO 011000Z AUTO 00000KT 10SM CLR 25/09 A3004 RMK AO1,,9.0,,,9.0,10.0,Clear,,1.0,1.0,90650.16,36.3,0.0,101089.71,25.0,0.0,KGOO,3154,-121.003083,39.224028
31,2018-08-01 10:20:00,101727.07,N,,KGOO 011020Z AUTO 00000KT 10SM CLR 25/09 A3004 RMK AO1,,9.0,,,9.0,10.0,Clear,,1.0,1.0,90650.16,36.3,0.0,101089.71,25.0,0.0,KGOO,3154,-121.003083,39.224028
32,2018-08-01 10:40:00,101727.07,N,,KGOO 011040Z AUTO 00000KT 10SM CLR 25/08 A3004 RMK AO1,,8.0,,,8.0,10.0,Clear,,1.0,1.0,90650.16,33.92,0.0,101089.76,25.0,0.0,KGOO,3154,-121.003083,39.224028
33,2018-08-01 11:00:00,101727.07,N,,KGOO 011100Z AUTO 00000KT 10SM CLR 24/08 A3004 RMK AO1,,8.0,,,7.99,10.0,Clear,,1.0,1.0,90650.16,36.01,0.0,101126.46,24.0,0.0,KGOO,3154,-121.003083,39.224028
34,2018-08-01 11:20:00,101727.07,N,,KGOO 011120Z AUTO 00000KT 10SM CLR 25/07 A3004 RMK AO1,,7.0,,,7.0,10.0,Clear,,1.0,1.0,90650.16,31.68,0.0,101089.8,25.0,0.0,KGOO,3154,-121.003083,39.224028
35,2018-08-01 11:40:00,101727.07,N,,KGOO 011140Z AUTO 00000KT 10SM CLR 24/07 A3004 RMK AO1,,7.0,,,6.99,10.0,Clear,,1.0,1.0,90650.16,33.63,0.0,101126.5,24.0,0.0,KGOO,3154,-121.003083,39.224028
36,2018-08-01 12:00:00,101727.07,N,,KGOO 011200Z AUTO 00000KT 10SM CLR 25/07 A3004 RMK AO1,,7.0,,,7.0,10.0,Clear,,1.0,1.0,90650.16,31.68,0.0,101089.8,25.0,0.0,KGOO,3154,-121.003083,39.224028
37,2018-08-01 12:20:00,101727.07,ESE,,KGOO 011220Z AUTO 12004KT 10SM CLR 25/07 A3004 RMK AO1,,7.0,,,7.0,10.0,Clear,,1.0,1.0,90650.16,31.68,2.06,101089.8,25.0,120.0,KGOO,3154,-121.003083,39.224028
38,2018-08-01 12:40:00,101727.07,ESE,,KGOO 011240Z AUTO 11005KT 10SM CLR 26/05 A3004 RMK AO1,,5.0,,,5.02,10.0,Clear,,1.0,1.0,90650.16,26.0,2.57,101053.43,26.0,110.0,KGOO,3154,-121.003083,39.224028
39,2018-08-01 13:00:00,101760.93,E,,KGOO 011300Z AUTO 10005KT 10SM CLR 25/06 A3005 RMK AO1,,6.0,,,6.0,10.0,Clear,,1.0,1.0,90680.34,29.57,2.57,101123.49,25.0,100.0,KGOO,3154,-121.003083,39.224028
40,2018-08-01 13:20:00,101760.93,ESE,,KGOO 011320Z AUTO 11005KT 10SM CLR 25/05 A3005 RMK AO1,,5.0,,,5.0,10.0,Clear,,1.0,1.0,90680.34,27.59,2.57,101123.53,25.0,110.0,KGOO,3154,-121.003083,39.224028
41,2018-08-01 13:40:00,101760.93,E,,KGOO 011340Z AUTO 10005KT 10SM CLR 25/05 A3005 RMK AO1,,5.0,,,5.0,10.0,Clear,,1.0,1.0,90680.34,27.59,2.57,101123.53,25.0,100.0,KGOO,3154,-121.003083,39.224028
42,2018-08-01 14:00:00,101760.93,E,,KGOO 011400Z AUTO 10006KT 10SM CLR 25/05 A3005 RMK AO1,,5.0,,,5.0,10.0,Clear,,1.0,1.0,90680.34,27.59,3.09,101123.53,25.0,100.0,KGOO,3154,-121.003083,39.224028
43,2018-08-01 14:20:00,101794.79,ESE,,KGOO 011420Z AUTO 11004KT 10SM CLR 25/05 A3006 RMK AO1,,5.0,,,5.0,10.0,Clear,,1.0,1.0,90710.51,27.59,2.06,101157.18,25.0,110.0,KGOO,3154,-121.003083,39.224028
44,2018-08-01 14:40:00,101794.79,E,,KGOO 011440Z AUTO 10006KT 10SM CLR 26/05 A3006 RMK AO1,,5.0,,,5.02,10.0,Clear,,1.0,1.0,90710.51,26.0,3.09,101120.71,26.0,100.0,KGOO,3154,-121.003083,39.224028
45,2018-08-01 15:00:00,101794.79,E,,KGOO 011500Z AUTO 10005KT 10SM CLR 26/06 A3006 RMK AO1,,6.0,,,6.01,10.0,Clear,,1.0,1.0,90710.51,27.87,2.57,101120.67,26.0,100.0,KGOO,3154,-121.003083,39.224028
46,2018-08-01 15:20:00,101794.79,ESE,,KGOO 011520Z AUTO 12003KT 10SM CLR 27/07 A3006 RMK AO1,,7.0,,,7.03,10.0,Clear,26.49,1.0,1.0,90710.51,28.15,1.54,101084.41,27.0,120.0,KGOO,3154,-121.003083,39.224028
47,2018-08-01 15:40:00,101828.66,ESE,,KGOO 011540Z AUTO 12003KT 10SM CLR 27/07 A3007 RMK AO1,,7.0,,,7.03,10.0,Clear,26.49,1.0,1.0,90740.69,28.15,1.54,101118.04,27.0,120.0,KGOO,3154,-121.003083,39.224028
48,2018-08-01 16:00:00,101828.66,SE,,KGOO 011600Z AUTO 14003KT 10SM CLR 27/07 A3007 RMK AO1,,7.0,,,7.03,10.0,Clear,26.49,1.0,1.0,90740.69,28.15,1.54,101118.04,27.0,140.0,KGOO,3154,-121.003083,39.224028
49,2018-08-01 16:20:00,101862.52,SE,,KGOO 011620Z AUTO 14004KT 10SM CLR 28/08 A3008 RMK AO1,,8.0,,,8.04,10.0,Clear,27.03,1.0,1.0,90770.86,28.43,2.06,101115.63,28.0,140.0,KGOO,3154,-121.003083,39.224028
50,2018-08-01 16:40:00,101862.52,SSE,,KGOO 011640Z AUTO 15003KT 10SM CLR 28/09 A3008 RMK AO1,,9.0,,,9.04,10.0,Clear,27.12,1.0,1.0,90770.86,30.43,1.54,101115.59,28.0,150.0,KGOO,3154,-121.003083,39.224028
51,2018-08-01 17:00:00,101862.52,SE,,KGOO 011700Z AUTO 14005KT 10SM CLR 28/09 A3008 RMK AO1,,9.0,,,9.04,10.0,Clear,27.12,1.0,1.0,90770.86,30.43,2.57,101115.59,28.0,140.0,KGOO,3154,-121.003083,39.224028
52,2018-08-01 17:20:00,101828.66,ESE,,KGOO 011720Z AUTO 12005KT 10SM CLR 29/09 A3007 RMK AO1,,9.0,,,9.05,10.0,Clear,27.8,1.0,1.0,90740.69,28.71,2.57,101046.25,29.0,120.0,KGOO,3154,-121.003083,39.224028
53,2018-08-01 17:40:00,101862.52,SE,,KGOO 011740Z AUTO 13006KT 10SM CLR 29/09 A3008 RMK AO1,,9.0,,,9.05,10.0,Clear,27.8,1.0,1.0,90770.86,28.71,3.09,101079.85,29.0,130.0,KGOO,3154,-121.003083,39.224028
54,2018-08-01 18:00:00,101862.52,SE,,KGOO 011800Z AUTO 13005KT 10SM CLR 30/08 A3008 RMK AO1,,8.0,,,8.08,10.0,Clear,28.46,1.0,1.0,90770.86,25.33,2.57,101044.4,30.0,130.0,KGOO,3154,-121.003083,39.224028
55,2018-08-01 18:20:00,101862.52,S,,KGOO 011820Z AUTO 17005KT 10SM CLR 31/08 A3008 RMK AO1,,8.0,,,8.1,10.0,Clear,29.27,1.0,1.0,90770.86,23.93,2.57,101009.14,31.0,170.0,KGOO,3154,-121.003083,39.224028
56,2018-08-01 18:40:00,101862.52,S,,KGOO 011840Z AUTO 17005KT 10SM CLR 31/07 A3008 RMK AO1,,7.0,,,7.11,10.0,Clear,29.18,1.0,1.0,90770.86,22.35,2.57,101009.19,31.0,170.0,KGOO,3154,-121.003083,39.224028
57,2018-08-01 19:00:00,101862.52,S,,KGOO 011900Z AUTO 17006KT 10SM CLR 32/07 A3008 RMK AO1,,7.0,,,7.13,10.0,Clear,30.04,1.0,1.0,90770.86,21.12,3.09,100974.18,32.0,170.0,KGOO,3154,-121.003083,39.224028
58,2018-08-01 19:20:00,101862.52,SE,,KGOO 011920Z AUTO 14007KT 8SM CLR 32/05 A3008 RMK AO1,,5.0,,,5.14,8.0,Clear,29.9,1.0,1.0,90770.86,18.39,3.6,100974.25,32.0,140.0,KGOO,3154,-121.003083,39.224028
59,2018-08-01 19:40:00,101862.52,S,,KGOO 011940Z AUTO 18003KT 10SM CLR 32/07 A3008 RMK AO1,,7.0,,,7.13,10.0,Clear,30.04,1.0,1.0,90770.86,21.12,1.54,100974.18,32.0,180.0,KGOO,3154,-121.003083,39.224028
60,2018-08-01 20:00:00,101828.66,S,,KGOO 012000Z AUTO 17004KT 10SM CLR 32/05 A3007 RMK AO1,,5.0,,,5.14,10.0,Clear,29.9,1.0,1.0,90740.69,18.39,2.06,100940.69,32.0,170.0,KGOO,3154,-121.003083,39.224028
61,2018-08-01 20:20:00,101862.52,S,,KGOO 012020Z AUTO 19004KT 8SM CLR 32/04 A3008 RMK AO1,,4.0,,,4.15,8.0,Clear,29.85,1.0,1.0,90770.86,17.15,2.06,100974.29,32.0,190.0,KGOO,3154,-121.003083,39.224028
62,2018-08-01 20:40:00,101828.66,SSW,,KGOO 012040Z AUTO 21006KT 10SM CLR 33/04 A3007 RMK AO1,,4.0,,,4.17,10.0,Clear,30.73,1.0,1.0,90740.69,16.21,3.09,100905.97,33.0,210.0,KGOO,3154,-121.003083,39.224028
63,2018-08-01 21:00:00,101828.66,SSE,,KGOO 012100Z AUTO 16004KT 10SM CLR 33/07 A3007 RMK AO1,,7.0,,,7.15,10.0,Clear,30.94,1.0,1.0,90740.69,19.96,2.06,100905.85,33.0,160.0,KGOO,3154,-121.003083,39.224028
64,2018-08-01 21:20:00,101828.66,SSW,,KGOO 012120Z AUTO 20005KT 10SM CLR 33/07 A3007 RMK AO1,,7.0,,,7.15,10.0,Clear,30.94,1.0,1.0,90740.69,19.96,2.57,100905.85,33.0,200.0,KGOO,3154,-121.003083,39.224028
65,2018-08-01 21:40:00,101828.66,S,,KGOO 012140Z AUTO 19005KT 10SM CLR 33/07 A3007 RMK AO1,,7.0,,,7.15,10.0,Clear,30.94,1.0,1.0,90740.69,19.96,2.57,100905.85,33.0,190.0,KGOO,3154,-121.003083,39.224028
66,2018-08-01 22:00:00,101794.79,SW,,KGOO 012200Z AUTO 22004KT 10SM CLR 32/07 A3006 RMK AO1,,7.0,,,7.13,10.0,Clear,30.04,1.0,1.0,90710.51,21.12,2.06,100907.04,32.0,220.0,KGOO,3154,-121.003083,39.224028
67,2018-08-01 22:20:00,101760.93,SSW,,KGOO 012220Z AUTO 21005KT 10SM CLR 33/06 A3005 RMK AO1,,6.0,,,6.16,10.0,Clear,30.85,1.0,1.0,90680.34,18.64,2.57,100838.78,33.0,210.0,KGOO,3154,-121.003083,39.224028
68,2018-08-01 22:40:00,101760.93,SSW,,KGOO 012240Z AUTO 20006KT 10SM CLR 33/04 A3005 RMK AO1,,4.0,,,4.17,10.0,Clear,30.73,1.0,1.0,90680.34,16.21,3.09,100838.85,33.0,200.0,KGOO,3154,-121.003083,39.224028
69,2018-08-01 23:00:00,101760.93,SW,,KGOO 012300Z AUTO 22005KT 10SM CLR 33/03 A3005 RMK AO1,,3.0,,,3.19,10.0,Clear,30.68,1.0,1.0,90680.34,15.11,2.57,100838.89,33.0,220.0,KGOO,3154,-121.003083,39.224028
70,2018-08-01 23:20:00,101760.93,SSW,,KGOO 012320Z AUTO 20004KT 10SM CLR 33/01 A3005 RMK AO1,,1.0,,,1.21,10.0,Clear,30.63,1.0,1.0,90680.34,13.1,2.06,100838.95,33.0,200.0,KGOO,3154,-121.003083,39.224028
71,2018-08-01 23:40:00,101727.07,SSW,,KGOO 012340Z AUTO 20004KT 10SM CLR 33/00 A3004 RMK AO1,,0.0,,,0.21,10.0,Clear,30.51,1.0,1.0,90650.16,12.18,2.06,100805.41,33.0,200.0,KGOO,3154,-121.003083,39.224028
72,2018-08-02 00:00:00,101727.07,SSW,,KGOO 020000Z AUTO 20004KT 10SM CLR 33/00 A3004 RMK AO1,,0.0,,,0.21,10.0,Clear,30.51,1.0,1.0,90650.16,12.18,2.06,100805.41,33.0,200.0,KGOO,3154,-121.003083,39.224028
73,2018-08-02 00:20:00,101693.2,N,,KGOO 020020Z AUTO 00000KT 10SM CLR 33/00 A3003 RMK AO1,,0.0,,,0.21,10.0,Clear,30.51,1.0,1.0,90619.98,12.18,0.0,100771.85,33.0,0.0,KGOO,3154,-121.003083,39.224028
74,2018-08-02 00:40:00,101693.2,SSW,,KGOO 020040Z AUTO 20004KT 10SM CLR 32/00 A3003 RMK AO1,,0.0,,,0.19,10.0,Clear,29.75,1.0,1.0,90619.98,12.89,2.06,100806.57,32.0,200.0,KGOO,3154,-121.003083,39.224028
75,2018-08-02 01:00:00,101693.2,SSW,,KGOO 020100Z AUTO 20004KT 10SM CLR 32/01 A3003 RMK AO1,,1.0,,,1.17,10.0,Clear,29.77,1.0,1.0,90619.98,13.85,2.06,100806.54,32.0,200.0,KGOO,3154,-121.003083,39.224028
76,2018-08-02 01:20:00,101693.2,S,,KGOO 020120Z AUTO 18003KT 10SM CLR 32/00 A3003 RMK AO1,,0.0,,,0.19,10.0,Clear,29.75,1.0,1.0,90619.98,12.89,1.54,100806.57,32.0,180.0,KGOO,3154,-121.003083,39.224028
77,2018-08-02 01:40:00,101659.34,N,,KGOO 020140Z AUTO 00000KT 10SM CLR 31/04 A3002 RMK AO1,,4.0,,,4.13,10.0,Clear,29.01,1.0,1.0,90589.81,18.15,0.0,100807.83,31.0,0.0,KGOO,3154,-121.003083,39.224028
78,2018-08-02 02:00:00,101659.34,N,,KGOO 020200Z AUTO 00000KT 10SM CLR 30/05 A3002 RMK AO1,,5.0,,,5.1,10.0,Clear,28.26,1.0,1.0,90589.81,20.61,0.0,100842.97,30.0,0.0,KGOO,3154,-121.003083,39.224028
79,2018-08-02 02:20:00,101693.2,N,,KGOO 020220Z AUTO 00000KT 10SM CLR 29/07 A3003 RMK AO1,,7.0,,,7.06,10.0,Clear,27.63,1.0,1.0,90619.98,25.06,0.0,100911.92,29.0,0.0,KGOO,3154,-121.003083,39.224028
80,2018-08-02 02:40:00,101693.2,N,,KGOO 020240Z AUTO 00000KT 10SM CLR 29/07 A3003 RMK AO1,,7.0,,,7.06,10.0,Clear,27.63,1.0,1.0,90619.98,25.06,0.0,100911.92,29.0,0.0,KGOO,3154,-121.003083,39.224028
81,2018-08-02 03:00:00,101693.2,N,,KGOO 020300Z AUTO 00000KT 10SM CLR 28/08 A3003 RMK AO1,,8.0,,,8.04,10.0,Clear,27.03,1.0,1.0,90619.98,28.43,0.0,100947.56,28.0,0.0,KGOO,3154,-121.003083,39.224028
82,2018-08-02 03:20:00,101693.2,N,,KGOO 020320Z AUTO 00000KT 10SM CLR 27/08 A3003 RMK AO1,,8.0,,,8.02,10.0,Clear,26.54,1.0,1.0,90619.98,30.14,0.0,100983.49,27.0,0.0,KGOO,3154,-121.003083,39.224028
83,2018-08-02 03:40:00,101693.2,N,,KGOO 020340Z AUTO 00000KT 10SM CLR 27/08 A3003 RMK AO1,,8.0,,,8.02,10.0,Clear,26.54,1.0,1.0,90619.98,30.14,0.0,100983.49,27.0,0.0,KGOO,3154,-121.003083,39.224028
84,2018-08-02 04:00:00,101693.2,N,,KGOO 020400Z AUTO 00000KT 10SM CLR 27/08 A3003 RMK AO1,,8.0,,,8.02,10.0,Clear,26.54,1.0,1.0,90619.98,30.14,0.0,100983.49,27.0,0.0,KGOO,3154,-121.003083,39.224028
85,2018-08-02 04:20:00,101727.07,N,,KGOO 020420Z AUTO 00000KT 10SM CLR 25/08 A3004 RMK AO1,,8.0,,,8.0,10.0,Clear,,1.0,1.0,90650.16,33.92,0.0,101089.76,25.0,0.0,KGOO,3154,-121.003083,39.224028
86,2018-08-02 04:40:00,101727.07,ESE,,KGOO 020440Z AUTO 11004KT 10SM CLR 25/08 A3004 RMK AO1,,8.0,,,8.0,10.0,Clear,,1.0,1.0,90650.16,33.92,2.06,101089.76,25.0,110.0,KGOO,3154,-121.003083,39.224028
87,2018-08-02 05:00:00,101727.07,ESE,,KGOO 020500Z AUTO 11005KT 10SM CLR 25/07 A3004 RMK AO1,,7.0,,,7.0,10.0,Clear,,1.0,1.0,90650.16,31.68,2.57,101089.8,25.0,110.0,KGOO,3154,-121.003083,39.224028
88,2018-08-02 05:20:00,101727.07,ESE,,KGOO 020520Z AUTO 11004KT 10SM CLR 26/07 A3004 RMK AO1,,7.0,,,7.01,10.0,Clear,,1.0,1.0,90650.16,29.86,2.06,101053.35,26.0,110.0,KGOO,3154,-121.003083,39.224028
89,2018-08-02 05:40:00,101727.07,ESE,,KGOO 020540Z AUTO 11005KT 10SM CLR 25/06 A3004 RMK AO1,,6.0,,,6.0,10.0,Clear,,1.0,1.0,90650.16,29.57,2.57,101089.84,25.0,110.0,KGOO,3154,-121.003083,39.224028
90,2018-08-02 06:00:00,101727.07,ESE,,KGOO 020600Z AUTO 11005KT 10SM CLR 26/05 A3004 RMK AO1,,5.0,,,5.02,10.0,Clear,,1.0,1.0,90650.16,26.0,2.57,101053.43,26.0,110.0,KGOO,3154,-121.003083,39.224028
91,2018-08-02 06:20:00,101727.07,ESE,,KGOO 020620Z AUTO 11005KT 10SM CLR 26/04 A3004 RMK AO1,,4.0,,,4.02,10.0,Clear,,1.0,1.0,90650.16,24.25,2.57,101053.47,26.0,110.0,KGOO,3154,-121.003083,39.224028
92,2018-08-02 06:40:00,101727.07,ESE,,KGOO 020640Z AUTO 11006KT 10SM CLR 27/04 A3004 RMK AO1,,4.0,,,4.04,10.0,Clear,26.35,1.0,1.0,90650.16,22.86,3.09,101017.27,27.0,110.0,KGOO,3154,-121.003083,39.224028
93,2018-08-02 07:00:00,101727.07,ESE,,KGOO 020700Z AUTO 11006KT 10SM CLR 26/04 A3004 RMK AO1,,4.0,,,4.02,10.0,Clear,,1.0,1.0,90650.16,24.25,3.09,101053.47,26.0,110.0,KGOO,3154,-121.003083,39.224028
94,2018-08-02 07:20:00,101727.07,ESE,,KGOO 020720Z AUTO 11005KT 10SM CLR 26/03 A3004 RMK AO1,,3.0,,,3.02,10.0,Clear,,1.0,1.0,90650.16,22.59,2.57,101053.5,26.0,110.0,KGOO,3154,-121.003083,39.224028
95,2018-08-02 07:40:00,101727.07,ESE,,KGOO 020740Z AUTO 11006KT 10SM CLR 26/02 A3004 RMK AO1,,2.0,,,2.03,10.0,Clear,,1.0,1.0,90650.16,21.04,3.09,101053.53,26.0,110.0,KGOO,3154,-121.003083,39.224028
96,2018-08-02 08:00:00,101727.07,E,,KGOO 020800Z AUTO 10006KT 10SM CLR 26/02 A3004 RMK AO1,,2.0,,,2.03,10.0,Clear,,1.0,1.0,90650.16,21.04,3.09,101053.53,26.0,100.0,KGOO,3154,-121.003083,39.224028
97,2018-08-02 08:20:00,101727.07,ESE,,KGOO 020820Z AUTO 11006KT 10SM CLR 26/02 A3004 RMK AO1,,2.0,,,2.03,10.0,Clear,,1.0,1.0,90650.16,21.04,3.09,101053.53,26.0,110.0,KGOO,3154,-121.003083,39.224028
98,2018-08-02 08:40:00,101727.07,ESE,,KGOO 020840Z AUTO 11005KT 10SM CLR 26/02 A3004 RMK AO1,,2.0,,,2.03,10.0,Clear,,1.0,1.0,90650.16,21.04,2.57,101053.53,26.0,110.0,KGOO,3154,-121.003083,39.224028
99,2018-08-02 09:00:00,101727.07,ESE,,KGOO 020900Z AUTO 11006KT 10SM CLR 26/01 A3004 RMK AO1,,1.0,,,1.04,10.0,Clear,,1.0,1.0,90650.16,19.59,3.09,101053.56,26.0,110.0,KGOO,3154,-121.003083,39.224028
100,2018-08-02 09:20:00,101727.07,ESE,,KGOO 020920Z AUTO 11005KT 10SM CLR 25/02 A3004 RMK AO1,,2.0,,,2.02,10.0,Clear,,1.0,1.0,90650.16,22.33,2.57,101089.98,25.0,110.0,KGOO,3154,-121.003083,39.224028
101,2018-08-02 09:40:00,101693.2,E,,KGOO 020940Z AUTO 10007KT 10SM CLR 25/01 A3003 RMK AO1,,1.0,,,1.02,10.0,Clear,,1.0,1.0,90619.98,20.78,3.6,101056.35,25.0,100.0,KGOO,3154,-121.003083,39.224028
102,2018-08-02 10:00:00,101693.2,E,,KGOO 021000Z AUTO 10005KT 10SM CLR 25/00 A3003 RMK AO1,,0.0,,,0.02,10.0,Clear,,1.0,1.0,90619.98,19.33,2.57,101056.38,25.0,100.0,KGOO,3154,-121.003083,39.224028
103,2018-08-02 10:20:00,101693.2,E,,KGOO 021020Z AUTO 10006KT 10SM CLR 25/00 A3003 RMK AO1,,0.0,,,0.02,10.0,Clear,,1.0,1.0,90619.98,19.33,3.09,101056.38,25.0,100.0,KGOO,3154,-121.003083,39.224028
104,2018-08-02 10:40:00,101659.34,E,,KGOO 021040Z AUTO 10006KT 10SM CLR 25/00 A3002 RMK AO1,,0.0,,,0.02,10.0,Clear,,1.0,1.0,90589.81,19.33,3.09,101022.74,25.0,100.0,KGOO,3154,-121.003083,39.224028
105,2018-08-02 11:00:00,101659.34,E,,KGOO 021100Z AUTO 10005KT 10SM CLR 24/00 A3002 RMK AO1,,0.0,,,0.0,10.0,Clear,,1.0,1.0,90589.81,20.52,2.57,101059.41,24.0,100.0,KGOO,3154,-121.003083,39.224028
106,2018-08-02 11:20:00,101659.34,E,,KGOO 021120Z AUTO 10005KT 10SM CLR 24/M01 A3002 RMK AO1,,-1.0,,,-0.99,10.0,Clear,,1.0,1.0,90589.81,19.08,2.57,101059.44,24.0,100.0,KGOO,3154,-121.003083,39.224028
107,2018-08-02 11:40:00,101659.34,ESE,,KGOO 021140Z AUTO 11005KT 10SM CLR 24/M02 A3002 RMK AO1,,-2.0,,,-1.99,10.0,Clear,,1.0,1.0,90589.81,17.72,2.57,101059.47,24.0,110.0,KGOO,3154,-121.003083,39.224028
108,2018-08-02 12:00:00,101659.34,ESE,,KGOO 021200Z AUTO 11004KT 10SM CLR 24/M03 A3002 RMK AO1,,-3.0,,,-2.97,10.0,Clear,,1.0,1.0,90589.81,16.46,2.06,101059.49,24.0,110.0,KGOO,3154,-121.003083,39.224028
109,2018-08-02 12:20:00,101659.34,E,,KGOO 021220Z AUTO 10003KT 10SM CLR 23/M02 A3002 RMK AO1,,-2.0,,,-2.0,10.0,Clear,,1.0,1.0,90589.81,18.82,1.54,101096.4,23.0,100.0,KGOO,3154,-121.003083,39.224028
110,2018-08-02 12:40:00,101659.34,ESE,,KGOO 021240Z AUTO 11003KT 10SM CLR 23/M02 A3002 RMK AO1,,-2.0,,,-2.0,10.0,Clear,,1.0,1.0,90589.81,18.82,1.54,101096.4,23.0,110.0,KGOO,3154,-121.003083,39.224028
111,2018-08-02 13:00:00,101659.34,N,,KGOO 021300Z AUTO 00000KT 10SM CLR 24/M02 A3002 RMK AO1,,-2.0,,,-1.99,10.0,Clear,,1.0,1.0,90589.81,17.72,0.0,101059.47,24.0,0.0,KGOO,3154,-121.003083,39.224028
112,2018-08-02 13:20:00,101693.2,N,,KGOO 021320Z AUTO 00000KT 10SM CLR 24/M02 A3003 RMK AO1,,-2.0,,,-1.99,10.0,Clear,,1.0,1.0,90619.98,17.72,0.0,101093.12,24.0,0.0,KGOO,3154,-121.003083,39.224028
113,2018-08-02 13:40:00,101693.2,ESE,,KGOO 021340Z AUTO 12004KT 10SM CLR 25/M03 A3003 RMK AO1,,-3.0,,,-2.96,10.0,Clear,,1.0,1.0,90619.98,15.5,2.06,101056.45,25.0,120.0,KGOO,3154,-121.003083,39.224028
114,2018-08-02 14:00:00,101693.2,SE,,KGOO 021400Z AUTO 13004KT 10SM CLR 25/M02 A3003 RMK AO1,,-2.0,,,-1.96,10.0,Clear,,1.0,1.0,90619.98,16.7,2.06,101056.43,25.0,130.0,KGOO,3154,-121.003083,39.224028
115,2018-08-02 14:20:00,101693.2,ESE,,KGOO 021420Z AUTO 12005KT 10SM CLR 25/M02 A3003 RMK AO1,,-2.0,,,-1.96,10.0,Clear,,1.0,1.0,90619.98,16.7,2.57,101056.43,25.0,120.0,KGOO,3154,-121.003083,39.224028
116,2018-08-02 14:40:00,101693.2,ESE,,KGOO 021440Z AUTO 12006KT 10SM CLR 25/M02 A3003 RMK AO1,,-2.0,,,-1.96,10.0,Clear,,1.0,1.0,90619.98,16.7,3.09,101056.43,25.0,120.0,KGOO,3154,-121.003083,39.224028
117,2018-08-02 15:00:00,101693.2,ESE,,KGOO 021500Z AUTO 11006KT 10SM CLR 25/M03 A3003 RMK AO1,,-3.0,,,-2.96,10.0,Clear,,1.0,1.0,90619.98,15.5,3.09,101056.45,25.0,110.0,KGOO,3154,-121.003083,39.224028
118,2018-08-02 15:20:00,101693.2,ESE,,KGOO 021520Z AUTO 12007KT 10SM CLR 25/M02 A3003 RMK AO1,,-2.0,,,-1.96,10.0,Clear,,1.0,1.0,90619.98,16.7,3.6,101056.43,25.0,120.0,KGOO,3154,-121.003083,39.224028
119,2018-08-02 15:40:00,101693.2,ESE,,KGOO 021540Z AUTO 12007KT 10SM CLR 25/M02 A3003 RMK AO1,,-2.0,,,-1.96,10.0,Clear,,1.0,1.0,90619.98,16.7,3.6,101056.43,25.0,120.0,KGOO,3154,-121.003083,39.224028
120,2018-08-02 16:00:00,101727.07,SE,,KGOO 021600Z AUTO 13004KT 10SM CLR 26/00 A3004 RMK AO1,,0.0,,,0.04,10.0,Clear,,1.0,1.0,90650.16,18.22,2.06,101053.59,26.0,130.0,KGOO,3154,-121.003083,39.224028
121,2018-08-02 16:20:00,101727.07,SE,,KGOO 021620Z AUTO 14004KT 10SM CLR 27/00 A3004 RMK AO1,,0.0,,,0.06,10.0,Clear,26.2,1.0,1.0,90650.16,17.18,2.06,101017.4,27.0,140.0,KGOO,3154,-121.003083,39.224028
122,2018-08-02 16:40:00,101727.07,SE,,KGOO 021640Z AUTO 14003KT 10SM CLR 27/02 A3004 RMK AO1,,2.0,,,2.05,10.0,Clear,26.27,1.0,1.0,90650.16,19.84,1.54,101017.34,27.0,140.0,KGOO,3154,-121.003083,39.224028
123,2018-08-02 17:00:00,101727.07,N,,KGOO 021700Z AUTO 00000KT 10SM CLR 28/03 A3004 RMK AO1,,3.0,,,3.07,10.0,Clear,26.75,1.0,1.0,90650.16,20.1,0.0,100981.37,28.0,0.0,KGOO,3154,-121.003083,39.224028
124,2018-08-02 17:20:00,101760.93,S,,KGOO 021720Z AUTO 18003KT 10SM CLR 28/00 A3005 RMK AO1,,0.0,,,0.08,10.0,Clear,26.67,1.0,1.0,90680.34,16.2,1.54,101015.07,28.0,180.0,KGOO,3154,-121.003083,39.224028
125,2018-08-02 17:40:00,101760.93,S,,KGOO 021740Z AUTO 17003KT 10SM CLR 28/01 A3005 RMK AO1,,1.0,,,1.08,10.0,Clear,26.69,1.0,1.0,90680.34,17.42,1.54,101015.05,28.0,170.0,KGOO,3154,-121.003083,39.224028
126,2018-08-02 18:00:00,101760.93,SSE,,KGOO 021800Z AUTO 15006KT 10SM CLR 28/02 A3005 RMK AO1,,2.0,,,2.07,10.0,Clear,26.71,1.0,1.0,90680.34,18.72,3.09,101015.02,28.0,150.0,KGOO,3154,-121.003083,39.224028
127,2018-08-02 18:20:00,101794.79,S,,KGOO 021820Z AUTO 17003KT 10SM CLR 29/03 A3006 RMK AO1,,3.0,,,3.09,10.0,Clear,27.44,1.0,1.0,90710.51,18.97,1.54,101012.88,29.0,170.0,KGOO,3154,-121.003083,39.224028
128,2018-08-02 18:40:00,101794.79,SE,,KGOO 021840Z AUTO 14003KT 10SM CLR 29/03 A3006 RMK AO1,,3.0,,,3.09,10.0,Clear,27.44,1.0,1.0,90710.51,18.97,1.54,101012.88,29.0,140.0,KGOO,3154,-121.003083,39.224028
129,2018-08-02 19:00:00,101794.79,S,,KGOO 021900Z AUTO 18005KT 10SM CLR 29/03 A3006 RMK AO1,,3.0,,,3.09,10.0,Clear,27.44,1.0,1.0,90710.51,18.97,2.57,101012.88,29.0,180.0,KGOO,3154,-121.003083,39.224028
130,2018-08-02 19:20:00,101794.79,SSE,,KGOO 021920Z AUTO 15006KT 10SM CLR 30/04 A3006 RMK AO1,,4.0,,,4.1,10.0,Clear,28.22,1.0,1.0,90710.51,19.21,3.09,100977.37,30.0,150.0,KGOO,3154,-121.003083,39.224028
131,2018-08-02 19:40:00,101794.79,S,,KGOO 021940Z AUTO 18003KT 10SM CLR 30/06 A3006 RMK AO1,,6.0,,,6.09,10.0,Clear,28.31,1.0,1.0,90710.51,22.09,1.54,100977.3,30.0,180.0,KGOO,3154,-121.003083,39.224028
132,2018-08-02 20:00:00,101794.79,N,,KGOO 022000Z AUTO 00000KT 10SM CLR 30/06 A3006 RMK AO1,,6.0,,,6.09,10.0,Clear,28.31,1.0,1.0,90710.51,22.09,0.0,100977.3,30.0,0.0,KGOO,3154,-121.003083,39.224028
133,2018-08-02 20:20:00,101794.79,SSE,,KGOO 022020Z AUTO 15007KT 10SM CLR 31/05 A3006 RMK AO1,,5.0,,,5.11,10.0,Clear,29.06,1.0,1.0,90710.51,19.46,3.6,100942.11,31.0,150.0,KGOO,3154,-121.003083,39.224028
134,2018-08-02 20:40:00,101794.79,SSE,,KGOO 022040Z AUTO 15008KT 8SM CLR 32/04 A3006 RMK AO1,,4.0,,,4.15,8.0,Clear,29.85,1.0,1.0,90710.51,17.15,4.12,100907.15,32.0,150.0,KGOO,3154,-121.003083,39.224028
135,2018-08-02 21:00:00,101794.79,SSW,,KGOO 022100Z AUTO 20004KT 9SM CLR 32/05 A3006 RMK AO1,,5.0,,,5.14,9.0,Clear,29.9,1.0,1.0,90710.51,18.39,2.06,100907.12,32.0,200.0,KGOO,3154,-121.003083,39.224028
136,2018-08-02 21:20:00,101760.93,SSW,,KGOO 022120Z AUTO 20004KT 10SM CLR 32/03 A3005 RMK AO1,,3.0,,,3.16,10.0,Clear,29.82,1.0,1.0,90680.34,15.98,2.06,100873.63,32.0,200.0,KGOO,3154,-121.003083,39.224028
137,2018-08-02 21:40:00,101760.93,SSW,,KGOO 022140Z AUTO 20003KT 10SM CLR 33/02 A3005 RMK AO1,,2.0,,,2.19,10.0,Clear,30.65,1.0,1.0,90680.34,14.07,1.54,100838.92,33.0,200.0,KGOO,3154,-121.003083,39.224028
138,2018-08-02 22:00:00,101760.93,SSW,,KGOO 022200Z AUTO 21004KT 10SM CLR 32/03 A3005 RMK AO1,,3.0,,,3.16,10.0,Clear,29.82,1.0,1.0,90680.34,15.98,2.06,100873.63,32.0,210.0,KGOO,3154,-121.003083,39.224028
139,2018-08-02 22:20:00,101727.07,S,,KGOO 022220Z AUTO 19004KT 10SM CLR 32/00 A3004 RMK AO1,,0.0,,,0.19,10.0,Clear,29.75,1.0,1.0,90650.16,12.89,2.06,100840.14,32.0,190.0,KGOO,3154,-121.003083,39.224028
140,2018-08-02 22:40:00,101727.07,WSW,,KGOO 022240Z AUTO 24006KT 10SM CLR 32/02 A3004 RMK AO1,,2.0,,,2.16,10.0,Clear,29.79,1.0,1.0,90650.16,14.88,3.09,100840.08,32.0,240.0,KGOO,3154,-121.003083,39.224028
141,2018-08-02 23:00:00,101693.2,S,,KGOO 022300Z AUTO 19004KT 10SM CLR 32/03 A3003 RMK AO1,,3.0,,,3.16,10.0,Clear,29.82,1.0,1.0,90619.98,15.98,2.06,100806.48,32.0,190.0,KGOO,3154,-121.003083,39.224028
142,2018-08-02 23:20:00,101693.2,SSW,,KGOO 022320Z AUTO 21005KT 10SM CLR 32/02 A3003 RMK AO1,,2.0,,,2.16,10.0,Clear,29.79,1.0,1.0,90619.98,14.88,2.57,100806.51,32.0,210.0,KGOO,3154,-121.003083,39.224028
143,2018-08-02 23:40:00,101693.2,SW,,KGOO 022340Z AUTO 22005KT 3SM CLR 32/05 A3003 RMK AO1,,5.0,,,5.14,3.0,Clear,29.9,1.0,1.0,90619.98,18.39,2.57,100806.41,32.0,220.0,KGOO,3154,-121.003083,39.224028
144,2018-08-03 00:00:00,101659.34,SW,,KGOO 030000Z AUTO 23003KT 10SM CLR 32/04 A3002 RMK AO1,,4.0,,,4.15,10.0,Clear,29.85,1.0,1.0,90589.81,17.15,1.54,100772.89,32.0,230.0,KGOO,3154,-121.003083,39.224028
145,2018-08-03 00:20:00,101659.34,SW,,KGOO 030020Z AUTO 23004KT 10SM CLR 31/05 A3002 RMK AO1,,5.0,,,5.11,10.0,Clear,29.06,1.0,1.0,90589.81,19.46,2.06,100807.79,31.0,230.0,KGOO,3154,-121.003083,39.224028
146,2018-08-03 00:40:00,101659.34,N,,KGOO 030040Z AUTO 00000KT 10SM CLR 31/05 A3002 RMK AO1,,5.0,,,5.11,10.0,Clear,29.06,1.0,1.0,90589.81,19.46,0.0,100807.79,31.0,0.0,KGOO,3154,-121.003083,39.224028
147,2018-08-03 01:00:00,101625.47,SW,,KGOO 030100Z AUTO 22003KT 10SM CLR 30/06 A3001 RMK AO1,,6.0,,,6.09,10.0,Clear,28.31,1.0,1.0,90559.63,22.09,1.54,100809.34,30.0,220.0,KGOO,3154,-121.003083,39.224028
148,2018-08-03 01:20:00,101625.47,N,,KGOO 030120Z AUTO 00000KT 10SM CLR 30/06 A3001 RMK AO1,,6.0,,,6.09,10.0,Clear,28.31,1.0,1.0,90559.63,22.09,0.0,100809.34,30.0,0.0,KGOO,3154,-121.003083,39.224028
149,2018-08-03 01:40:00,101591.61,N,,KGOO 030140Z AUTO 00000KT 10SM CLR 30/07 A3000 RMK AO1,,7.0,,,7.08,10.0,Clear,28.38,1.0,1.0,90529.45,23.66,0.0,100775.7,30.0,0.0,KGOO,3154,-121.003083,39.224028
150,2018-08-03 02:00:00,101591.61,N,,KGOO 030200Z AUTO 00000KT 10SM CLR 29/07 A3000 RMK AO1,,7.0,,,7.06,10.0,Clear,27.63,1.0,1.0,90529.45,25.06,0.0,100811.11,29.0,0.0,KGOO,3154,-121.003083,39.224028
151,2018-08-03 02:20:00,101591.61,N,,KGOO 030220Z AUTO 00000KT 10SM CLR 29/07 A3000 RMK AO1,,7.0,,,7.06,10.0,Clear,27.63,1.0,1.0,90529.45,25.06,0.0,100811.11,29.0,0.0,KGOO,3154,-121.003083,39.224028
152,2018-08-03 02:40:00,101591.61,N,,KGOO 030240Z AUTO 00000KT 10SM CLR 28/07 A3000 RMK AO1,,7.0,,,7.05,10.0,Clear,26.95,1.0,1.0,90529.45,26.56,0.0,100846.75,28.0,0.0,KGOO,3154,-121.003083,39.224028
153,2018-08-03 03:00:00,101591.61,N,,KGOO 030300Z AUTO 00000KT 10SM CLR 27/08 A3000 RMK AO1,,8.0,,,8.02,10.0,Clear,26.54,1.0,1.0,90529.45,30.14,0.0,100882.6,27.0,0.0,KGOO,3154,-121.003083,39.224028
154,2018-08-03 03:20:00,101625.47,N,,KGOO 030320Z AUTO 00000KT 10SM CLR 27/08 A3001 RMK AO1,,8.0,,,8.02,10.0,Clear,26.54,1.0,1.0,90559.63,30.14,0.0,100916.23,27.0,0.0,KGOO,3154,-121.003083,39.224028
155,2018-08-03 03:40:00,101625.47,N,,KGOO 030340Z AUTO 00000KT 10SM CLR 25/09 A3001 RMK AO1,,9.0,,,9.0,10.0,Clear,,1.0,1.0,90559.63,36.3,0.0,100988.75,25.0,0.0,KGOO,3154,-121.003083,39.224028
156,2018-08-03 04:00:00,101659.34,N,,KGOO 030400Z AUTO 00000KT 9SM CLR 25/09 A3002 RMK AO1,,9.0,,,9.0,9.0,Clear,,1.0,1.0,90589.81,36.3,0.0,101022.41,25.0,0.0,KGOO,3154,-121.003083,39.224028
157,2018-08-03 04:20:00,101659.34,N,,KGOO 030420Z AUTO 00000KT 8SM CLR 25/09 A3002 RMK AO1,,9.0,,,9.0,8.0,Clear,,1.0,1.0,90589.81,36.3,0.0,101022.41,25.0,0.0,KGOO,3154,-121.003083,39.224028
158,2018-08-03 04:40:00,101659.34,SE,,KGOO 030440Z AUTO 13004KT 10SM CLR 24/09 A3002 RMK AO1,,9.0,,,8.99,10.0,Clear,,1.0,1.0,90589.81,38.53,2.06,101059.09,24.0,130.0,KGOO,3154,-121.003083,39.224028
159,2018-08-03 05:00:00,101659.34,SE,,KGOO 030500Z AUTO 13006KT 10SM CLR 24/09 A3002 RMK AO1,,9.0,,,8.99,10.0,Clear,,1.0,1.0,90589.81,38.53,3.09,101059.09,24.0,130.0,KGOO,3154,-121.003083,39.224028
160,2018-08-03 05:20:00,101693.2,ESE,,KGOO 030520Z AUTO 11006KT 10SM CLR 24/09 A3003 RMK AO1,,9.0,,,8.99,10.0,Clear,,1.0,1.0,90619.98,38.53,3.09,101092.74,24.0,110.0,KGOO,3154,-121.003083,39.224028
161,2018-08-03 05:40:00,101693.2,ESE,,KGOO 030540Z AUTO 12006KT 10SM CLR 24/09 A3003 RMK AO1,,9.0,,,8.99,10.0,Clear,,1.0,1.0,90619.98,38.53,3.09,101092.74,24.0,120.0,KGOO,3154,-121.003083,39.224028
162,2018-08-03 06:00:00,101659.34,SE,,KGOO 030600Z AUTO 13005KT 10SM CLR 24/09 A3002 RMK AO1,,9.0,,,8.99,10.0,Clear,,1.0,1.0,90589.81,38.53,2.57,101059.09,24.0,130.0,KGOO,3154,-121.003083,39.224028
163,2018-08-03 06:20:00,101659.34,ESE,,KGOO 030620Z AUTO 12005KT 10SM CLR 24/08 A3002 RMK AO1,,8.0,,,7.99,10.0,Clear,,1.0,1.0,90589.81,36.01,2.57,101059.13,24.0,120.0,KGOO,3154,-121.003083,39.224028
164,2018-08-03 06:40:00,101659.34,ESE,,KGOO 030640Z AUTO 12005KT 10SM CLR 24/08 A3002 RMK AO1,,8.0,,,7.99,10.0,Clear,,1.0,1.0,90589.81,36.01,2.57,101059.13,24.0,120.0,KGOO,3154,-121.003083,39.224028
165,2018-08-03 07:00:00,101659.34,ESE,,KGOO 030700Z AUTO 12006KT 10SM CLR 24/08 A3002 RMK AO1,,8.0,,,7.99,10.0,Clear,,1.0,1.0,90589.81,36.01,3.09,101059.13,24.0,120.0,KGOO,3154,-121.003083,39.224028
166,2018-08-03 07:20:00,101659.34,ESE,,KGOO 030720Z AUTO 11005KT 10SM CLR 24/07 A3002 RMK AO1,,7.0,,,6.99,10.0,Clear,,1.0,1.0,90589.81,33.63,2.57,101059.18,24.0,110.0,KGOO,3154,-121.003083,39.224028
167,2018-08-03 07:40:00,101659.34,ESE,,KGOO 030740Z AUTO 11005KT 10SM CLR 24/07 A3002 RMK AO1,,7.0,,,6.99,10.0,Clear,,1.0,1.0,90589.81,33.63,2.57,101059.18,24.0,110.0,KGOO,3154,-121.003083,39.224028
168,2018-08-03 08:00:00,101659.34,ESE,,KGOO 030800Z AUTO 11005KT 10SM CLR 24/05 A3002 RMK AO1,,5.0,,,4.99,10.0,Clear,,1.0,1.0,90589.81,29.29,2.57,101059.25,24.0,110.0,KGOO,3154,-121.003083,39.224028
169,2018-08-03 08:20:00,101659.34,ESE,,KGOO 030820Z AUTO 11006KT 10SM CLR 24/05 A3002 RMK AO1,,5.0,,,4.99,10.0,Clear,,1.0,1.0,90589.81,29.29,3.09,101059.25,24.0,110.0,KGOO,3154,-121.003083,39.224028
170,2018-08-03 08:40:00,101659.34,ESE,,KGOO 030840Z AUTO 11004KT 10SM CLR 25/04 A3002 RMK AO1,,4.0,,,4.01,10.0,Clear,,1.0,1.0,90589.81,25.73,2.06,101022.61,25.0,110.0,KGOO,3154,-121.003083,39.224028
171,2018-08-03 09:00:00,101659.34,ESE,,KGOO 030900Z AUTO 11006KT 10SM CLR 25/04 A3002 RMK AO1,,4.0,,,4.01,10.0,Clear,,1.0,1.0,90589.81,25.73,3.09,101022.61,25.0,110.0,KGOO,3154,-121.003083,39.224028
172,2018-08-03 09:20:00,101659.34,E,,KGOO 030920Z AUTO 10006KT 10SM CLR 25/03 A3002 RMK AO1,,3.0,,,3.01,10.0,Clear,,1.0,1.0,90589.81,23.97,3.09,101022.65,25.0,100.0,KGOO,3154,-121.003083,39.224028
173,2018-08-03 09:40:00,101625.47,E,,KGOO 030940Z AUTO 10006KT 10SM CLR 24/03 A3001 RMK AO1,,3.0,,,2.99,10.0,Clear,,1.0,1.0,90559.63,25.45,3.09,101025.66,24.0,100.0,KGOO,3154,-121.003083,39.224028
174,2018-08-03 10:00:00,101625.47,E,,KGOO 031000Z AUTO 10006KT 10SM CLR 24/03 A3001 RMK AO1,,3.0,,,2.99,10.0,Clear,,1.0,1.0,90559.63,25.45,3.09,101025.66,24.0,100.0,KGOO,3154,-121.003083,39.224028
175,2018-08-03 10:20:00,101625.47,E,,KGOO 031020Z AUTO 10006KT 10SM CLR 24/02 A3001 RMK AO1,,2.0,,,2.0,10.0,Clear,,1.0,1.0,90559.63,23.7,3.09,101025.69,24.0,100.0,KGOO,3154,-121.003083,39.224028
176,2018-08-03 10:40:00,101591.61,ESE,,KGOO 031040Z AUTO 11006KT 10SM CLR 24/02 A3000 RMK AO1,,2.0,,,2.0,10.0,Clear,,1.0,1.0,90529.45,23.7,3.09,100992.02,24.0,110.0,KGOO,3154,-121.003083,39.224028
177,2018-08-03 11:00:00,101591.61,E,,KGOO 031100Z AUTO 10006KT 10SM CLR 24/01 A3000 RMK AO1,,1.0,,,1.0,10.0,Clear,,1.0,1.0,90529.45,22.06,3.09,100992.05,24.0,100.0,KGOO,3154,-121.003083,39.224028
178,2018-08-03 11:20:00,101591.61,ESE,,KGOO 031120Z AUTO 12004KT 10SM CLR 24/00 A3000 RMK AO1,,0.0,,,0.0,10.0,Clear,,1.0,1.0,90529.45,20.52,2.06,100992.08,24.0,120.0,KGOO,3154,-121.003083,39.224028
179,2018-08-03 11:40:00,101591.61,SE,,KGOO 031140Z AUTO 13004KT 10SM CLR 23/01 A3000 RMK AO1,,1.0,,,0.99,10.0,Clear,,1.0,1.0,90529.45,23.43,2.06,101028.96,23.0,130.0,KGOO,3154,-121.003083,39.224028
180,2018-08-03 12:00:00,101591.61,ESE,,KGOO 031200Z AUTO 12005KT 10SM CLR 24/00 A3000 RMK AO1,,0.0,,,0.0,10.0,Clear,,1.0,1.0,90529.45,20.52,2.57,100992.08,24.0,120.0,KGOO,3154,-121.003083,39.224028
181,2018-08-03 12:20:00,101625.47,N,,KGOO 031220Z AUTO 00000KT 10SM CLR 23/00 A3001 RMK AO1,,0.0,,,-0.01,10.0,Clear,,1.0,1.0,90559.63,21.79,0.0,101062.67,23.0,0.0,KGOO,3154,-121.003083,39.224028
182,2018-08-03 12:40:00,101625.47,SE,,KGOO 031240Z AUTO 13003KT 10SM CLR 22/00 A3001 RMK AO1,,0.0,,,-0.02,10.0,Clear,,1.0,1.0,90559.63,23.16,1.54,101099.86,22.0,130.0,KGOO,3154,-121.003083,39.224028
183,2018-08-03 13:00:00,101659.34,N,,KGOO 031300Z AUTO 00000KT 10SM CLR 21/00 A3002 RMK AO1,,0.0,,,-0.04,10.0,Clear,,1.0,1.0,90589.81,24.61,0.0,101171.01,21.0,0.0,KGOO,3154,-121.003083,39.224028
184,2018-08-03 13:20:00,101659.34,N,,KGOO 031320Z AUTO 00000KT 10SM CLR 21/00 A3002 RMK AO1,,0.0,,,-0.04,10.0,Clear,,1.0,1.0,90589.81,24.61,0.0,101171.01,21.0,0.0,KGOO,3154,-121.003083,39.224028
185,2018-08-03 13:40:00,101693.2,N,,KGOO 031340Z AUTO 00000KT 10SM CLR 20/01 A3003 RMK AO1,,1.0,,,0.95,10.0,Clear,,1.0,1.0,90619.98,28.14,0.0,101242.42,20.0,0.0,KGOO,3154,-121.003083,39.224028
186,2018-08-03 14:00:00,101727.07,N,,KGOO 031400Z AUTO 00000KT 10SM CLR 20/01 A3004 RMK AO1,,1.0,,,0.95,10.0,Clear,,1.0,1.0,90650.16,28.14,0.0,101276.14,20.0,0.0,KGOO,3154,-121.003083,39.224028
187,2018-08-03 14:20:00,101727.07,N,,KGOO 031420Z AUTO 00000KT 10SM CLR 21/03 A3004 RMK AO1,,3.0,,,2.96,10.0,Clear,,1.0,1.0,90650.16,30.53,0.0,101238.32,21.0,0.0,KGOO,3154,-121.003083,39.224028
188,2018-08-03 14:40:00,101727.07,N,,KGOO 031440Z AUTO 00000KT 10SM CLR 22/04 A3004 RMK AO1,,4.0,,,3.97,10.0,Clear,,1.0,1.0,90650.16,30.82,0.0,101200.8,22.0,0.0,KGOO,3154,-121.003083,39.224028
189,2018-08-03 15:00:00,101760.93,N,,KGOO 031500Z AUTO 00000KT 10SM CLR 23/03 A3005 RMK AO1,,3.0,,,2.98,10.0,Clear,,1.0,1.0,90680.34,27.03,0.0,101197.29,23.0,0.0,KGOO,3154,-121.003083,39.224028
190,2018-08-03 15:20:00,101760.93,N,,KGOO 031520Z AUTO 00000KT 10SM CLR 24/03 A3005 RMK AO1,,3.0,,,2.99,10.0,Clear,,1.0,1.0,90680.34,25.45,0.0,101160.32,24.0,0.0,KGOO,3154,-121.003083,39.224028
191,2018-08-03 15:40:00,101794.79,SE,,KGOO 031540Z AUTO 14003KT 10SM CLR 24/03 A3006 RMK AO1,,3.0,,,2.99,10.0,Clear,,1.0,1.0,90710.51,25.45,1.54,101193.97,24.0,140.0,KGOO,3154,-121.003083,39.224028
192,2018-08-03 16:00:00,101828.66,N,,KGOO 031600Z AUTO 00000KT 10SM CLR 24/04 A3007 RMK AO1,,4.0,,,3.99,10.0,Clear,,1.0,1.0,90740.69,27.31,0.0,101227.61,24.0,0.0,KGOO,3154,-121.003083,39.224028
193,2018-08-03 16:20:00,101828.66,SSE,,KGOO 031620Z AUTO 15003KT 10SM CLR 24/05 A3007 RMK AO1,,5.0,,,4.99,10.0,Clear,,1.0,1.0,90740.69,29.29,1.54,101227.57,24.0,150.0,KGOO,3154,-121.003083,39.224028
194,2018-08-03 16:40:00,101828.66,SSE,,KGOO 031640Z AUTO 15004KT 10SM CLR 25/05 A3007 RMK AO1,,5.0,,,5.0,10.0,Clear,,1.0,1.0,90740.69,27.59,2.06,101190.83,25.0,150.0,KGOO,3154,-121.003083,39.224028
195,2018-08-03 17:00:00,101828.66,N,,KGOO 031700Z AUTO 00000KT 10SM CLR 26/03 A3007 RMK AO1,,3.0,,,3.02,10.0,Clear,,1.0,1.0,90740.69,22.59,0.0,101154.42,26.0,0.0,KGOO,3154,-121.003083,39.224028
196,2018-08-03 17:20:00,101828.66,SE,,KGOO 031720Z AUTO 14005KT 10SM CLR 27/02 A3007 RMK AO1,,2.0,,,2.05,10.0,Clear,26.27,1.0,1.0,90740.69,19.84,2.57,101118.22,27.0,140.0,KGOO,3154,-121.003083,39.224028
197,2018-08-03 17:40:00,101828.66,SE,,KGOO 031740Z AUTO 14004KT 10SM CLR 27/00 A3007 RMK AO1,,0.0,,,0.06,10.0,Clear,26.2,1.0,1.0,90740.69,17.18,2.06,101118.28,27.0,140.0,KGOO,3154,-121.003083,39.224028
198,2018-08-03 18:00:00,101828.66,SSW,,KGOO 031800Z AUTO 20004KT 10SM CLR 28/00 A3007 RMK AO1,,0.0,,,0.08,10.0,Clear,26.67,1.0,1.0,90740.69,16.2,2.06,101082.3,28.0,200.0,KGOO,3154,-121.003083,39.224028
199,2018-08-03 18:20:00,101862.52,SW,,KGOO 031820Z AUTO 22003KT 10SM CLR 28/01 A3008 RMK AO1,,1.0,,,1.08,10.0,Clear,26.69,1.0,1.0,90770.86,17.42,1.54,101115.88,28.0,220.0,KGOO,3154,-121.003083,39.224028
200,2018-08-03 18:40:00,101862.52,SW,,KGOO 031840Z AUTO 23005KT 10SM CLR 28/01 A3008 RMK AO1,,1.0,,,1.08,10.0,Clear,26.69,1.0,1.0,90770.86,17.42,2.57,101115.88,28.0,230.0,KGOO,3154,-121.003083,39.224028
201,2018-08-03 19:00:00,101862.52,W,,KGOO 031900Z AUTO 26005KT 10SM CLR 28/02 A3008 RMK AO1,,2.0,,,2.07,10.0,Clear,26.71,1.0,1.0,90770.86,18.72,2.57,101115.85,28.0,260.0,KGOO,3154,-121.003083,39.224028
202,2018-08-03 19:20:00,101862.52,N,,KGOO 031920Z AUTO 00000KT 10SM CLR 28/04 A3008 RMK AO1,,4.0,,,4.06,10.0,Clear,26.78,1.0,1.0,90770.86,21.57,0.0,101115.79,28.0,0.0,KGOO,3154,-121.003083,39.224028
203,2018-08-03 19:40:00,101862.52,SW,,KGOO 031940Z AUTO 23004KT 10SM CLR 28/04 A3008 RMK AO1,,4.0,,,4.06,10.0,Clear,26.78,1.0,1.0,90770.86,21.57,2.06,101115.79,28.0,230.0,KGOO,3154,-121.003083,39.224028
204,2018-08-03 20:00:00,101862.52,N,,KGOO 032000Z AUTO 00000KT 10SM CLR 28/04 A3008 RMK AO1,,4.0,,,4.06,10.0,Clear,26.78,1.0,1.0,90770.86,21.57,0.0,101115.79,28.0,0.0,KGOO,3154,-121.003083,39.224028
205,2018-08-03 20:20:00,101862.52,WSW,,KGOO 032020Z AUTO 24003KT 10SM CLR 28/05 A3008 RMK AO1,,5.0,,,5.06,10.0,Clear,26.83,1.0,1.0,90770.86,23.13,1.54,101115.75,28.0,240.0,KGOO,3154,-121.003083,39.224028
206,2018-08-03 20:40:00,101862.52,S,,KGOO 032040Z AUTO 18004KT 10SM CLR 28/03 A3008 RMK AO1,,3.0,,,3.07,10.0,Clear,26.75,1.0,1.0,90770.86,20.1,2.06,101115.82,28.0,180.0,KGOO,3154,-121.003083,39.224028
207,2018-08-03 21:00:00,101862.52,SSE,,KGOO 032100Z AUTO 16004KT 10SM CLR 29/M02 A3008 RMK AO1,,-2.0,,,-1.87,10.0,Clear,27.36,1.0,1.0,90770.86,13.21,2.06,101080.22,29.0,160.0,KGOO,3154,-121.003083,39.224028
208,2018-08-03 21:20:00,101862.52,SSW,,KGOO 032120Z AUTO 21004KT 10SM CLR 29/M05 A3008 RMK AO1,,-5.0,,,-4.84,10.0,Clear,27.16,1.0,1.0,90770.86,10.55,2.06,101080.28,29.0,210.0,KGOO,3154,-121.003083,39.224028
209,2018-08-03 21:40:00,101862.52,S,,KGOO 032140Z AUTO 19003KT 10SM CLR 30/M04 A3008 RMK AO1,,-4.0,,,-3.83,10.0,Clear,27.92,1.0,1.0,90770.86,10.74,1.54,101044.77,30.0,190.0,KGOO,3154,-121.003083,39.224028
210,2018-08-03 22:00:00,101862.52,N,,KGOO 032200Z AUTO 00000KT 10SM CLR 30/M03 A3008 RMK AO1,,-3.0,,,-2.84,10.0,Clear,28.0,1.0,1.0,90770.86,11.58,0.0,101044.75,30.0,0.0,KGOO,3154,-121.003083,39.224028
211,2018-08-03 22:20:00,101828.66,SSW,,KGOO 032220Z AUTO 21003KT 10SM CLR 30/M02 A3007 RMK AO1,,-2.0,,,-1.85,10.0,Clear,28.08,1.0,1.0,90740.69,12.47,1.54,101011.14,30.0,210.0,KGOO,3154,-121.003083,39.224028
212,2018-08-03 22:40:00,101828.66,N,,KGOO 032240Z AUTO 00000KT 10SM CLR 30/M01 A3007 RMK AO1,,-1.0,,,-0.86,10.0,Clear,28.13,1.0,1.0,90740.69,13.42,0.0,101011.11,30.0,0.0,KGOO,3154,-121.003083,39.224028
213,2018-08-03 23:00:00,101794.79,SSW,,KGOO 032300Z AUTO 21003KT 10SM CLR 31/M03 A3006 RMK AO1,,-3.0,,,-2.81,10.0,Clear,28.72,1.0,1.0,90710.51,10.94,1.54,100942.34,31.0,210.0,KGOO,3154,-121.003083,39.224028
214,2018-08-03 23:20:00,101760.93,SE,,KGOO 032320Z AUTO 14003KT 10SM CLR 31/M02 A3005 RMK AO1,,-2.0,,,-1.82,10.0,Clear,28.8,1.0,1.0,90680.34,11.78,1.54,100908.74,31.0,140.0,KGOO,3154,-121.003083,39.224028
215,2018-08-03 23:40:00,101760.93,N,,KGOO 032340Z AUTO 00000KT 10SM CLR 30/M03 A3005 RMK AO1,,-3.0,,,-2.84,10.0,Clear,28.0,1.0,1.0,90680.34,11.58,0.0,100943.98,30.0,0.0,KGOO,3154,-121.003083,39.224028
216,2018-08-04 00:00:00,101760.93,SSE,,KGOO 040000Z AUTO 16004KT 10SM CLR 30/M02 A3005 RMK AO1,,-2.0,,,-1.85,10.0,Clear,28.08,1.0,1.0,90680.34,12.47,2.06,100943.96,30.0,160.0,KGOO,3154,-121.003083,39.224028
217,2018-08-04 00:20:00,101760.93,N,,KGOO 040020Z AUTO 00000KT 10SM CLR 29/M02 A3005 RMK AO1,,-2.0,,,-1.87,10.0,Clear,27.36,1.0,1.0,90680.34,13.21,0.0,100979.42,29.0,0.0,KGOO,3154,-121.003083,39.224028
218,2018-08-04 00:40:00,101760.93,N,,KGOO 040040Z AUTO 00000KT 10SM CLR 29/00 A3005 RMK AO1,,0.0,,,0.11,10.0,Clear,27.38,1.0,1.0,90680.34,15.29,0.0,100979.37,29.0,0.0,KGOO,3154,-121.003083,39.224028
219,2018-08-04 01:00:00,101760.93,N,,KGOO 040100Z AUTO 00000KT 10SM CLR 28/02 A3005 RMK AO1,,2.0,,,2.07,10.0,Clear,26.71,1.0,1.0,90680.34,18.72,0.0,101015.02,28.0,0.0,KGOO,3154,-121.003083,39.224028
220,2018-08-04 01:20:00,101727.07,N,,KGOO 040120Z AUTO 00000KT 10SM CLR 28/04 A3004 RMK AO1,,4.0,,,4.06,10.0,Clear,26.78,1.0,1.0,90650.16,21.57,0.0,100981.33,28.0,0.0,KGOO,3154,-121.003083,39.224028
221,2018-08-04 01:40:00,101727.07,N,,KGOO 040140Z AUTO 00000KT 10SM CLR 28/05 A3004 RMK AO1,,5.0,,,5.06,10.0,Clear,26.83,1.0,1.0,90650.16,23.13,0.0,100981.3,28.0,0.0,KGOO,3154,-121.003083,39.224028
222,2018-08-04 02:00:00,101727.07,N,,KGOO 040200Z AUTO 00000KT 10SM CLR 27/05 A3004 RMK AO1,,5.0,,,5.04,10.0,Clear,26.4,1.0,1.0,90650.16,24.52,0.0,101017.24,27.0,0.0,KGOO,3154,-121.003083,39.224028
223,2018-08-04 02:20:00,101760.93,N,,KGOO 040220Z AUTO 00000KT 10SM CLR 27/06 A3005 RMK AO1,,6.0,,,6.03,10.0,Clear,26.44,1.0,1.0,90680.34,26.28,0.0,101050.83,27.0,0.0,KGOO,3154,-121.003083,39.224028
224,2018-08-04 02:40:00,101727.07,N,,KGOO 040240Z AUTO 00000KT 10SM CLR 26/07 A3004 RMK AO1,,7.0,,,7.01,10.0,Clear,,1.0,1.0,90650.16,29.86,0.0,101053.35,26.0,0.0,KGOO,3154,-121.003083,39.224028
225,2018-08-04 03:00:00,101727.07,N,,KGOO 040300Z AUTO 00000KT 10SM CLR 25/08 A3004 RMK AO1,,8.0,,,8.0,10.0,Clear,,1.0,1.0,90650.16,33.92,0.0,101089.76,25.0,0.0,KGOO,3154,-121.003083,39.224028
226,2018-08-04 03:20:00,101727.07,N,,KGOO 040320Z AUTO 00000KT 10SM CLR 25/07 A3004 RMK AO1,,7.0,,,7.0,10.0,Clear,,1.0,1.0,90650.16,31.68,0.0,101089.8,25.0,0.0,KGOO,3154,-121.003083,39.224028
227,2018-08-04 03:40:00,101727.07,N,,KGOO 040340Z AUTO 00000KT 10SM CLR 24/07 A3004 RMK AO1,,7.0,,,6.99,10.0,Clear,,1.0,1.0,90650.16,33.63,0.0,101126.5,24.0,0.0,KGOO,3154,-121.003083,39.224028
228,2018-08-04 04:00:00,101727.07,N,,KGOO 040400Z AUTO 00000KT 10SM CLR 24/07 A3004 RMK AO1,,7.0,,,6.99,10.0,Clear,,1.0,1.0,90650.16,33.63,0.0,101126.5,24.0,0.0,KGOO,3154,-121.003083,39.224028
229,2018-08-04 04:20:00,101727.07,ESE,,KGOO 040420Z AUTO 12003KT 10SM CLR 24/06 A3004 RMK AO1,,6.0,,,5.99,10.0,Clear,,1.0,1.0,90650.16,31.39,1.54,101126.54,24.0,120.0,KGOO,3154,-121.003083,39.224028
230,2018-08-04 04:40:00,101760.93,ESE,,KGOO 040440Z AUTO 11004KT 10SM CLR 24/06 A3005 RMK AO1,,6.0,,,5.99,10.0,Clear,,1.0,1.0,90680.34,31.39,2.06,101160.21,24.0,110.0,KGOO,3154,-121.003083,39.224028
231,2018-08-04 05:00:00,101760.93,ESE,,KGOO 040500Z AUTO 12004KT 10SM CLR 24/05 A3005 RMK AO1,,5.0,,,4.99,10.0,Clear,,1.0,1.0,90680.34,29.29,2.06,101160.25,24.0,120.0,KGOO,3154,-121.003083,39.224028
232,2018-08-04 05:20:00,101760.93,ESE,,KGOO 040520Z AUTO 11004KT 10SM CLR 24/05 A3005 RMK AO1,,5.0,,,4.99,10.0,Clear,,1.0,1.0,90680.34,29.29,2.06,101160.25,24.0,110.0,KGOO,3154,-121.003083,39.224028
233,2018-08-04 05:40:00,101760.93,E,,KGOO 040540Z AUTO 10005KT 10SM CLR 24/05 A3005 RMK AO1,,5.0,,,4.99,10.0,Clear,,1.0,1.0,90680.34,29.29,2.57,101160.25,24.0,100.0,KGOO,3154,-121.003083,39.224028
234,2018-08-04 06:00:00,101727.07,E,,KGOO 040600Z AUTO 10004KT 10SM CLR 24/04 A3004 RMK AO1,,4.0,,,3.99,10.0,Clear,,1.0,1.0,90650.16,27.31,2.06,101126.62,24.0,100.0,KGOO,3154,-121.003083,39.224028
235,2018-08-04 06:20:00,101727.07,E,,KGOO 040620Z AUTO 10005KT 10SM CLR 25/03 A3004 RMK AO1,,3.0,,,3.01,10.0,Clear,,1.0,1.0,90650.16,23.97,2.57,101089.95,25.0,100.0,KGOO,3154,-121.003083,39.224028
236,2018-08-04 06:40:00,101727.07,E,,KGOO 040640Z AUTO 10005KT 10SM CLR 25/02 A3004 RMK AO1,,2.0,,,2.02,10.0,Clear,,1.0,1.0,90650.16,22.33,2.57,101089.98,25.0,100.0,KGOO,3154,-121.003083,39.224028
237,2018-08-04 07:00:00,101727.07,ESE,,KGOO 040700Z AUTO 12004KT 10SM CLR 25/02 A3004 RMK AO1,,2.0,,,2.02,10.0,Clear,,1.0,1.0,90650.16,22.33,2.06,101089.98,25.0,120.0,KGOO,3154,-121.003083,39.224028
238,2018-08-04 07:20:00,101693.2,ESE,,KGOO 040720Z AUTO 11005KT 10SM CLR 24/00 A3003 RMK AO1,,0.0,,,0.0,10.0,Clear,,1.0,1.0,90619.98,20.52,2.57,101093.07,24.0,110.0,KGOO,3154,-121.003083,39.224028
239,2018-08-04 07:40:00,101693.2,E,,KGOO 040740Z AUTO 10004KT 10SM CLR 24/01 A3003 RMK AO1,,1.0,,,1.0,10.0,Clear,,1.0,1.0,90619.98,22.06,2.06,101093.04,24.0,100.0,KGOO,3154,-121.003083,39.224028
240,2018-08-04 08:00:00,101693.2,E,,KGOO 040800Z AUTO 10004KT 10SM CLR 24/00 A3003 RMK AO1,,0.0,,,0.0,10.0,Clear,,1.0,1.0,90619.98,20.52,2.06,101093.07,24.0,100.0,KGOO,3154,-121.003083,39.224028
241,2018-08-04 08:20:00,101693.2,N,,KGOO 040820Z AUTO 00000KT 10SM CLR 24/M01 A3003 RMK AO1,,-1.0,,,-0.99,10.0,Clear,,1.0,1.0,90619.98,19.08,0.0,101093.1,24.0,0.0,KGOO,3154,-121.003083,39.224028
242,2018-08-04 08:40:00,101693.2,N,,KGOO 040840Z AUTO 00000KT 10SM FEW027 23/00 A3003 RMK AO1,,0.0,,,-0.01,10.0,Mostly Clear,,276.0,1.0,90619.98,21.79,0.0,101130.02,23.0,0.0,KGOO,3154,-121.003083,39.224028
243,2018-08-04 09:00:00,101659.34,N,,KGOO 040900Z AUTO 00000KT 10SM FEW027 23/M01 A3002 RMK AO1,,-1.0,,,-1.01,10.0,Mostly Clear,,276.0,1.0,90589.81,20.26,0.0,101096.38,23.0,0.0,KGOO,3154,-121.003083,39.224028
244,2018-08-04 09:20:00,101659.34,N,,KGOO 040920Z AUTO 00000KT 10SM CLR 23/M02 A3002 RMK AO1,,-2.0,,,-2.0,10.0,Clear,,1.0,1.0,90589.81,18.82,0.0,101096.4,23.0,0.0,KGOO,3154,-121.003083,39.224028
245,2018-08-04 09:40:00,101659.34,ESE,,KGOO 040940Z AUTO 12003KT 10SM CLR 23/M02 A3002 RMK AO1,,-2.0,,,-2.0,10.0,Clear,,1.0,1.0,90589.81,18.82,1.54,101096.4,23.0,120.0,KGOO,3154,-121.003083,39.224028
246,2018-08-04 10:00:00,101659.34,E,,KGOO 041000Z AUTO 10004KT 10SM CLR 23/M02 A3002 RMK AO1,,-2.0,,,-2.0,10.0,Clear,,1.0,1.0,90589.81,18.82,2.06,101096.4,23.0,100.0,KGOO,3154,-121.003083,39.224028
247,2018-08-04 10:20:00,101659.34,ESE,,KGOO 041020Z AUTO 11003KT 10SM CLR 23/M03 A3002 RMK AO1,,-3.0,,,-2.99,10.0,Clear,,1.0,1.0,90589.81,17.48,1.54,101096.43,23.0,110.0,KGOO,3154,-121.003083,39.224028
248,2018-08-04 10:40:00,101659.34,N,,KGOO 041040Z AUTO 00000KT 10SM CLR 23/M02 A3002 RMK AO1,,-2.0,,,-2.0,10.0,Clear,,1.0,1.0,90589.81,18.82,0.0,101096.4,23.0,0.0,KGOO,3154,-121.003083,39.224028
249,2018-08-04 11:00:00,101659.34,N,,KGOO 041100Z AUTO 00000KT 10SM CLR 22/M02 A3002 RMK AO1,,-2.0,,,-2.02,10.0,Clear,,1.0,1.0,90589.81,20.0,0.0,101133.6,22.0,0.0,KGOO,3154,-121.003083,39.224028
250,2018-08-04 11:20:00,101659.34,N,,KGOO 041120Z AUTO 00000KT 10SM CLR 22/M02 A3002 RMK AO1,,-2.0,,,-2.02,10.0,Clear,,1.0,1.0,90589.81,20.0,0.0,101133.6,22.0,0.0,KGOO,3154,-121.003083,39.224028
251,2018-08-04 11:40:00,101659.34,N,,KGOO 041140Z AUTO 00000KT 10SM CLR 23/M03 A3002 RMK AO1,,-3.0,,,-2.99,10.0,Clear,,1.0,1.0,90589.81,17.48,0.0,101096.43,23.0,0.0,KGOO,3154,-121.003083,39.224028
252,2018-08-04 12:00:00,101659.34,N,,KGOO 041200Z AUTO 00000KT 10SM CLR 22/M03 A3002 RMK AO1,,-3.0,,,-3.01,10.0,Clear,,1.0,1.0,90589.81,18.57,0.0,101133.62,22.0,0.0,KGOO,3154,-121.003083,39.224028
253,2018-08-04 12:20:00,101659.34,N,,KGOO 041220Z AUTO 00000KT 10SM CLR 22/M02 A3002 RMK AO1,,-2.0,,,-2.02,10.0,Clear,,1.0,1.0,90589.81,20.0,0.0,101133.6,22.0,0.0,KGOO,3154,-121.003083,39.224028
254,2018-08-04 12:40:00,101659.34,N,,KGOO 041240Z AUTO 00000KT 10SM CLR 22/M03 A3002 RMK AO1,,-3.0,,,-3.01,10.0,Clear,,1.0,1.0,90589.81,18.57,0.0,101133.62,22.0,0.0,KGOO,3154,-121.003083,39.224028
255,2018-08-04 13:00:00,101659.34,ESE,,KGOO 041300Z AUTO 11004KT 10SM CLR 23/M03 A3002 RMK AO1,,-3.0,,,-2.99,10.0,Clear,,1.0,1.0,90589.81,17.48,2.06,101096.43,23.0,110.0,KGOO,3154,-121.003083,39.224028
256,2018-08-04 13:20:00,101659.34,ESE,,KGOO 041320Z AUTO 11003KT 10SM CLR 23/M03 A3002 RMK AO1,,-3.0,,,-2.99,10.0,Clear,,1.0,1.0,90589.81,17.48,1.54,101096.43,23.0,110.0,KGOO,3154,-121.003083,39.224028
257,2018-08-04 13:40:00,101659.34,N,,KGOO 041340Z AUTO 00000KT 10SM CLR 22/M03 A3002 RMK AO1,,-3.0,,,-3.01,10.0,Clear,,1.0,1.0,90589.81,18.57,0.0,101133.62,22.0,0.0,KGOO,3154,-121.003083,39.224028
258,2018-08-04 13:50:00,101659.34,N,,KGOO 041350Z AUTO 00000KT 10SM CLR 22/M02 A3002 RMK AO1,,-2.0,,,-2.02,10.0,Clear,,1.0,1.0,90589.81,20.0,0.0,101133.6,22.0,0.0,KGOO,3154,-121.003083,39.224028
259,2018-08-04 14:20:00,101693.2,N,,KGOO 041420Z AUTO 00000KT 10SM CLR 22/M02 A3003 RMK AO1,,-2.0,,,-2.02,10.0,Clear,,1.0,1.0,90619.98,20.0,0.0,101167.28,22.0,0.0,KGOO,3154,-121.003083,39.224028
260,2018-08-04 14:40:00,101693.2,N,,KGOO 041440Z AUTO 00000KT 10SM CLR 23/M02 A3003 RMK AO1,,-2.0,,,-2.0,10.0,Clear,,1.0,1.0,90619.98,18.82,0.0,101130.07,23.0,0.0,KGOO,3154,-121.003083,39.224028
261,2018-08-04 15:00:00,101693.2,N,,KGOO 041500Z AUTO 00000KT 10SM CLR 23/00 A3003 RMK AO1,,0.0,,,-0.01,10.0,Clear,,1.0,1.0,90619.98,21.79,0.0,101130.02,23.0,0.0,KGOO,3154,-121.003083,39.224028
262,2018-08-04 15:20:00,101693.2,N,,KGOO 041520Z AUTO 00000KT 10SM CLR 23/01 A3003 RMK AO1,,1.0,,,0.99,10.0,Clear,,1.0,1.0,90619.98,23.43,0.0,101129.99,23.0,0.0,KGOO,3154,-121.003083,39.224028
263,2018-08-04 15:40:00,101727.07,N,,KGOO 041540Z AUTO 00000KT 10SM CLR 24/00 A3004 RMK AO1,,0.0,,,0.0,10.0,Clear,,1.0,1.0,90650.16,20.52,0.0,101126.74,24.0,0.0,KGOO,3154,-121.003083,39.224028
264,2018-08-04 16:00:00,101727.07,SE,,KGOO 041600Z AUTO 14003KT 10SM CLR 24/00 A3004 RMK AO1,,0.0,,,0.0,10.0,Clear,,1.0,1.0,90650.16,20.52,1.54,101126.74,24.0,140.0,KGOO,3154,-121.003083,39.224028
265,2018-08-04 16:20:00,101727.07,SSE,,KGOO 041620Z AUTO 15003KT 10SM CLR 24/03 A3004 RMK AO1,,3.0,,,2.99,10.0,Clear,,1.0,1.0,90650.16,25.45,1.54,101126.65,24.0,150.0,KGOO,3154,-121.003083,39.224028
266,2018-08-04 16:40:00,101727.07,N,,KGOO 041640Z AUTO 00000KT 10SM CLR 25/00 A3004 RMK AO1,,0.0,,,0.02,10.0,Clear,,1.0,1.0,90650.16,19.33,0.0,101090.04,25.0,0.0,KGOO,3154,-121.003083,39.224028
267,2018-08-04 17:00:00,101727.07,N,,KGOO 041700Z AUTO 00000KT 10SM CLR 25/00 A3004 RMK AO1,,0.0,,,0.02,10.0,Clear,,1.0,1.0,90650.16,19.33,0.0,101090.04,25.0,0.0,KGOO,3154,-121.003083,39.224028
268,2018-08-04 17:20:00,101727.07,N,,KGOO 041720Z AUTO 00000KT 10SM CLR 25/02 A3004 RMK AO1,,2.0,,,2.02,10.0,Clear,,1.0,1.0,90650.16,22.33,0.0,101089.98,25.0,0.0,KGOO,3154,-121.003083,39.224028
269,2018-08-04 17:40:00,101727.07,N,,KGOO 041740Z AUTO 00000KT 10SM CLR 26/03 A3004 RMK AO1,,3.0,,,3.02,10.0,Clear,,1.0,1.0,90650.16,22.59,0.0,101053.5,26.0,0.0,KGOO,3154,-121.003083,39.224028
270,2018-08-04 18:00:00,101727.07,SSE,,KGOO 041800Z AUTO 16004KT 10SM CLR 26/04 A3004 RMK AO1,,4.0,,,4.02,10.0,Clear,,1.0,1.0,90650.16,24.25,2.06,101053.47,26.0,160.0,KGOO,3154,-121.003083,39.224028
271,2018-08-04 18:20:00,101727.07,N,,KGOO 041820Z AUTO 00000KT 10SM CLR 26/05 A3004 RMK AO1,,5.0,,,5.02,10.0,Clear,,1.0,1.0,90650.16,26.0,0.0,101053.43,26.0,0.0,KGOO,3154,-121.003083,39.224028
272,2018-08-04 18:40:00,101727.07,SSE,,KGOO 041840Z AUTO 16004KT 10SM CLR 27/05 A3004 RMK AO1,,5.0,,,5.04,10.0,Clear,26.4,1.0,1.0,90650.16,24.52,2.06,101017.24,27.0,160.0,KGOO,3154,-121.003083,39.224028
273,2018-08-04 19:00:00,101727.07,WSW,,KGOO 041900Z AUTO 25003KT 10SM CLR 28/04 A3004 RMK AO1,,4.0,,,4.06,10.0,Clear,26.78,1.0,1.0,90650.16,21.57,1.54,100981.33,28.0,250.0,KGOO,3154,-121.003083,39.224028
274,2018-08-04 19:20:00,101693.2,W,,KGOO 041920Z AUTO 27005KT 10SM CLR 28/03 A3003 RMK AO1,,3.0,,,3.07,10.0,Clear,26.75,1.0,1.0,90619.98,20.1,2.57,100947.75,28.0,270.0,KGOO,3154,-121.003083,39.224028
275,2018-08-04 19:40:00,101693.2,WSW,,KGOO 041940Z AUTO 24006KT 10SM CLR 28/03 A3003 RMK AO1,,3.0,,,3.07,10.0,Clear,26.75,1.0,1.0,90619.98,20.1,3.09,100947.75,28.0,240.0,KGOO,3154,-121.003083,39.224028
276,2018-08-04 20:00:00,101693.2,SSW,,KGOO 042000Z AUTO 20005KT 10SM CLR 29/04 A3003 RMK AO1,,4.0,,,4.08,10.0,Clear,27.47,1.0,1.0,90619.98,20.35,2.57,100912.03,29.0,200.0,KGOO,3154,-121.003083,39.224028
277,2018-08-04 20:20:00,101693.2,SW,,KGOO 042020Z AUTO 22005KT 10SM CLR 29/03 A3003 RMK AO1,,3.0,,,3.09,10.0,Clear,27.44,1.0,1.0,90619.98,18.97,2.57,100912.06,29.0,220.0,KGOO,3154,-121.003083,39.224028
278,2018-08-04 20:40:00,101659.34,WSW,,KGOO 042040Z AUTO 24007KT 10SM CLR 29/05 A3002 RMK AO1,,5.0,,,5.08,10.0,Clear,27.51,1.0,1.0,90589.81,21.83,3.6,100878.4,29.0,240.0,KGOO,3154,-121.003083,39.224028
279,2018-08-04 21:00:00,101659.34,SW,,KGOO 042100Z AUTO 23007KT 10SM CLR 29/05 A3002 RMK AO1,,5.0,,,5.08,10.0,Clear,27.51,1.0,1.0,90589.81,21.83,3.6,100878.4,29.0,230.0,KGOO,3154,-121.003083,39.224028
280,2018-08-04 21:20:00,101659.34,S,,KGOO 042120Z AUTO 19004KT 10SM CLR 30/03 A3002 RMK AO1,,3.0,,,3.11,10.0,Clear,28.18,1.0,1.0,90589.81,17.91,2.06,100843.04,30.0,190.0,KGOO,3154,-121.003083,39.224028
281,2018-08-04 21:40:00,101659.34,WSW,,KGOO 042140Z AUTO 24007KT 10SM CLR 30/03 A3002 RMK AO1,,3.0,,,3.11,10.0,Clear,28.18,1.0,1.0,90589.81,17.91,3.6,100843.04,30.0,240.0,KGOO,3154,-121.003083,39.224028
282,2018-08-04 22:00:00,101659.34,N,,KGOO 042200Z AUTO 00000KT 10SM CLR 30/03 A3002 RMK AO1,,3.0,,,3.11,10.0,Clear,28.18,1.0,1.0,90589.81,17.91,0.0,100843.04,30.0,0.0,KGOO,3154,-121.003083,39.224028
283,2018-08-04 22:20:00,101659.34,SW,,KGOO 042220Z AUTO 22005KT 10SM CLR 29/03 A3002 RMK AO1,,3.0,,,3.09,10.0,Clear,27.44,1.0,1.0,90589.81,18.97,2.57,100878.47,29.0,220.0,KGOO,3154,-121.003083,39.224028
284,2018-08-04 22:40:00,101625.47,SSW,,KGOO 042240Z AUTO 21004KT 10SM CLR 29/02 A3001 RMK AO1,,2.0,,,2.09,10.0,Clear,27.41,1.0,1.0,90559.63,17.66,2.06,100844.89,29.0,210.0,KGOO,3154,-121.003083,39.224028
285,2018-08-04 23:00:00,101625.47,SW,,KGOO 042300Z AUTO 22004KT 10SM CLR 28/02 A3001 RMK AO1,,2.0,,,2.07,10.0,Clear,26.71,1.0,1.0,90559.63,18.72,2.06,100880.55,28.0,220.0,KGOO,3154,-121.003083,39.224028
286,2018-08-04 23:20:00,101625.47,WSW,,KGOO 042320Z AUTO 24006KT 10SM CLR 29/00 A3001 RMK AO1,,0.0,,,0.11,10.0,Clear,27.38,1.0,1.0,90559.63,15.29,3.09,100844.95,29.0,240.0,KGOO,3154,-121.003083,39.224028
287,2018-08-04 23:40:00,101591.61,WSW,7.2,KGOO 042340Z AUTO 24007G14KT 210V270 10SM CLR 29/00 A3000 RMK AO1,,0.0,,,0.11,10.0,Clear,27.38,1.0,1.0,90529.45,15.29,3.6,100811.34,29.0,240.0,KGOO,3154,-121.003083,39.224028
288,2018-08-05 00:00:00,101591.61,SW,,KGOO 050000Z AUTO 23008KT 200V260 10SM CLR 29/02 A3000 RMK AO1,,2.0,,,2.09,10.0,Clear,27.41,1.0,1.0,90529.45,17.66,4.12,100811.28,29.0,230.0,KGOO,3154,-121.003083,39.224028
289,2018-08-05 00:20:00,101591.61,WSW,,KGOO 050020Z AUTO 24007KT 10SM CLR 29/01 A3000 RMK AO1,,1.0,,,1.1,10.0,Clear,27.39,1.0,1.0,90529.45,16.44,3.6,100811.31,29.0,240.0,KGOO,3154,-121.003083,39.224028
290,2018-08-05 00:40:00,101557.75,WSW,,KGOO 050040Z AUTO 24006KT 190V260 10SM CLR 28/02 A2999 RMK AO1,,2.0,,,2.07,10.0,Clear,26.71,1.0,1.0,90499.28,18.72,3.09,100813.32,28.0,240.0,KGOO,3154,-121.003083,39.224028
291,2018-08-05 01:00:00,101557.75,SW,,KGOO 050100Z AUTO 23006KT 10SM CLR 28/02 A2999 RMK AO1,,2.0,,,2.07,10.0,Clear,26.71,1.0,1.0,90499.28,18.72,3.09,100813.32,28.0,230.0,KGOO,3154,-121.003083,39.224028
292,2018-08-05 01:20:00,101523.88,W,,KGOO 050120Z AUTO 26005KT 10SM CLR 28/03 A2998 RMK AO1,,3.0,,,3.07,10.0,Clear,26.75,1.0,1.0,90469.1,20.1,2.57,100779.67,28.0,260.0,KGOO,3154,-121.003083,39.224028
293,2018-08-05 01:40:00,101523.88,SSW,,KGOO 050140Z AUTO 21004KT 10SM CLR 28/03 A2998 RMK AO1,,3.0,,,3.07,10.0,Clear,26.75,1.0,1.0,90469.1,20.1,2.06,100779.67,28.0,210.0,KGOO,3154,-121.003083,39.224028
294,2018-08-05 02:00:00,101523.88,N,,KGOO 050200Z AUTO 00000KT 10SM CLR 27/04 A2998 RMK AO1,,4.0,,,4.04,10.0,Clear,26.35,1.0,1.0,90469.1,22.86,0.0,100815.51,27.0,0.0,KGOO,3154,-121.003083,39.224028
295,2018-08-05 02:20:00,101523.88,N,,KGOO 050220Z AUTO 00000KT 10SM CLR 27/03 A2998 RMK AO1,,3.0,,,3.04,10.0,Clear,26.31,1.0,1.0,90469.1,21.3,0.0,100815.54,27.0,0.0,KGOO,3154,-121.003083,39.224028
296,2018-08-05 02:40:00,101523.88,N,,KGOO 050240Z AUTO 00000KT 10SM CLR 25/03 A2998 RMK AO1,,3.0,,,3.01,10.0,Clear,,1.0,1.0,90469.1,23.97,0.0,100888.03,25.0,0.0,KGOO,3154,-121.003083,39.224028
297,2018-08-05 03:00:00,101557.75,N,,KGOO 050300Z AUTO 00000KT 10SM CLR 25/03 A2999 RMK AO1,,3.0,,,3.01,10.0,Clear,,1.0,1.0,90499.28,23.97,0.0,100921.69,25.0,0.0,KGOO,3154,-121.003083,39.224028
298,2018-08-05 03:20:00,101557.75,N,,KGOO 050320Z AUTO 00000KT 10SM CLR 23/04 A2999 RMK AO1,,4.0,,,3.98,10.0,Clear,,1.0,1.0,90499.28,29.0,0.0,100995.2,23.0,0.0,KGOO,3154,-121.003083,39.224028
299,2018-08-05 03:40:00,101557.75,SSE,,KGOO 050340Z AUTO 16003KT 10SM CLR 23/04 A2999 RMK AO1,,4.0,,,3.98,10.0,Clear,,1.0,1.0,90499.28,29.0,1.54,100995.2,23.0,160.0,KGOO,3154,-121.003083,39.224028
300,2018-08-05 04:00:00,101557.75,SSE,,KGOO 050400Z AUTO 16003KT 10SM CLR 23/04 A2999 RMK AO1,,4.0,,,3.98,10.0,Clear,,1.0,1.0,90499.28,29.0,1.54,100995.2,23.0,160.0,KGOO,3154,-121.003083,39.224028
301,2018-08-05 04:20:00,101591.61,ESE,,KGOO 050420Z AUTO 12003KT 10SM CLR 23/04 A3000 RMK AO1,,4.0,,,3.98,10.0,Clear,,1.0,1.0,90529.45,29.0,1.54,101028.87,23.0,120.0,KGOO,3154,-121.003083,39.224028
302,2018-08-05 04:40:00,101591.61,ESE,,KGOO 050440Z AUTO 12004KT 10SM CLR 23/04 A3000 RMK AO1,,4.0,,,3.98,10.0,Clear,,1.0,1.0,90529.45,29.0,2.06,101028.87,23.0,120.0,KGOO,3154,-121.003083,39.224028
303,2018-08-05 05:00:00,101591.61,SE,,KGOO 050500Z AUTO 13006KT 10SM CLR 23/03 A3000 RMK AO1,,3.0,,,2.98,10.0,Clear,,1.0,1.0,90529.45,27.03,3.09,101028.9,23.0,130.0,KGOO,3154,-121.003083,39.224028
304,2018-08-05 05:20:00,101625.47,ESE,,KGOO 050520Z AUTO 12005KT 10SM CLR 22/03 A3001 RMK AO1,,3.0,,,2.97,10.0,Clear,,1.0,1.0,90559.63,28.72,2.57,101099.77,22.0,120.0,KGOO,3154,-121.003083,39.224028
305,2018-08-05 05:40:00,101591.61,ESE,,KGOO 050540Z AUTO 11006KT 10SM CLR 22/03 A3000 RMK AO1,,3.0,,,2.97,10.0,Clear,,1.0,1.0,90529.45,28.72,3.09,101066.07,22.0,110.0,KGOO,3154,-121.003083,39.224028
306,2018-08-05 06:00:00,101591.61,ESE,,KGOO 050600Z AUTO 11005KT 10SM CLR 22/02 A3000 RMK AO1,,2.0,,,1.97,10.0,Clear,,1.0,1.0,90529.45,26.74,2.57,101066.11,22.0,110.0,KGOO,3154,-121.003083,39.224028
307,2018-08-05 06:20:00,101591.61,ESE,,KGOO 050620Z AUTO 12006KT 10SM CLR 22/02 A3000 RMK AO1,,2.0,,,1.97,10.0,Clear,,1.0,1.0,90529.45,26.74,3.09,101066.11,22.0,120.0,KGOO,3154,-121.003083,39.224028
308,2018-08-05 06:40:00,101591.61,ESE,,KGOO 050640Z AUTO 11005KT 10SM CLR 22/02 A3000 RMK AO1,,2.0,,,1.97,10.0,Clear,,1.0,1.0,90529.45,26.74,2.57,101066.11,22.0,110.0,KGOO,3154,-121.003083,39.224028
309,2018-08-05 07:00:00,101591.61,ESE,,KGOO 050700Z AUTO 11005KT 10SM CLR 22/02 A3000 RMK AO1,,2.0,,,1.97,10.0,Clear,,1.0,1.0,90529.45,26.74,2.57,101066.11,22.0,110.0,KGOO,3154,-121.003083,39.224028
310,2018-08-05 07:20:00,101591.61,E,,KGOO 050720Z AUTO 10006KT 10SM CLR 22/02 A3000 RMK AO1,,2.0,,,1.97,10.0,Clear,,1.0,1.0,90529.45,26.74,3.09,101066.11,22.0,100.0,KGOO,3154,-121.003083,39.224028
311,2018-08-05 07:40:00,101591.61,ESE,,KGOO 050740Z AUTO 11005KT 10SM CLR 22/02 A3000 RMK AO1,,2.0,,,1.97,10.0,Clear,,1.0,1.0,90529.45,26.74,2.57,101066.11,22.0,110.0,KGOO,3154,-121.003083,39.224028
312,2018-08-05 08:00:00,101591.61,E,,KGOO 050800Z AUTO 10006KT 10SM CLR 22/02 A3000 RMK AO1,,2.0,,,1.97,10.0,Clear,,1.0,1.0,90529.45,26.74,3.09,101066.11,22.0,100.0,KGOO,3154,-121.003083,39.224028
313,2018-08-05 08:20:00,101591.61,ESE,,KGOO 050820Z AUTO 11006KT 10SM CLR 22/02 A3000 RMK AO1,,2.0,,,1.97,10.0,Clear,,1.0,1.0,90529.45,26.74,3.09,101066.11,22.0,110.0,KGOO,3154,-121.003083,39.224028
314,2018-08-05 08:40:00,101591.61,ESE,,KGOO 050840Z AUTO 11005KT 10SM CLR 22/01 A3000 RMK AO1,,1.0,,,0.97,10.0,Clear,,1.0,1.0,90529.45,24.89,2.57,101066.14,22.0,110.0,KGOO,3154,-121.003083,39.224028
315,2018-08-05 09:00:00,101591.61,E,,KGOO 050900Z AUTO 10006KT 10SM CLR 22/01 A3000 RMK AO1,,1.0,,,0.97,10.0,Clear,,1.0,1.0,90529.45,24.89,3.09,101066.14,22.0,100.0,KGOO,3154,-121.003083,39.224028
316,2018-08-05 09:20:00,101557.75,E,,KGOO 050920Z AUTO 10006KT 10SM CLR 22/00 A2999 RMK AO1,,0.0,,,-0.02,10.0,Clear,,1.0,1.0,90499.28,23.16,3.09,101032.48,22.0,100.0,KGOO,3154,-121.003083,39.224028
317,2018-08-05 09:40:00,101591.61,ESE,,KGOO 050940Z AUTO 11006KT 10SM CLR 22/00 A3000 RMK AO1,,0.0,,,-0.02,10.0,Clear,,1.0,1.0,90529.45,23.16,3.09,101066.16,22.0,110.0,KGOO,3154,-121.003083,39.224028
318,2018-08-05 10:00:00,101591.61,ESE,,KGOO 051000Z AUTO 11005KT 10SM CLR 22/00 A3000 RMK AO1,,0.0,,,-0.02,10.0,Clear,,1.0,1.0,90529.45,23.16,2.57,101066.16,22.0,110.0,KGOO,3154,-121.003083,39.224028
319,2018-08-05 10:20:00,101591.61,ESE,,KGOO 051020Z AUTO 11005KT 10SM CLR 22/M01 A3000 RMK AO1,,-1.0,,,-1.02,10.0,Clear,,1.0,1.0,90529.45,21.53,2.57,101066.19,22.0,110.0,KGOO,3154,-121.003083,39.224028
320,2018-08-05 10:40:00,101591.61,E,,KGOO 051040Z AUTO 10006KT 10SM CLR 22/M01 A3000 RMK AO1,,-1.0,,,-1.02,10.0,Clear,,1.0,1.0,90529.45,21.53,3.09,101066.19,22.0,100.0,KGOO,3154,-121.003083,39.224028
321,2018-08-05 11:00:00,101591.61,E,,KGOO 051100Z AUTO 10007KT 10SM CLR 22/M01 A3000 RMK AO1,,-1.0,,,-1.02,10.0,Clear,,1.0,1.0,90529.45,21.53,3.6,101066.19,22.0,100.0,KGOO,3154,-121.003083,39.224028
322,2018-08-05 11:20:00,101557.75,E,,KGOO 051120Z AUTO 10006KT 10SM CLR 22/M02 A2999 RMK AO1,,-2.0,,,-2.02,10.0,Clear,,1.0,1.0,90499.28,20.0,3.09,101032.53,22.0,100.0,KGOO,3154,-121.003083,39.224028
323,2018-08-05 11:40:00,101557.75,E,,KGOO 051140Z AUTO 10007KT 10SM CLR 22/M01 A2999 RMK AO1,,-1.0,,,-1.02,10.0,Clear,,1.0,1.0,90499.28,21.53,3.6,101032.51,22.0,100.0,KGOO,3154,-121.003083,39.224028
324,2018-08-05 12:00:00,101557.75,E,,KGOO 051200Z AUTO 10006KT 10SM CLR 22/M01 A2999 RMK AO1,,-1.0,,,-1.02,10.0,Clear,,1.0,1.0,90499.28,21.53,3.09,101032.51,22.0,100.0,KGOO,3154,-121.003083,39.224028
325,2018-08-05 12:20:00,101557.75,E,,KGOO 051220Z AUTO 10005KT 10SM CLR 22/M01 A2999 RMK AO1,,-1.0,,,-1.02,10.0,Clear,,1.0,1.0,90499.28,21.53,2.57,101032.51,22.0,100.0,KGOO,3154,-121.003083,39.224028
326,2018-08-05 12:40:00,101557.75,E,,KGOO 051240Z AUTO 10006KT 10SM CLR 21/M01 A2999 RMK AO1,,-1.0,,,-1.04,10.0,Clear,,1.0,1.0,90499.28,22.88,3.09,101069.93,21.0,100.0,KGOO,3154,-121.003083,39.224028
327,2018-08-05 13:00:00,101557.75,E,,KGOO 051300Z AUTO 10006KT 10SM CLR 21/M02 A2999 RMK AO1,,-2.0,,,-2.03,10.0,Clear,,1.0,1.0,90499.28,21.26,3.09,101069.96,21.0,100.0,KGOO,3154,-121.003083,39.224028
328,2018-08-05 13:20:00,101591.61,E,,KGOO 051320Z AUTO 10006KT 10SM CLR 22/M02 A3000 RMK AO1,,-2.0,,,-2.02,10.0,Clear,,1.0,1.0,90529.45,20.0,3.09,101066.21,22.0,100.0,KGOO,3154,-121.003083,39.224028
329,2018-08-05 13:40:00,101591.61,E,,KGOO 051340Z AUTO 10006KT 10SM CLR 22/M02 A3000 RMK AO1,,-2.0,,,-2.02,10.0,Clear,,1.0,1.0,90529.45,20.0,3.09,101066.21,22.0,100.0,KGOO,3154,-121.003083,39.224028
330,2018-08-05 14:00:00,101625.47,ESE,,KGOO 051400Z AUTO 11005KT 10SM CLR 22/M02 A3001 RMK AO1,,-2.0,,,-2.02,10.0,Clear,,1.0,1.0,90559.63,20.0,2.57,101099.91,22.0,110.0,KGOO,3154,-121.003083,39.224028
331,2018-08-05 14:20:00,101625.47,E,,KGOO 051420Z AUTO 10004KT 10SM CLR 21/M01 A3001 RMK AO1,,-1.0,,,-1.04,10.0,Clear,,1.0,1.0,90559.63,22.88,2.06,101137.33,21.0,100.0,KGOO,3154,-121.003083,39.224028
332,2018-08-05 14:40:00,101659.34,N,,KGOO 051440Z AUTO 00000KT 10SM CLR 21/00 A3002 RMK AO1,,0.0,,,-0.04,10.0,Clear,,1.0,1.0,90589.81,24.61,0.0,101171.01,21.0,0.0,KGOO,3154,-121.003083,39.224028
333,2018-08-05 15:00:00,101693.2,N,,KGOO 051500Z AUTO 00000KT 10SM CLR 22/00 A3003 RMK AO1,,0.0,,,-0.02,10.0,Clear,,1.0,1.0,90619.98,23.16,0.0,101167.23,22.0,0.0,KGOO,3154,-121.003083,39.224028
334,2018-08-05 15:20:00,101693.2,N,,KGOO 051520Z AUTO 00000KT 10SM CLR 23/00 A3003 RMK AO1,,0.0,,,-0.01,10.0,Clear,,1.0,1.0,90619.98,21.79,0.0,101130.02,23.0,0.0,KGOO,3154,-121.003083,39.224028
335,2018-08-05 15:40:00,101727.07,SE,,KGOO 051540Z AUTO 14003KT 10SM CLR 23/00 A3004 RMK AO1,,0.0,,,-0.01,10.0,Clear,,1.0,1.0,90650.16,21.79,1.54,101163.7,23.0,140.0,KGOO,3154,-121.003083,39.224028
336,2018-08-05 16:00:00,101727.07,SE,,KGOO 051600Z AUTO 14003KT 10SM CLR 23/02 A3004 RMK AO1,,2.0,,,1.98,10.0,Clear,,1.0,1.0,90650.16,25.17,1.54,101163.64,23.0,140.0,KGOO,3154,-121.003083,39.224028
337,2018-08-05 16:20:00,101727.07,SE,,KGOO 051620Z AUTO 14003KT 10SM CLR 23/01 A3004 RMK AO1,,1.0,,,0.99,10.0,Clear,,1.0,1.0,90650.16,23.43,1.54,101163.67,23.0,140.0,KGOO,3154,-121.003083,39.224028
338,2018-08-05 16:40:00,101727.07,ESE,,KGOO 051640Z AUTO 12003KT 10SM CLR 24/M02 A3004 RMK AO1,,-2.0,,,-1.99,10.0,Clear,,1.0,1.0,90650.16,17.72,1.54,101126.79,24.0,120.0,KGOO,3154,-121.003083,39.224028
339,2018-08-05 17:00:00,101727.07,ESE,,KGOO 051700Z AUTO 12003KT 10SM CLR 24/00 A3004 RMK AO1,,0.0,,,0.0,10.0,Clear,,1.0,1.0,90650.16,20.52,1.54,101126.74,24.0,120.0,KGOO,3154,-121.003083,39.224028
340,2018-08-05 17:20:00,101760.93,SE,,KGOO 051720Z AUTO 14004KT 10SM CLR 25/02 A3005 RMK AO1,,2.0,,,2.02,10.0,Clear,,1.0,1.0,90680.34,22.33,2.06,101123.63,25.0,140.0,KGOO,3154,-121.003083,39.224028
341,2018-08-05 17:40:00,101760.93,N,,KGOO 051740Z AUTO 00000KT 10SM CLR 26/02 A3005 RMK AO1,,2.0,,,2.03,10.0,Clear,,1.0,1.0,90680.34,21.04,0.0,101087.18,26.0,0.0,KGOO,3154,-121.003083,39.224028
342,2018-08-05 18:00:00,101760.93,S,,KGOO 051800Z AUTO 17004KT 10SM CLR 26/02 A3005 RMK AO1,,2.0,,,2.03,10.0,Clear,,1.0,1.0,90680.34,21.04,2.06,101087.18,26.0,170.0,KGOO,3154,-121.003083,39.224028
343,2018-08-05 18:20:00,101760.93,N,,KGOO 051820Z AUTO 00000KT 10SM CLR 26/02 A3005 RMK AO1,,2.0,,,2.03,10.0,Clear,,1.0,1.0,90680.34,21.04,0.0,101087.18,26.0,0.0,KGOO,3154,-121.003083,39.224028
344,2018-08-05 18:40:00,101794.79,S,,KGOO 051840Z AUTO 19003KT 10SM CLR 26/02 A3006 RMK AO1,,2.0,,,2.03,10.0,Clear,,1.0,1.0,90710.51,21.04,1.54,101120.81,26.0,190.0,KGOO,3154,-121.003083,39.224028
345,2018-08-05 19:00:00,101794.79,N,,KGOO 051900Z AUTO 00000KT 10SM CLR 27/02 A3006 RMK AO1,,2.0,,,2.05,10.0,Clear,26.27,1.0,1.0,90710.51,19.84,0.0,101084.59,27.0,0.0,KGOO,3154,-121.003083,39.224028
346,2018-08-05 19:20:00,101794.79,S,,KGOO 051920Z AUTO 18004KT 10SM CLR 27/02 A3006 RMK AO1,,2.0,,,2.05,10.0,Clear,26.27,1.0,1.0,90710.51,19.84,2.06,101084.59,27.0,180.0,KGOO,3154,-121.003083,39.224028
347,2018-08-05 19:40:00,101794.79,N,,KGOO 051940Z AUTO 00000KT 10SM CLR 28/01 A3006 RMK AO1,,1.0,,,1.08,10.0,Clear,26.69,1.0,1.0,90710.51,17.42,0.0,101048.65,28.0,0.0,KGOO,3154,-121.003083,39.224028
348,2018-08-05 20:00:00,101794.79,N,,KGOO 052000Z AUTO 00000KT 10SM CLR 28/00 A3006 RMK AO1,,0.0,,,0.08,10.0,Clear,26.67,1.0,1.0,90710.51,16.2,0.0,101048.68,28.0,0.0,KGOO,3154,-121.003083,39.224028
349,2018-08-05 20:20:00,101794.79,S,,KGOO 052020Z AUTO 18004KT 10SM CLR 29/00 A3006 RMK AO1,,0.0,,,0.11,10.0,Clear,27.38,1.0,1.0,90710.51,15.29,2.06,101012.96,29.0,180.0,KGOO,3154,-121.003083,39.224028
350,2018-08-05 20:40:00,101794.79,S,,KGOO 052040Z AUTO 18006KT 10SM CLR 29/01 A3006 RMK AO1,,1.0,,,1.1,10.0,Clear,27.39,1.0,1.0,90710.51,16.44,3.09,101012.94,29.0,180.0,KGOO,3154,-121.003083,39.224028
351,2018-08-05 21:00:00,101794.79,S,,KGOO 052100Z AUTO 18005KT 10SM CLR 29/03 A3006 RMK AO1,,3.0,,,3.09,10.0,Clear,27.44,1.0,1.0,90710.51,18.97,2.57,101012.88,29.0,180.0,KGOO,3154,-121.003083,39.224028
352,2018-08-05 21:20:00,101760.93,SSW,,KGOO 052120Z AUTO 20005KT 10SM CLR 29/03 A3005 RMK AO1,,3.0,,,3.09,10.0,Clear,27.44,1.0,1.0,90680.34,18.97,2.57,100979.28,29.0,200.0,KGOO,3154,-121.003083,39.224028
353,2018-08-05 21:40:00,101760.93,S,,KGOO 052140Z AUTO 18004KT 10SM CLR 29/02 A3005 RMK AO1,,2.0,,,2.09,10.0,Clear,27.41,1.0,1.0,90680.34,17.66,2.06,100979.31,29.0,180.0,KGOO,3154,-121.003083,39.224028
354,2018-08-05 22:00:00,101760.93,SW,,KGOO 052200Z AUTO 22005KT 10SM CLR 29/02 A3005 RMK AO1,,2.0,,,2.09,10.0,Clear,27.41,1.0,1.0,90680.34,17.66,2.57,100979.31,29.0,220.0,KGOO,3154,-121.003083,39.224028
355,2018-08-05 22:20:00,101760.93,SSW,,KGOO 052220Z AUTO 21005KT 10SM CLR 29/02 A3005 RMK AO1,,2.0,,,2.09,10.0,Clear,27.41,1.0,1.0,90680.34,17.66,2.57,100979.31,29.0,210.0,KGOO,3154,-121.003083,39.224028
356,2018-08-05 22:40:00,101794.79,SSW,,KGOO 052240Z AUTO 20003KT 10SM CLR 28/04 A3006 RMK AO1,,4.0,,,4.06,10.0,Clear,26.78,1.0,1.0,90710.51,21.57,1.54,101048.56,28.0,200.0,KGOO,3154,-121.003083,39.224028
357,2018-08-05 23:00:00,101794.79,SSW,,KGOO 052300Z AUTO 21003KT 10SM CLR 28/04 A3006 RMK AO1,,4.0,,,4.06,10.0,Clear,26.78,1.0,1.0,90710.51,21.57,1.54,101048.56,28.0,210.0,KGOO,3154,-121.003083,39.224028
358,2018-08-05 23:20:00,101794.79,N,,KGOO 052320Z AUTO 00000KT 10SM CLR 28/04 A3006 RMK AO1,,4.0,,,4.06,10.0,Clear,26.78,1.0,1.0,90710.51,21.57,0.0,101048.56,28.0,0.0,KGOO,3154,-121.003083,39.224028
359,2018-08-05 23:40:00,101760.93,W,,KGOO 052340Z AUTO 26005KT 10SM CLR 28/04 A3005 RMK AO1,,4.0,,,4.06,10.0,Clear,26.78,1.0,1.0,90680.34,21.57,2.57,101014.95,28.0,260.0,KGOO,3154,-121.003083,39.224028
360,2018-08-06 00:00:00,101760.93,WSW,,KGOO 060000Z AUTO 25005KT 10SM CLR 28/04 A3005 RMK AO1,,4.0,,,4.06,10.0,Clear,26.78,1.0,1.0,90680.34,21.57,2.57,101014.95,28.0,250.0,KGOO,3154,-121.003083,39.224028
361,2018-08-06 00:20:00,101760.93,WSW,,KGOO 060020Z AUTO 25003KT 10SM CLR 28/05 A3005 RMK AO1,,5.0,,,5.06,10.0,Clear,26.83,1.0,1.0,90680.34,23.13,1.54,101014.92,28.0,250.0,KGOO,3154,-121.003083,39.224028
362,2018-08-06 00:40:00,101760.93,WSW,,KGOO 060040Z AUTO 24005KT 10SM CLR 28/05 A3005 RMK AO1,,5.0,,,5.06,10.0,Clear,26.83,1.0,1.0,90680.34,23.13,2.57,101014.92,28.0,240.0,KGOO,3154,-121.003083,39.224028
363,2018-08-06 01:00:00,101760.93,WSW,,KGOO 060100Z AUTO 24005KT 10SM CLR 28/05 A3005 RMK AO1,,5.0,,,5.06,10.0,Clear,26.83,1.0,1.0,90680.34,23.13,2.57,101014.92,28.0,240.0,KGOO,3154,-121.003083,39.224028
364,2018-08-06 01:20:00,101760.93,SW,,KGOO 060120Z AUTO 23005KT 10SM CLR 27/05 A3005 RMK AO1,,5.0,,,5.04,10.0,Clear,26.4,1.0,1.0,90680.34,24.52,2.57,101050.87,27.0,230.0,KGOO,3154,-121.003083,39.224028
365,2018-08-06 01:40:00,101727.07,N,,KGOO 060140Z AUTO 00000KT 10SM CLR 27/05 A3004 RMK AO1,,5.0,,,5.04,10.0,Clear,26.4,1.0,1.0,90650.16,24.52,0.0,101017.24,27.0,0.0,KGOO,3154,-121.003083,39.224028
366,2018-08-06 02:00:00,101727.07,W,,KGOO 060200Z AUTO 26003KT 10SM CLR 27/05 A3004 RMK AO1,,5.0,,,5.04,10.0,Clear,26.4,1.0,1.0,90650.16,24.52,1.54,101017.24,27.0,260.0,KGOO,3154,-121.003083,39.224028
367,2018-08-06 02:20:00,101760.93,WSW,,KGOO 060220Z AUTO 24003KT 10SM CLR 26/06 A3005 RMK AO1,,6.0,,,6.01,10.0,Clear,,1.0,1.0,90680.34,27.87,1.54,101087.04,26.0,240.0,KGOO,3154,-121.003083,39.224028
368,2018-08-06 02:40:00,101794.79,N,,KGOO 060240Z AUTO 00000KT 10SM CLR 25/07 A3006 RMK AO1,,7.0,,,7.0,10.0,Clear,,1.0,1.0,90710.51,31.68,0.0,101157.1,25.0,0.0,KGOO,3154,-121.003083,39.224028
369,2018-08-06 03:00:00,101794.79,WNW,,KGOO 060300Z AUTO 30003KT 10SM CLR 25/08 A3006 RMK AO1,,8.0,,,8.0,10.0,Clear,,1.0,1.0,90710.51,33.92,1.54,101157.06,25.0,300.0,KGOO,3154,-121.003083,39.224028
370,2018-08-06 03:20:00,101828.66,N,,KGOO 060320Z AUTO 00000KT 10SM CLR 24/08 A3007 RMK AO1,,8.0,,,7.99,10.0,Clear,,1.0,1.0,90740.69,36.01,0.0,101227.45,24.0,0.0,KGOO,3154,-121.003083,39.224028
371,2018-08-06 03:40:00,101828.66,N,,KGOO 060340Z AUTO 00000KT 10SM CLR 23/09 A3007 RMK AO1,,9.0,,,8.98,10.0,Clear,,1.0,1.0,90740.69,40.92,0.0,101264.4,23.0,0.0,KGOO,3154,-121.003083,39.224028
372,2018-08-06 04:00:00,101828.66,N,,KGOO 060400Z AUTO 00000KT 10SM CLR 22/09 A3007 RMK AO1,,9.0,,,8.97,10.0,Clear,,1.0,1.0,90740.69,43.48,0.0,101301.66,22.0,0.0,KGOO,3154,-121.003083,39.224028
373,2018-08-06 04:20:00,101862.52,N,,KGOO 060420Z AUTO 00000KT 10SM CLR 22/08 A3008 RMK AO1,,8.0,,,7.97,10.0,Clear,,1.0,1.0,90770.86,40.63,0.0,101335.39,22.0,0.0,KGOO,3154,-121.003083,39.224028
374,2018-08-06 04:40:00,101862.52,N,,KGOO 060440Z AUTO 00000KT 10SM BKN008 22/08 A3008 RMK AO1,243.84,8.0,,,7.97,10.0,Mostly Cloudy,,83.0,1.0,90770.86,40.63,0.0,101335.39,22.0,0.0,KGOO,3154,-121.003083,39.224028
375,2018-08-06 05:00:00,101862.52,N,,KGOO 060500Z AUTO 00000KT 10SM OVC008 21/07 A3008 RMK AO1,243.84,7.0,,,6.96,10.0,Overcast,,84.0,1.0,90770.86,40.34,0.0,101372.97,21.0,0.0,KGOO,3154,-121.003083,39.224028
376,2018-08-06 05:20:00,101862.52,N,,KGOO 060520Z AUTO 00000KT 10SM SCT002 OVC008 21/05 A3008 RMK AO1,243.84,5.0,84.0,,4.95,10.0,Overcast,,22.0,1.0,90770.86,35.13,0.0,101373.05,21.0,0.0,KGOO,3154,-121.003083,39.224028
377,2018-08-06 05:40:00,101862.52,N,,KGOO 060540Z AUTO 00000KT 10SM BKN002 OVC006 22/04 A3008 RMK AO1,60.96,4.0,64.0,,3.97,10.0,Overcast,,23.0,1.0,90770.86,30.82,0.0,101335.55,22.0,0.0,KGOO,3154,-121.003083,39.224028
378,2018-08-06 06:00:00,101862.52,N,,KGOO 060600Z AUTO 00000KT 10SM BKN002 OVC006 22/04 A3008 RMK AO1,60.96,4.0,64.0,,3.97,10.0,Overcast,,23.0,1.0,90770.86,30.82,0.0,101335.55,22.0,0.0,KGOO,3154,-121.003083,39.224028
379,2018-08-06 06:20:00,101862.52,E,,KGOO 060620Z AUTO 10004KT 10SM BKN002 OVC009 22/02 A3008 RMK AO1,60.96,2.0,94.0,,1.97,10.0,Overcast,,23.0,1.0,90770.86,26.74,2.06,101335.61,22.0,100.0,KGOO,3154,-121.003083,39.224028
380,2018-08-06 06:40:00,101862.52,E,,KGOO 060640Z AUTO 10004KT 10SM FEW002 BKN009 OVC014 22/01 A3008 RMK AO1,274.32,1.0,93.0,144.0,0.97,10.0,Overcast,,26.0,1.0,90770.86,24.89,2.06,101335.64,22.0,100.0,KGOO,3154,-121.003083,39.224028
381,2018-08-06 07:00:00,101862.52,E,,KGOO 060700Z AUTO 09005KT 10SM FEW002 SCT009 OVC014 22/01 A3008 RMK AO1,426.72,1.0,92.0,144.0,0.97,10.0,Overcast,,26.0,1.0,90770.86,24.89,2.57,101335.64,22.0,90.0,KGOO,3154,-121.003083,39.224028
382,2018-08-06 07:20:00,101862.52,E,,KGOO 060720Z AUTO 09005KT 10SM BKN014 BKN019 21/02 A3008 RMK AO1,426.72,2.0,193.0,,1.96,10.0,,,143.0,1.0,90770.86,28.43,2.57,101373.15,21.0,90.0,KGOO,3154,-121.003083,39.224028
383,2018-08-06 07:40:00,101862.52,N,,KGOO 060740Z AUTO 00000KT 10SM BKN020 21/03 A3008 RMK AO1,609.6,3.0,,,2.96,10.0,,,203.0,1.0,90770.86,30.53,0.0,101373.12,21.0,0.0,KGOO,3154,-121.003083,39.224028
384,2018-08-06 08:00:00,101862.52,N,,KGOO 060800Z AUTO 00000KT 10SM FEW002 BKN020 20/04 A3008 RMK AO1,609.6,4.0,203.0,,3.95,10.0,,,26.0,1.0,90770.86,34.84,0.0,101410.89,20.0,0.0,KGOO,3154,-121.003083,39.224028
385,2018-08-06 08:20:00,101862.52,N,,KGOO 060820Z AUTO 00000KT 8SM SCT002 BKN020 20/03 A3008 RMK AO1,609.6,3.0,203.0,,2.94,8.0,,,22.0,1.0,90770.86,32.46,0.0,101410.92,20.0,0.0,KGOO,3154,-121.003083,39.224028
386,2018-08-06 08:40:00,101828.66,N,,KGOO 060840Z AUTO 00000KT 7SM FEW002 21/03 A3007 RMK AO1,,3.0,,,2.96,7.0,,,26.0,1.0,90740.69,30.53,0.0,101339.42,21.0,0.0,KGOO,3154,-121.003083,39.224028
387,2018-08-06 09:00:00,101828.66,N,,KGOO 060900Z AUTO 00000KT 5SM CLR 20/03 A3007 RMK AO1,,3.0,,,2.94,5.0,,,1.0,1.0,90740.69,32.46,0.0,101377.22,20.0,0.0,KGOO,3154,-121.003083,39.224028
388,2018-08-06 09:20:00,101828.66,N,,KGOO 060920Z AUTO 00000KT 5SM FEW002 20/03 A3007 RMK AO1,,3.0,,,2.94,5.0,,,26.0,1.0,90740.69,32.46,0.0,101377.22,20.0,0.0,KGOO,3154,-121.003083,39.224028
389,2018-08-06 09:40:00,101828.66,N,,KGOO 060940Z AUTO 00000KT 5SM BKN002 20/03 A3007 RMK AO1,60.96,3.0,,,2.94,5.0,,,23.0,1.0,90740.69,32.46,0.0,101377.22,20.0,0.0,KGOO,3154,-121.003083,39.224028
390,2018-08-06 10:00:00,101828.66,N,,KGOO 061000Z AUTO 00000KT 5SM SCT002 20/03 A3007 RMK AO1,,3.0,,,2.94,5.0,,,22.0,1.0,90740.69,32.46,0.0,101377.22,20.0,0.0,KGOO,3154,-121.003083,39.224028
391,2018-08-06 10:20:00,101828.66,NNW,,KGOO 061020Z AUTO 33003KT 5SM CLR 19/03 A3007 RMK AO1,,3.0,,,2.94,5.0,,,1.0,1.0,90740.69,34.54,1.54,101415.28,19.0,330.0,KGOO,3154,-121.003083,39.224028
392,2018-08-06 10:40:00,101828.66,N,,KGOO 061040Z AUTO 01004KT 5SM CLR 19/03 A3007 RMK AO1,,3.0,,,2.94,5.0,,,1.0,1.0,90740.69,34.54,2.06,101415.28,19.0,10.0,KGOO,3154,-121.003083,39.224028
393,2018-08-06 11:00:00,101828.66,NNE,,KGOO 061100Z AUTO 02003KT 10SM CLR 19/04 A3007 RMK AO1,,4.0,,,3.94,10.0,,,1.0,1.0,90740.69,37.07,1.54,101415.24,19.0,20.0,KGOO,3154,-121.003083,39.224028
394,2018-08-06 11:20:00,101794.79,N,,KGOO 061120Z AUTO 00000KT 10SM CLR 19/04 A3006 RMK AO1,,4.0,,,3.94,10.0,,,1.0,1.0,90710.51,37.07,0.0,101381.51,19.0,0.0,KGOO,3154,-121.003083,39.224028
395,2018-08-06 11:40:00,101794.79,N,,KGOO 061140Z AUTO 00000KT 10SM CLR 19/03 A3006 RMK AO1,,3.0,,,2.94,10.0,,,1.0,1.0,90710.51,34.54,0.0,101381.55,19.0,0.0,KGOO,3154,-121.003083,39.224028
396,2018-08-06 12:00:00,101794.79,N,,KGOO 061200Z AUTO 00000KT 9SM CLR 19/03 A3006 RMK AO1,,3.0,,,2.94,9.0,,,1.0,1.0,90710.51,34.54,0.0,101381.55,19.0,0.0,KGOO,3154,-121.003083,39.224028
397,2018-08-06 12:20:00,101828.66,N,,KGOO 061220Z AUTO 00000KT 10SM CLR 19/03 A3007 RMK AO1,,3.0,,,2.94,10.0,,,1.0,1.0,90740.69,34.54,0.0,101415.28,19.0,0.0,KGOO,3154,-121.003083,39.224028
398,2018-08-06 12:40:00,101828.66,N,,KGOO 061240Z AUTO 00000KT 10SM CLR 19/03 A3007 RMK AO1,,3.0,,,2.94,10.0,,,1.0,1.0,90740.69,34.54,0.0,101415.28,19.0,0.0,KGOO,3154,-121.003083,39.224028
399,2018-08-06 13:00:00,101828.66,N,,KGOO 061300Z AUTO 00000KT 10SM CLR 19/03 A3007 RMK AO1,,3.0,,,2.94,10.0,,,1.0,1.0,90740.69,34.54,0.0,101415.28,19.0,0.0,KGOO,3154,-121.003083,39.224028
400,2018-08-06 13:20:00,101828.66,N,,KGOO 061320Z AUTO 00000KT 10SM CLR 18/03 A3007 RMK AO1,,3.0,,,2.93,10.0,,,1.0,1.0,90740.69,36.77,0.0,101453.61,18.0,0.0,KGOO,3154,-121.003083,39.224028
401,2018-08-06 13:40:00,101862.52,N,,KGOO 061340Z AUTO 00000KT 10SM CLR 19/03 A3008 RMK AO1,,3.0,,,2.94,10.0,,,1.0,1.0,90770.86,34.54,0.0,101449.0,19.0,0.0,KGOO,3154,-121.003083,39.224028
402,2018-08-06 14:00:00,101896.38,N,,KGOO 061400Z AUTO 00000KT 10SM CLR 20/03 A3009 RMK AO1,,3.0,,,2.94,10.0,,,1.0,1.0,90801.04,32.46,0.0,101444.64,20.0,0.0,KGOO,3154,-121.003083,39.224028
403,2018-08-06 14:20:00,101896.38,N,,KGOO 061420Z AUTO 00000KT 10SM CLR 20/04 A3009 RMK AO1,,4.0,,,3.95,10.0,,,1.0,1.0,90801.04,34.84,0.0,101444.61,20.0,0.0,KGOO,3154,-121.003083,39.224028
404,2018-08-06 14:40:00,101930.25,N,,KGOO 061440Z AUTO 00000KT 10SM CLR 22/05 A3010 RMK AO1,,5.0,,,4.97,10.0,,,1.0,1.0,90831.22,33.05,0.0,101402.9,22.0,0.0,KGOO,3154,-121.003083,39.224028
405,2018-08-06 15:00:00,101930.25,N,,KGOO 061500Z AUTO 00000KT 10SM CLR 23/06 A3010 RMK AO1,,6.0,,,5.98,10.0,,,1.0,1.0,90831.22,33.34,0.0,101365.56,23.0,0.0,KGOO,3154,-121.003083,39.224028
406,2018-08-06 15:20:00,101930.25,N,,KGOO 061520Z AUTO 00000KT 10SM CLR 24/02 A3010 RMK AO1,,2.0,,,2.0,10.0,,,1.0,1.0,90831.22,23.7,0.0,101328.67,24.0,0.0,KGOO,3154,-121.003083,39.224028
407,2018-08-06 15:40:00,101964.11,N,,KGOO 061540Z AUTO 35003KT 10SM CLR 24/02 A3011 RMK AO1,,2.0,,,2.0,10.0,,,1.0,1.0,90861.39,23.7,1.54,101362.32,24.0,350.0,KGOO,3154,-121.003083,39.224028
408,2018-08-06 16:00:00,101964.11,NNW,,KGOO 061600Z AUTO 34003KT 10SM CLR 24/01 A3011 RMK AO1,,1.0,,,1.0,10.0,,,1.0,1.0,90861.39,22.06,1.54,101362.35,24.0,340.0,KGOO,3154,-121.003083,39.224028
409,2018-08-06 16:20:00,101964.11,N,,KGOO 061620Z AUTO 35003KT 10SM CLR 24/02 A3011 RMK AO1,,2.0,,,2.0,10.0,,,1.0,1.0,90861.39,23.7,1.54,101362.32,24.0,350.0,KGOO,3154,-121.003083,39.224028
410,2018-08-06 16:40:00,101964.11,NW,,KGOO 061640Z AUTO 31003KT 10SM CLR 25/02 A3011 RMK AO1,,2.0,,,2.02,10.0,,,1.0,1.0,90861.39,22.33,1.54,101325.54,25.0,310.0,KGOO,3154,-121.003083,39.224028
411,2018-08-06 17:00:00,101964.11,NW,,KGOO 061700Z AUTO 32004KT 10SM CLR 25/03 A3011 RMK AO1,,3.0,,,3.01,10.0,,,1.0,1.0,90861.39,23.97,2.06,101325.5,25.0,320.0,KGOO,3154,-121.003083,39.224028
412,2018-08-06 17:20:00,101964.11,NW,,KGOO 061720Z AUTO 32004KT 10SM CLR 25/03 A3011 RMK AO1,,3.0,,,3.01,10.0,,,1.0,1.0,90861.39,23.97,2.06,101325.5,25.0,320.0,KGOO,3154,-121.003083,39.224028
413,2018-08-06 17:40:00,101964.11,NNW,,KGOO 061740Z AUTO 33004KT 10SM CLR 26/02 A3011 RMK AO1,,2.0,,,2.03,10.0,,,1.0,1.0,90861.39,21.04,2.06,101289.0,26.0,330.0,KGOO,3154,-121.003083,39.224028
414,2018-08-06 18:00:00,101964.11,WNW,,KGOO 061800Z AUTO 30005KT 10SM CLR 27/02 A3011 RMK AO1,,2.0,,,2.05,10.0,,26.27,1.0,1.0,90861.39,19.84,2.57,101252.73,27.0,300.0,KGOO,3154,-121.003083,39.224028
415,2018-08-06 18:20:00,101964.11,NNW,,KGOO 061820Z AUTO 33004KT 10SM CLR 27/01 A3011 RMK AO1,,1.0,,,1.06,10.0,,26.24,1.0,1.0,90861.39,18.47,2.06,101252.76,27.0,330.0,KGOO,3154,-121.003083,39.224028
416,2018-08-06 18:40:00,101964.11,NW,,KGOO 061840Z AUTO 31005KT 10SM CLR 28/02 A3011 RMK AO1,,2.0,,,2.07,10.0,,26.71,1.0,1.0,90861.39,18.72,2.57,101216.7,28.0,310.0,KGOO,3154,-121.003083,39.224028
417,2018-08-06 19:00:00,101964.11,N,,KGOO 061900Z AUTO 00000KT 10SM CLR 27/02 A3011 RMK AO1,,2.0,,,2.05,10.0,,26.27,1.0,1.0,90861.39,19.84,0.0,101252.73,27.0,0.0,KGOO,3154,-121.003083,39.224028
418,2018-08-06 19:20:00,101964.11,NW,,KGOO 061920Z AUTO 31005KT 10SM CLR 28/01 A3011 RMK AO1,,1.0,,,1.08,10.0,,26.69,1.0,1.0,90861.39,17.42,2.57,101216.73,28.0,310.0,KGOO,3154,-121.003083,39.224028
419,2018-08-06 19:40:00,101964.11,NW,,KGOO 061940Z AUTO 32004KT 10SM CLR 28/00 A3011 RMK AO1,,0.0,,,0.08,10.0,,26.67,1.0,1.0,90861.39,16.2,2.06,101216.76,28.0,320.0,KGOO,3154,-121.003083,39.224028
420,2018-08-06 20:00:00,101964.11,W,,KGOO 062000Z AUTO 27003KT 10SM CLR 28/01 A3011 RMK AO1,,1.0,,,1.08,10.0,,26.69,1.0,1.0,90861.39,17.42,1.54,101216.73,28.0,270.0,KGOO,3154,-121.003083,39.224028
421,2018-08-06 20:20:00,101930.25,WNW,,KGOO 062020Z AUTO 29006KT 10SM CLR 28/00 A3010 RMK AO1,,0.0,,,0.08,10.0,,26.67,1.0,1.0,90831.22,16.2,3.09,101183.15,28.0,290.0,KGOO,3154,-121.003083,39.224028
422,2018-08-06 20:40:00,101930.25,NNW,,KGOO 062040Z AUTO 34003KT 10SM CLR 29/01 A3010 RMK AO1,,1.0,,,1.1,10.0,,27.39,1.0,1.0,90831.22,16.44,1.54,101147.36,29.0,340.0,KGOO,3154,-121.003083,39.224028
423,2018-08-06 21:00:00,101896.38,N,,KGOO 062100Z AUTO 35005KT 10SM CLR 29/01 A3009 RMK AO1,,1.0,,,1.1,10.0,,27.39,1.0,1.0,90801.04,16.44,2.57,101113.75,29.0,350.0,KGOO,3154,-121.003083,39.224028
424,2018-08-06 21:20:00,101896.38,WSW,,KGOO 062120Z AUTO 25005KT 10SM CLR 29/02 A3009 RMK AO1,,2.0,,,2.09,10.0,,27.41,1.0,1.0,90801.04,17.66,2.57,101113.72,29.0,250.0,KGOO,3154,-121.003083,39.224028
425,2018-08-06 21:40:00,101896.38,WSW,,KGOO 062140Z AUTO 24005KT 10SM CLR 29/03 A3009 RMK AO1,,3.0,,,3.09,10.0,,27.44,1.0,1.0,90801.04,18.97,2.57,101113.69,29.0,240.0,KGOO,3154,-121.003083,39.224028
426,2018-08-06 22:00:00,101896.38,W,,KGOO 062200Z AUTO 26004KT 10SM CLR 30/03 A3009 RMK AO1,,3.0,,,3.11,10.0,,28.18,1.0,1.0,90801.04,17.91,2.06,101078.18,30.0,260.0,KGOO,3154,-121.003083,39.224028
427,2018-08-06 22:20:00,101896.38,SW,,KGOO 062220Z AUTO 22003KT 10SM CLR 30/02 A3009 RMK AO1,,2.0,,,2.12,10.0,,28.16,1.0,1.0,90801.04,16.68,1.54,101078.21,30.0,220.0,KGOO,3154,-121.003083,39.224028
428,2018-08-06 22:40:00,101896.38,W,,KGOO 062240Z AUTO 27005KT 10SM CLR 30/01 A3009 RMK AO1,,1.0,,,1.12,10.0,,28.15,1.0,1.0,90801.04,15.52,2.57,101078.24,30.0,270.0,KGOO,3154,-121.003083,39.224028
429,2018-08-06 23:00:00,101862.52,SW,,KGOO 062300Z AUTO 22003KT 10SM CLR 30/02 A3008 RMK AO1,,2.0,,,2.12,10.0,,28.16,1.0,1.0,90770.86,16.68,1.54,101044.62,30.0,220.0,KGOO,3154,-121.003083,39.224028
430,2018-08-06 23:20:00,101862.52,N,,KGOO 062320Z AUTO 00000KT 10SM CLR 30/00 A3008 RMK AO1,,0.0,,,0.13,10.0,,28.14,1.0,1.0,90770.86,14.44,0.0,101044.67,30.0,0.0,KGOO,3154,-121.003083,39.224028
431,2018-08-06 23:40:00,101862.52,W,,KGOO 062340Z AUTO 28005KT 10SM CLR 30/03 A3008 RMK AO1,,3.0,,,3.11,10.0,,28.18,1.0,1.0,90770.86,17.91,2.57,101044.58,30.0,280.0,KGOO,3154,-121.003083,39.224028
432,2018-08-07 00:00:00,101862.52,SW,,KGOO 070000Z AUTO 23003KT 10SM CLR 30/03 A3008 RMK AO1,,3.0,,,3.11,10.0,,28.18,1.0,1.0,90770.86,17.91,1.54,101044.58,30.0,230.0,KGOO,3154,-121.003083,39.224028
433,2018-08-07 00:20:00,101828.66,WSW,,KGOO 070020Z AUTO 24004KT 10SM CLR 29/03 A3007 RMK AO1,,3.0,,,3.09,10.0,,27.44,1.0,1.0,90740.69,18.97,2.06,101046.48,29.0,240.0,KGOO,3154,-121.003083,39.224028
434,2018-08-07 00:40:00,101828.66,N,,KGOO 070040Z AUTO 00000KT 10SM CLR 29/04 A3007 RMK AO1,,4.0,,,4.08,10.0,,27.47,1.0,1.0,90740.69,20.35,0.0,101046.45,29.0,0.0,KGOO,3154,-121.003083,39.224028
435,2018-08-07 01:00:00,101828.66,SW,,KGOO 070100Z AUTO 23003KT 10SM CLR 28/04 A3007 RMK AO1,,4.0,,,4.06,10.0,,26.78,1.0,1.0,90740.69,21.57,1.54,101082.18,28.0,230.0,KGOO,3154,-121.003083,39.224028
436,2018-08-07 01:20:00,101794.79,SW,,KGOO 070120Z AUTO 22004KT 10SM CLR 28/06 A3006 RMK AO1,,6.0,,,6.05,10.0,,26.88,1.0,1.0,90710.51,24.79,2.06,101048.49,28.0,220.0,KGOO,3154,-121.003083,39.224028
437,2018-08-07 01:40:00,101794.79,WSW,,KGOO 070140Z AUTO 25003KT 10SM CLR 28/07 A3006 RMK AO1,,7.0,,,7.05,10.0,,26.95,1.0,1.0,90710.51,26.56,1.54,101048.45,28.0,250.0,KGOO,3154,-121.003083,39.224028
438,2018-08-07 02:00:00,101794.79,W,,KGOO 070200Z AUTO 26004KT 10SM CLR 27/07 A3006 RMK AO1,,7.0,,,7.03,10.0,,26.49,1.0,1.0,90710.51,28.15,2.06,101084.41,27.0,260.0,KGOO,3154,-121.003083,39.224028
439,2018-08-07 02:20:00,101794.79,N,,KGOO 070220Z AUTO 00000KT 10SM CLR 27/07 A3006 RMK AO1,,7.0,,,7.03,10.0,,26.49,1.0,1.0,90710.51,28.15,0.0,101084.41,27.0,0.0,KGOO,3154,-121.003083,39.224028
440,2018-08-07 02:40:00,101794.79,N,,KGOO 070240Z AUTO 00000KT 10SM CLR 26/09 A3006 RMK AO1,,9.0,,,9.01,10.0,,,1.0,1.0,90710.51,34.21,0.0,101120.54,26.0,0.0,KGOO,3154,-121.003083,39.224028
441,2018-08-07 03:00:00,101828.66,N,,KGOO 070300Z AUTO 00000KT 10SM CLR 25/09 A3007 RMK AO1,,9.0,,,9.0,10.0,,,1.0,1.0,90740.69,36.3,0.0,101190.67,25.0,0.0,KGOO,3154,-121.003083,39.224028
442,2018-08-07 03:20:00,101828.66,N,,KGOO 070320Z AUTO 00000KT 10SM CLR 24/09 A3007 RMK AO1,,9.0,,,8.99,10.0,,,1.0,1.0,90740.69,38.53,0.0,101227.4,24.0,0.0,KGOO,3154,-121.003083,39.224028
443,2018-08-07 03:40:00,101828.66,N,,KGOO 070340Z AUTO 00000KT 10SM CLR 23/09 A3007 RMK AO1,,9.0,,,8.98,10.0,,,1.0,1.0,90740.69,40.92,0.0,101264.4,23.0,0.0,KGOO,3154,-121.003083,39.224028
444,2018-08-07 04:00:00,101828.66,NE,,KGOO 070400Z AUTO 05003KT 10SM CLR 23/09 A3007 RMK AO1,,9.0,,,8.98,10.0,,,1.0,1.0,90740.69,40.92,1.54,101264.4,23.0,50.0,KGOO,3154,-121.003083,39.224028
445,2018-08-07 04:20:00,101828.66,ENE,,KGOO 070420Z AUTO 06003KT 10SM CLR 23/09 A3007 RMK AO1,,9.0,,,8.98,10.0,,,1.0,1.0,90740.69,40.92,1.54,101264.4,23.0,60.0,KGOO,3154,-121.003083,39.224028
446,2018-08-07 04:40:00,101828.66,E,,KGOO 070440Z AUTO 09004KT 10SM CLR 23/08 A3007 RMK AO1,,8.0,,,7.98,10.0,,,1.0,1.0,90740.69,38.24,2.06,101264.45,23.0,90.0,KGOO,3154,-121.003083,39.224028
447,2018-08-07 05:00:00,101828.66,E,,KGOO 070500Z AUTO 09004KT 10SM CLR 23/08 A3007 RMK AO1,,8.0,,,7.98,10.0,,,1.0,1.0,90740.69,38.24,2.06,101264.45,23.0,90.0,KGOO,3154,-121.003083,39.224028
448,2018-08-07 05:20:00,101828.66,E,,KGOO 070520Z AUTO 08004KT 10SM CLR 23/07 A3007 RMK AO1,,7.0,,,6.98,10.0,,,1.0,1.0,90740.69,35.72,2.06,101264.49,23.0,80.0,KGOO,3154,-121.003083,39.224028
449,2018-08-07 05:40:00,101794.79,E,,KGOO 070540Z AUTO 09003KT 10SM CLR 23/08 A3006 RMK AO1,,8.0,,,7.98,10.0,,,1.0,1.0,90710.51,38.24,1.54,101230.77,23.0,90.0,KGOO,3154,-121.003083,39.224028
450,2018-08-07 06:00:00,101794.79,E,,KGOO 070600Z AUTO 09004KT 10SM CLR 23/07 A3006 RMK AO1,,7.0,,,6.98,10.0,,,1.0,1.0,90710.51,35.72,2.06,101230.81,23.0,90.0,KGOO,3154,-121.003083,39.224028
451,2018-08-07 06:20:00,101794.79,E,,KGOO 070620Z AUTO 09003KT 10SM CLR 23/07 A3006 RMK AO1,,7.0,,,6.98,10.0,,,1.0,1.0,90710.51,35.72,1.54,101230.81,23.0,90.0,KGOO,3154,-121.003083,39.224028
452,2018-08-07 06:40:00,101760.93,E,,KGOO 070640Z AUTO 08003KT 10SM CLR 22/07 A3005 RMK AO1,,7.0,,,6.97,10.0,,,1.0,1.0,90680.34,37.95,1.54,101234.38,22.0,80.0,KGOO,3154,-121.003083,39.224028
453,2018-08-07 07:00:00,101760.93,N,,KGOO 070700Z AUTO 00000KT 10SM CLR 23/07 A3005 RMK AO1,,7.0,,,6.98,10.0,,,1.0,1.0,90680.34,35.72,0.0,101197.14,23.0,0.0,KGOO,3154,-121.003083,39.224028
454,2018-08-07 07:20:00,101760.93,N,,KGOO 070720Z AUTO 00000KT 10SM CLR 22/07 A3005 RMK AO1,,7.0,,,6.97,10.0,,,1.0,1.0,90680.34,37.95,0.0,101234.38,22.0,0.0,KGOO,3154,-121.003083,39.224028
455,2018-08-07 07:40:00,101760.93,N,,KGOO 070740Z AUTO 36003KT 10SM CLR 22/07 A3005 RMK AO1,,7.0,,,6.97,10.0,,,1.0,1.0,90680.34,37.95,1.54,101234.38,22.0,360.0,KGOO,3154,-121.003083,39.224028
456,2018-08-07 08:00:00,101727.07,N,,KGOO 070800Z AUTO 36004KT 10SM CLR 22/07 A3004 RMK AO1,,7.0,,,6.97,10.0,,,1.0,1.0,90650.16,37.95,2.06,101200.68,22.0,360.0,KGOO,3154,-121.003083,39.224028
457,2018-08-07 08:20:00,101727.07,N,,KGOO 070820Z AUTO 00000KT 10SM CLR 23/06 A3004 RMK AO1,,6.0,,,5.98,10.0,,,1.0,1.0,90650.16,33.34,0.0,101163.5,23.0,0.0,KGOO,3154,-121.003083,39.224028
458,2018-08-07 08:40:00,101693.2,NNE,,KGOO 070840Z AUTO 02003KT 10SM CLR 23/06 A3003 RMK AO1,,6.0,,,5.98,10.0,,,1.0,1.0,90619.98,33.34,1.54,101129.82,23.0,20.0,KGOO,3154,-121.003083,39.224028
459,2018-08-07 09:00:00,101693.2,N,,KGOO 070900Z AUTO 01003KT 10SM CLR 23/06 A3003 RMK AO1,,6.0,,,5.98,10.0,,,1.0,1.0,90619.98,33.34,1.54,101129.82,23.0,10.0,KGOO,3154,-121.003083,39.224028
460,2018-08-07 09:20:00,101659.34,N,,KGOO 070920Z AUTO 00000KT 10SM CLR 23/06 A3002 RMK AO1,,6.0,,,5.98,10.0,,,1.0,1.0,90589.81,33.34,0.0,101096.15,23.0,0.0,KGOO,3154,-121.003083,39.224028
461,2018-08-07 09:40:00,101659.34,N,,KGOO 070940Z AUTO 00000KT 10SM CLR 22/07 A3002 RMK AO1,,7.0,,,6.97,10.0,,,1.0,1.0,90589.81,37.95,0.0,101133.31,22.0,0.0,KGOO,3154,-121.003083,39.224028
462,2018-08-07 10:00:00,101625.47,N,,KGOO 071000Z AUTO 00000KT 10SM CLR 22/07 A3001 RMK AO1,,7.0,,,6.97,10.0,,,1.0,1.0,90559.63,37.95,0.0,101099.62,22.0,0.0,KGOO,3154,-121.003083,39.224028
463,2018-08-07 10:20:00,101625.47,N,,KGOO 071020Z AUTO 00000KT 10SM CLR 22/07 A3001 RMK AO1,,7.0,,,6.97,10.0,,,1.0,1.0,90559.63,37.95,0.0,101099.62,22.0,0.0,KGOO,3154,-121.003083,39.224028
464,2018-08-07 10:40:00,101625.47,N,,KGOO 071040Z AUTO 00000KT 10SM CLR 22/07 A3001 RMK AO1,,7.0,,,6.97,10.0,,,1.0,1.0,90559.63,37.95,0.0,101099.62,22.0,0.0,KGOO,3154,-121.003083,39.224028
465,2018-08-07 11:00:00,101625.47,N,,KGOO 071100Z AUTO 00000KT 10SM CLR 22/07 A3001 RMK AO1,,7.0,,,6.97,10.0,,,1.0,1.0,90559.63,37.95,0.0,101099.62,22.0,0.0,KGOO,3154,-121.003083,39.224028
466,2018-08-07 11:20:00,101625.47,N,,KGOO 071120Z AUTO 00000KT 10SM CLR 21/07 A3001 RMK AO1,,7.0,,,6.96,10.0,,,1.0,1.0,90559.63,40.34,0.0,101137.06,21.0,0.0,KGOO,3154,-121.003083,39.224028
467,2018-08-07 11:40:00,101625.47,N,,KGOO 071140Z AUTO 00000KT 10SM CLR 22/07 A3001 RMK AO1,,7.0,,,6.97,10.0,,,1.0,1.0,90559.63,37.95,0.0,101099.62,22.0,0.0,KGOO,3154,-121.003083,39.224028
468,2018-08-07 12:00:00,101625.47,N,,KGOO 071200Z AUTO 00000KT 10SM CLR 21/07 A3001 RMK AO1,,7.0,,,6.96,10.0,,,1.0,1.0,90559.63,40.34,0.0,101137.06,21.0,0.0,KGOO,3154,-121.003083,39.224028
469,2018-08-07 12:20:00,101659.34,N,,KGOO 071220Z AUTO 00000KT 10SM CLR 20/07 A3002 RMK AO1,,7.0,,,6.95,10.0,,,1.0,1.0,90589.81,42.9,0.0,101208.5,20.0,0.0,KGOO,3154,-121.003083,39.224028
470,2018-08-07 12:40:00,101659.34,N,,KGOO 071240Z AUTO 00000KT 10SM CLR 20/07 A3002 RMK AO1,,7.0,,,6.95,10.0,,,1.0,1.0,90589.81,42.9,0.0,101208.5,20.0,0.0,KGOO,3154,-121.003083,39.224028
471,2018-08-07 13:00:00,101659.34,N,,KGOO 071300Z AUTO 00000KT 10SM CLR 20/07 A3002 RMK AO1,,7.0,,,6.95,10.0,,,1.0,1.0,90589.81,42.9,0.0,101208.5,20.0,0.0,KGOO,3154,-121.003083,39.224028
472,2018-08-07 13:20:00,101659.34,N,,KGOO 071320Z AUTO 00000KT 10SM CLR 20/08 A3002 RMK AO1,,8.0,,,7.95,10.0,,,1.0,1.0,90589.81,45.93,0.0,101208.45,20.0,0.0,KGOO,3154,-121.003083,39.224028
473,2018-08-07 13:40:00,101659.34,N,,KGOO 071340Z AUTO 00000KT 10SM CLR 20/08 A3002 RMK AO1,,8.0,,,7.95,10.0,,,1.0,1.0,90589.81,45.93,0.0,101208.45,20.0,0.0,KGOO,3154,-121.003083,39.224028
474,2018-08-07 14:00:00,101659.34,N,,KGOO 071400Z AUTO 00000KT 10SM CLR 20/08 A3002 RMK AO1,,8.0,,,7.95,10.0,,,1.0,1.0,90589.81,45.93,0.0,101208.45,20.0,0.0,KGOO,3154,-121.003083,39.224028
475,2018-08-07 14:20:00,101659.34,N,,KGOO 071420Z AUTO 00000KT 10SM CLR 21/09 A3002 RMK AO1,,9.0,,,8.96,10.0,,,1.0,1.0,90589.81,46.22,0.0,101170.68,21.0,0.0,KGOO,3154,-121.003083,39.224028
476,2018-08-07 14:40:00,101693.2,N,,KGOO 071440Z AUTO 00000KT 10SM CLR 22/09 A3003 RMK AO1,,9.0,,,8.97,10.0,,,1.0,1.0,90619.98,43.48,0.0,101166.9,22.0,0.0,KGOO,3154,-121.003083,39.224028
477,2018-08-07 15:00:00,101693.2,N,,KGOO 071500Z AUTO 00000KT 10SM CLR 22/10 A3003 RMK AO1,,10.0,,,9.97,10.0,,,1.0,1.0,90619.98,46.5,0.0,101166.85,22.0,0.0,KGOO,3154,-121.003083,39.224028
478,2018-08-07 15:20:00,101727.07,N,,KGOO 071520Z AUTO 00000KT 10SM CLR 23/09 A3004 RMK AO1,,9.0,,,8.98,10.0,,,1.0,1.0,90650.16,40.92,0.0,101163.37,23.0,0.0,KGOO,3154,-121.003083,39.224028
479,2018-08-07 15:40:00,101727.07,N,,KGOO 071540Z AUTO 00000KT 10SM CLR 24/07 A3004 RMK AO1,,7.0,,,6.99,10.0,,,1.0,1.0,90650.16,33.63,0.0,101126.5,24.0,0.0,KGOO,3154,-121.003083,39.224028
480,2018-08-07 16:00:00,101727.07,N,,KGOO 071600Z AUTO 00000KT 10SM CLR 24/07 A3004 RMK AO1,,7.0,,,6.99,10.0,,,1.0,1.0,90650.16,33.63,0.0,101126.5,24.0,0.0,KGOO,3154,-121.003083,39.224028
481,2018-08-07 16:20:00,101693.2,N,,KGOO 071620Z AUTO 00000KT 10SM CLR 24/07 A3003 RMK AO1,,7.0,,,6.99,10.0,,,1.0,1.0,90619.98,33.63,0.0,101092.83,24.0,0.0,KGOO,3154,-121.003083,39.224028
482,2018-08-07 16:40:00,101693.2,N,,KGOO 071640Z AUTO 00000KT 10SM CLR 25/07 A3003 RMK AO1,,7.0,,,7.0,10.0,,,1.0,1.0,90619.98,31.68,0.0,101056.14,25.0,0.0,KGOO,3154,-121.003083,39.224028
483,2018-08-07 17:00:00,101693.2,N,,KGOO 071700Z AUTO 00000KT 10SM CLR 25/07 A3003 RMK AO1,,7.0,,,7.0,10.0,,,1.0,1.0,90619.98,31.68,0.0,101056.14,25.0,0.0,KGOO,3154,-121.003083,39.224028
484,2018-08-07 17:20:00,101659.34,N,,KGOO 071720Z AUTO 00000KT 10SM CLR 25/06 A3002 RMK AO1,,6.0,,,6.0,10.0,,,1.0,1.0,90589.81,29.57,0.0,101022.54,25.0,0.0,KGOO,3154,-121.003083,39.224028
485,2018-08-07 17:40:00,101659.34,N,,KGOO 071740Z AUTO 00000KT 10SM CLR 26/08 A3002 RMK AO1,,8.0,,,8.01,10.0,,,1.0,1.0,90589.81,31.97,0.0,100986.03,26.0,0.0,KGOO,3154,-121.003083,39.224028
486,2018-08-07 18:00:00,101659.34,N,,KGOO 071800Z AUTO 00000KT 10SM CLR 27/07 A3002 RMK AO1,,7.0,,,7.03,10.0,,26.49,1.0,1.0,90589.81,28.15,0.0,100949.91,27.0,0.0,KGOO,3154,-121.003083,39.224028
487,2018-08-07 18:20:00,101659.34,W,,KGOO 071820Z AUTO 26003KT 10SM CLR 28/06 A3002 RMK AO1,,6.0,,,6.05,10.0,,26.88,1.0,1.0,90589.81,24.79,1.54,100914.03,28.0,260.0,KGOO,3154,-121.003083,39.224028
488,2018-08-07 18:40:00,101659.34,WSW,,KGOO 071840Z AUTO 24003KT 10SM CLR 28/08 A3002 RMK AO1,,8.0,,,8.04,10.0,,27.03,1.0,1.0,90589.81,28.43,1.54,100913.95,28.0,240.0,KGOO,3154,-121.003083,39.224028
489,2018-08-07 19:00:00,101659.34,N,,KGOO 071900Z AUTO 00000KT 10SM CLR 28/09 A3002 RMK AO1,,9.0,,,9.04,10.0,,27.12,1.0,1.0,90589.81,30.43,0.0,100913.9,28.0,0.0,KGOO,3154,-121.003083,39.224028
490,2018-08-07 19:20:00,101625.47,NW,,KGOO 071920Z AUTO 31005KT 10SM CLR 28/09 A3001 RMK AO1,,9.0,,,9.04,10.0,,27.12,1.0,1.0,90559.63,30.43,2.57,100880.28,28.0,310.0,KGOO,3154,-121.003083,39.224028
491,2018-08-07 19:40:00,101625.47,W,,KGOO 071940Z AUTO 26005KT 10SM CLR 29/09 A3001 RMK AO1,,9.0,,,9.05,10.0,,27.8,1.0,1.0,90559.63,28.71,2.57,100844.63,29.0,260.0,KGOO,3154,-121.003083,39.224028
492,2018-08-07 20:00:00,101625.47,SSW,,KGOO 072000Z AUTO 21004KT 10SM CLR 29/09 A3001 RMK AO1,,9.0,,,9.05,10.0,,27.8,1.0,1.0,90559.63,28.71,2.06,100844.63,29.0,210.0,KGOO,3154,-121.003083,39.224028
493,2018-08-07 20:20:00,101625.47,W,,KGOO 072020Z AUTO 26005KT 10SM CLR 29/09 A3001 RMK AO1,,9.0,,,9.05,10.0,,27.8,1.0,1.0,90559.63,28.71,2.57,100844.63,29.0,260.0,KGOO,3154,-121.003083,39.224028
494,2018-08-07 20:40:00,101625.47,WSW,,KGOO 072040Z AUTO 25004KT 10SM CLR 29/09 A3001 RMK AO1,,9.0,,,9.05,10.0,,27.8,1.0,1.0,90559.63,28.71,2.06,100844.63,29.0,250.0,KGOO,3154,-121.003083,39.224028
495,2018-08-07 21:00:00,101591.61,SW,,KGOO 072100Z AUTO 23003KT 10SM CLR 29/09 A3000 RMK AO1,,9.0,,,9.05,10.0,,27.8,1.0,1.0,90529.45,28.71,1.54,100811.02,29.0,230.0,KGOO,3154,-121.003083,39.224028
496,2018-08-07 21:20:00,101591.61,WSW,,KGOO 072120Z AUTO 25005KT 10SM CLR 30/09 A3000 RMK AO1,,9.0,,,9.07,10.0,,28.56,1.0,1.0,90529.45,27.11,2.57,100775.62,30.0,250.0,KGOO,3154,-121.003083,39.224028
497,2018-08-07 21:40:00,101591.61,N,,KGOO 072140Z AUTO 00000KT 10SM CLR 31/09 A3000 RMK AO1,,9.0,,,9.1,10.0,,29.38,1.0,1.0,90529.45,25.61,0.0,100740.46,31.0,0.0,KGOO,3154,-121.003083,39.224028
498,2018-08-07 22:00:00,101591.61,WSW,,KGOO 072200Z AUTO 24004KT 10SM CLR 30/09 A3000 RMK AO1,,9.0,,,9.07,10.0,,28.56,1.0,1.0,90529.45,27.11,2.06,100775.62,30.0,240.0,KGOO,3154,-121.003083,39.224028
499,2018-08-07 22:20:00,101557.75,SW,,KGOO 072220Z AUTO 23006KT 9SM CLR 30/09 A2999 RMK AO1,,9.0,,,9.07,9.0,,28.56,1.0,1.0,90499.28,27.11,3.09,100742.03,30.0,230.0,KGOO,3154,-121.003083,39.224028
500,2018-08-07 22:40:00,101557.75,WSW,,KGOO 072240Z AUTO 24007KT 10SM CLR 30/09 A2999 RMK AO1,,9.0,,,9.07,10.0,,28.56,1.0,1.0,90499.28,27.11,3.6,100742.03,30.0,240.0,KGOO,3154,-121.003083,39.224028
501,2018-08-07 23:00:00,101557.75,SSW,,KGOO 072300Z AUTO 20003KT 10SM CLR 30/09 A2999 RMK AO1,,9.0,,,9.07,10.0,,28.56,1.0,1.0,90499.28,27.11,1.54,100742.03,30.0,200.0,KGOO,3154,-121.003083,39.224028
502,2018-08-07 23:20:00,101523.88,SSE,,KGOO 072320Z AUTO 16004KT 10SM CLR 30/08 A2998 RMK AO1,,8.0,,,8.08,10.0,,28.46,1.0,1.0,90469.1,25.33,2.06,100708.48,30.0,160.0,KGOO,3154,-121.003083,39.224028
503,2018-08-07 23:40:00,101523.88,N,,KGOO 072340Z AUTO 00000KT 10SM CLR 31/09 A2998 RMK AO1,,9.0,,,9.1,10.0,,29.38,1.0,1.0,90469.1,25.61,0.0,100673.3,31.0,0.0,KGOO,3154,-121.003083,39.224028
504,2018-08-08 00:00:00,101523.88,WSW,,KGOO 080000Z AUTO 24003KT 10SM CLR 30/08 A2998 RMK AO1,,8.0,,,8.08,10.0,,28.46,1.0,1.0,90469.1,25.33,1.54,100708.48,30.0,240.0,KGOO,3154,-121.003083,39.224028
505,2018-08-08 00:20:00,101523.88,WSW,,KGOO 080020Z AUTO 25004KT 10SM CLR 30/09 A2998 RMK AO1,,9.0,,,9.07,10.0,,28.56,1.0,1.0,90469.1,27.11,2.06,100708.44,30.0,250.0,KGOO,3154,-121.003083,39.224028
506,2018-08-08 00:40:00,101523.88,N,,KGOO 080040Z AUTO 00000KT 10SM CLR 30/09 A2998 RMK AO1,,9.0,,,9.07,10.0,,28.56,1.0,1.0,90469.1,27.11,0.0,100708.44,30.0,0.0,KGOO,3154,-121.003083,39.224028
507,2018-08-08 01:00:00,101523.88,N,,KGOO 080100Z AUTO 00000KT 10SM CLR 29/09 A2998 RMK AO1,,9.0,,,9.05,10.0,,27.8,1.0,1.0,90469.1,28.71,0.0,100743.81,29.0,0.0,KGOO,3154,-121.003083,39.224028
508,2018-08-08 01:20:00,101523.88,N,,KGOO 080120Z AUTO 00000KT 10SM CLR 29/09 A2998 RMK AO1,,9.0,,,9.05,10.0,,27.8,1.0,1.0,90469.1,28.71,0.0,100743.81,29.0,0.0,KGOO,3154,-121.003083,39.224028
509,2018-08-08 01:40:00,101523.88,N,,KGOO 080140Z AUTO 00000KT 10SM CLR 28/08 A2998 RMK AO1,,8.0,,,8.04,10.0,,27.03,1.0,1.0,90469.1,28.43,0.0,100779.48,28.0,0.0,KGOO,3154,-121.003083,39.224028
510,2018-08-08 02:00:00,101523.88,N,,KGOO 080200Z AUTO 00000KT 10SM CLR 28/08 A2998 RMK AO1,,8.0,,,8.04,10.0,,27.03,1.0,1.0,90469.1,28.43,0.0,100779.48,28.0,0.0,KGOO,3154,-121.003083,39.224028
511,2018-08-08 02:20:00,101523.88,N,,KGOO 080220Z AUTO 00000KT 10SM CLR 27/08 A2998 RMK AO1,,8.0,,,8.02,10.0,,26.54,1.0,1.0,90469.1,30.14,0.0,100815.35,27.0,0.0,KGOO,3154,-121.003083,39.224028
512,2018-08-08 02:40:00,101523.88,N,,KGOO 080240Z AUTO 00000KT 10SM CLR 27/09 A2998 RMK AO1,,9.0,,,9.02,10.0,,26.6,1.0,1.0,90469.1,32.25,0.0,100815.3,27.0,0.0,KGOO,3154,-121.003083,39.224028
513,2018-08-08 03:00:00,101523.88,N,,KGOO 080300Z AUTO 00000KT 10SM CLR 26/08 A2998 RMK AO1,,8.0,,,8.01,10.0,,,1.0,1.0,90469.1,31.97,0.0,100851.47,26.0,0.0,KGOO,3154,-121.003083,39.224028
514,2018-08-08 03:20:00,101523.88,N,,KGOO 080320Z AUTO 00000KT 10SM CLR 25/09 A2998 RMK AO1,,9.0,,,9.0,10.0,,,1.0,1.0,90469.1,36.3,0.0,100887.8,25.0,0.0,KGOO,3154,-121.003083,39.224028
515,2018-08-08 03:40:00,101557.75,N,,KGOO 080340Z AUTO 00000KT 10SM CLR 25/09 A2999 RMK AO1,,9.0,,,9.0,10.0,,,1.0,1.0,90499.28,36.3,0.0,100921.45,25.0,0.0,KGOO,3154,-121.003083,39.224028
516,2018-08-08 04:00:00,101557.75,N,,KGOO 080400Z AUTO 00000KT 10SM CLR 24/08 A2999 RMK AO1,,8.0,,,7.99,10.0,,,1.0,1.0,90499.28,36.01,0.0,100958.14,24.0,0.0,KGOO,3154,-121.003083,39.224028
517,2018-08-08 04:20:00,101557.75,N,,KGOO 080420Z AUTO 00000KT 10SM CLR 24/08 A2999 RMK AO1,,8.0,,,7.99,10.0,,,1.0,1.0,90499.28,36.01,0.0,100958.14,24.0,0.0,KGOO,3154,-121.003083,39.224028
518,2018-08-08 04:40:00,101591.61,N,,KGOO 080440Z AUTO 00000KT 10SM CLR 24/08 A3000 RMK AO1,,8.0,,,7.99,10.0,,,1.0,1.0,90529.45,36.01,0.0,100991.8,24.0,0.0,KGOO,3154,-121.003083,39.224028
519,2018-08-08 05:00:00,101591.61,SE,,KGOO 080500Z AUTO 13003KT 10SM CLR 24/08 A3000 RMK AO1,,8.0,,,7.99,10.0,,,1.0,1.0,90529.45,36.01,1.54,100991.8,24.0,130.0,KGOO,3154,-121.003083,39.224028
520,2018-08-08 05:20:00,101591.61,ESE,,KGOO 080520Z AUTO 11004KT 10SM CLR 25/07 A3000 RMK AO1,,7.0,,,7.0,10.0,,,1.0,1.0,90529.45,31.68,2.06,100955.19,25.0,110.0,KGOO,3154,-121.003083,39.224028
521,2018-08-08 05:40:00,101591.61,ESE,,KGOO 080540Z AUTO 12003KT 10SM CLR 24/08 A3000 RMK AO1,,8.0,,,7.99,10.0,,,1.0,1.0,90529.45,36.01,1.54,100991.8,24.0,120.0,KGOO,3154,-121.003083,39.224028
522,2018-08-08 06:00:00,101591.61,N,,KGOO 080600Z AUTO 00000KT 10SM CLR 23/08 A3000 RMK AO1,,8.0,,,7.98,10.0,,,1.0,1.0,90529.45,38.24,0.0,101028.71,23.0,0.0,KGOO,3154,-121.003083,39.224028
523,2018-08-08 06:20:00,101591.61,N,,KGOO 080620Z AUTO 00000KT 10SM CLR 23/08 A3000 RMK AO1,,8.0,,,7.98,10.0,,,1.0,1.0,90529.45,38.24,0.0,101028.71,23.0,0.0,KGOO,3154,-121.003083,39.224028
524,2018-08-08 06:40:00,101591.61,N,,KGOO 080640Z AUTO 00000KT 10SM CLR 23/08 A3000 RMK AO1,,8.0,,,7.98,10.0,,,1.0,1.0,90529.45,38.24,0.0,101028.71,23.0,0.0,KGOO,3154,-121.003083,39.224028
525,2018-08-08 07:00:00,101591.61,E,,KGOO 080700Z AUTO 09003KT 10SM CLR 23/08 A3000 RMK AO1,,8.0,,,7.98,10.0,,,1.0,1.0,90529.45,38.24,1.54,101028.71,23.0,90.0,KGOO,3154,-121.003083,39.224028
526,2018-08-08 07:20:00,101591.61,N,,KGOO 080720Z AUTO 00000KT 10SM CLR 22/08 A3000 RMK AO1,,8.0,,,7.97,10.0,,,1.0,1.0,90529.45,40.63,0.0,101065.88,22.0,0.0,KGOO,3154,-121.003083,39.224028
527,2018-08-08 07:40:00,101591.61,N,,KGOO 080740Z AUTO 00000KT 10SM CLR 22/08 A3000 RMK AO1,,8.0,,,7.97,10.0,,,1.0,1.0,90529.45,40.63,0.0,101065.88,22.0,0.0,KGOO,3154,-121.003083,39.224028
528,2018-08-08 08:00:00,101591.61,N,,KGOO 080800Z AUTO 00000KT 10SM CLR 23/08 A3000 RMK AO1,,8.0,,,7.98,10.0,,,1.0,1.0,90529.45,38.24,0.0,101028.71,23.0,0.0,KGOO,3154,-121.003083,39.224028
529,2018-08-08 08:20:00,101557.75,N,,KGOO 080820Z AUTO 00000KT 10SM CLR 23/07 A2999 RMK AO1,,7.0,,,6.98,10.0,,,1.0,1.0,90499.28,35.72,0.0,100995.08,23.0,0.0,KGOO,3154,-121.003083,39.224028
530,2018-08-08 08:40:00,101557.75,N,,KGOO 080840Z AUTO 00000KT 10SM CLR 23/07 A2999 RMK AO1,,7.0,,,6.98,10.0,,,1.0,1.0,90499.28,35.72,0.0,100995.08,23.0,0.0,KGOO,3154,-121.003083,39.224028
531,2018-08-08 09:00:00,101557.75,ESE,,KGOO 080900Z AUTO 12003KT 10SM CLR 24/08 A2999 RMK AO1,,8.0,,,7.99,10.0,,,1.0,1.0,90499.28,36.01,1.54,100958.14,24.0,120.0,KGOO,3154,-121.003083,39.224028
532,2018-08-08 09:20:00,101557.75,ESE,,KGOO 080920Z AUTO 11004KT 10SM CLR 24/07 A2999 RMK AO1,,7.0,,,6.99,10.0,,,1.0,1.0,90499.28,33.63,2.06,100958.18,24.0,110.0,KGOO,3154,-121.003083,39.224028
533,2018-08-08 09:40:00,101557.75,E,,KGOO 080940Z AUTO 10005KT 10SM CLR 24/07 A2999 RMK AO1,,7.0,,,6.99,10.0,,,1.0,1.0,90499.28,33.63,2.57,100958.18,24.0,100.0,KGOO,3154,-121.003083,39.224028
534,2018-08-08 10:00:00,101557.75,E,,KGOO 081000Z AUTO 10005KT 10SM CLR 24/08 A2999 RMK AO1,,8.0,,,7.99,10.0,,,1.0,1.0,90499.28,36.01,2.57,100958.14,24.0,100.0,KGOO,3154,-121.003083,39.224028
535,2018-08-08 10:20:00,101523.88,E,,KGOO 081020Z AUTO 10004KT 10SM CLR 24/08 A2998 RMK AO1,,8.0,,,7.99,10.0,,,1.0,1.0,90469.1,36.01,2.06,100924.47,24.0,100.0,KGOO,3154,-121.003083,39.224028
536,2018-08-08 10:40:00,101523.88,E,,KGOO 081040Z AUTO 10003KT 10SM CLR 24/08 A2998 RMK AO1,,8.0,,,7.99,10.0,,,1.0,1.0,90469.1,36.01,1.54,100924.47,24.0,100.0,KGOO,3154,-121.003083,39.224028
537,2018-08-08 11:00:00,101523.88,E,,KGOO 081100Z AUTO 10005KT 10SM CLR 24/08 A2998 RMK AO1,,8.0,,,7.99,10.0,,,1.0,1.0,90469.1,36.01,2.57,100924.47,24.0,100.0,KGOO,3154,-121.003083,39.224028
538,2018-08-08 11:20:00,101523.88,E,,KGOO 081120Z AUTO 10004KT 10SM CLR 24/07 A2998 RMK AO1,,7.0,,,6.99,10.0,,,1.0,1.0,90469.1,33.63,2.06,100924.51,24.0,100.0,KGOO,3154,-121.003083,39.224028
539,2018-08-08 11:40:00,101523.88,E,,KGOO 081140Z AUTO 10004KT 10SM CLR 24/07 A2998 RMK AO1,,7.0,,,6.99,10.0,,,1.0,1.0,90469.1,33.63,2.06,100924.51,24.0,100.0,KGOO,3154,-121.003083,39.224028
540,2018-08-08 12:00:00,101523.88,N,,KGOO 081200Z AUTO 00000KT 10SM CLR 24/06 A2998 RMK AO1,,6.0,,,5.99,10.0,,,1.0,1.0,90469.1,31.39,0.0,100924.56,24.0,0.0,KGOO,3154,-121.003083,39.224028
541,2018-08-08 12:20:00,101557.75,N,,KGOO 081220Z AUTO 00000KT 10SM CLR 24/06 A2999 RMK AO1,,6.0,,,5.99,10.0,,,1.0,1.0,90499.28,31.39,0.0,100958.22,24.0,0.0,KGOO,3154,-121.003083,39.224028
542,2018-08-08 12:40:00,101557.75,N,,KGOO 081240Z AUTO 00000KT 10SM CLR 23/07 A2999 RMK AO1,,7.0,,,6.98,10.0,,,1.0,1.0,90499.28,35.72,0.0,100995.08,23.0,0.0,KGOO,3154,-121.003083,39.224028
543,2018-08-08 13:00:00,101591.61,N,,KGOO 081300Z AUTO 00000KT 10SM CLR 23/07 A3000 RMK AO1,,7.0,,,6.98,10.0,,,1.0,1.0,90529.45,35.72,0.0,101028.75,23.0,0.0,KGOO,3154,-121.003083,39.224028
544,2018-08-08 13:20:00,101625.47,N,,KGOO 081320Z AUTO 00000KT 10SM CLR 23/06 A3001 RMK AO1,,6.0,,,5.98,10.0,,,1.0,1.0,90559.63,33.34,0.0,101062.47,23.0,0.0,KGOO,3154,-121.003083,39.224028
545,2018-08-08 13:40:00,101659.34,N,,KGOO 081340Z AUTO 00000KT 10SM CLR 23/06 A3002 RMK AO1,,6.0,,,5.98,10.0,,,1.0,1.0,90589.81,33.34,0.0,101096.15,23.0,0.0,KGOO,3154,-121.003083,39.224028
546,2018-08-08 14:00:00,101693.2,N,,KGOO 081400Z AUTO 00000KT 10SM CLR 22/07 A3003 RMK AO1,,7.0,,,6.97,10.0,,,1.0,1.0,90619.98,37.95,0.0,101166.99,22.0,0.0,KGOO,3154,-121.003083,39.224028
547,2018-08-08 14:20:00,101727.07,N,,KGOO 081420Z AUTO 00000KT 10SM CLR 22/07 A3004 RMK AO1,,7.0,,,6.97,10.0,,,1.0,1.0,90650.16,37.95,0.0,101200.68,22.0,0.0,KGOO,3154,-121.003083,39.224028
548,2018-08-08 14:40:00,101727.07,N,,KGOO 081440Z AUTO 00000KT 10SM CLR 23/08 A3004 RMK AO1,,8.0,,,7.98,10.0,,,1.0,1.0,90650.16,38.24,0.0,101163.42,23.0,0.0,KGOO,3154,-121.003083,39.224028
549,2018-08-08 15:00:00,101760.93,N,,KGOO 081500Z AUTO 00000KT 10SM CLR 23/08 A3005 RMK AO1,,8.0,,,7.98,10.0,,,1.0,1.0,90680.34,38.24,0.0,101197.1,23.0,0.0,KGOO,3154,-121.003083,39.224028
550,2018-08-08 15:20:00,101760.93,N,,KGOO 081520Z AUTO 00000KT 10SM CLR 24/09 A3005 RMK AO1,,9.0,,,8.99,10.0,,,1.0,1.0,90680.34,38.53,0.0,101160.08,24.0,0.0,KGOO,3154,-121.003083,39.224028
551,2018-08-08 15:40:00,101794.79,ESE,,KGOO 081540Z AUTO 11003KT 10SM CLR 24/07 A3006 RMK AO1,,7.0,,,6.99,10.0,,,1.0,1.0,90710.51,33.63,1.54,101193.82,24.0,110.0,KGOO,3154,-121.003083,39.224028
552,2018-08-08 16:00:00,101794.79,N,,KGOO 081600Z AUTO 00000KT 10SM CLR 25/09 A3006 RMK AO1,,9.0,,,9.0,10.0,,,1.0,1.0,90710.51,36.3,0.0,101157.01,25.0,0.0,KGOO,3154,-121.003083,39.224028
553,2018-08-08 16:20:00,101828.66,SE,,KGOO 081620Z AUTO 13005KT 10SM CLR 25/09 A3007 RMK AO1,,9.0,,,9.0,10.0,,,1.0,1.0,90740.69,36.3,2.57,101190.67,25.0,130.0,KGOO,3154,-121.003083,39.224028
554,2018-08-08 16:40:00,101828.66,SE,,KGOO 081640Z AUTO 13003KT 10SM CLR 26/08 A3007 RMK AO1,,8.0,,,8.01,10.0,,,1.0,1.0,90740.69,31.97,1.54,101154.23,26.0,130.0,KGOO,3154,-121.003083,39.224028
555,2018-08-08 17:00:00,101828.66,ESE,,KGOO 081700Z AUTO 12005KT 5SM CLR 27/08 A3007 RMK AO1,,8.0,,,8.02,5.0,,26.54,1.0,1.0,90740.69,30.14,2.57,101118.0,27.0,120.0,KGOO,3154,-121.003083,39.224028
556,2018-08-08 17:20:00,101828.66,SE,,KGOO 081720Z AUTO 13004KT 10SM CLR 27/08 A3007 RMK AO1,,8.0,,,8.02,10.0,,26.54,1.0,1.0,90740.69,30.14,2.06,101118.0,27.0,130.0,KGOO,3154,-121.003083,39.224028
557,2018-08-08 17:40:00,101862.52,SE,,KGOO 081740Z AUTO 13004KT 10SM CLR 28/09 A3008 RMK AO1,,9.0,,,9.04,10.0,,27.12,1.0,1.0,90770.86,30.43,2.06,101115.59,28.0,130.0,KGOO,3154,-121.003083,39.224028
558,2018-08-08 18:00:00,101862.52,SSE,,KGOO 081800Z AUTO 15006KT 10SM CLR 29/08 A3008 RMK AO1,,8.0,,,8.06,10.0,,27.71,1.0,1.0,90770.86,26.83,3.09,101079.89,29.0,150.0,KGOO,3154,-121.003083,39.224028
559,2018-08-08 18:20:00,101862.52,SSE,,KGOO 081820Z AUTO 16003KT 10SM CLR 29/08 A3008 RMK AO1,,8.0,,,8.06,10.0,,27.71,1.0,1.0,90770.86,26.83,1.54,101079.89,29.0,160.0,KGOO,3154,-121.003083,39.224028
560,2018-08-08 18:40:00,101862.52,SSE,,KGOO 081840Z AUTO 15005KT 10SM CLR 29/07 A3008 RMK AO1,,7.0,,,7.06,10.0,,27.63,1.0,1.0,90770.86,25.06,2.57,101079.93,29.0,150.0,KGOO,3154,-121.003083,39.224028
561,2018-08-08 19:00:00,101862.52,S,,KGOO 081900Z AUTO 17004KT 10SM CLR 30/07 A3008 RMK AO1,,7.0,,,7.08,10.0,,28.38,1.0,1.0,90770.86,23.66,2.06,101044.44,30.0,170.0,KGOO,3154,-121.003083,39.224028
562,2018-08-08 19:20:00,101862.52,SSW,,KGOO 081920Z AUTO 20004KT 10SM CLR 31/07 A3008 RMK AO1,,7.0,,,7.11,10.0,,29.18,1.0,1.0,90770.86,22.35,2.06,101009.19,31.0,200.0,KGOO,3154,-121.003083,39.224028
563,2018-08-08 19:40:00,101828.66,S,,KGOO 081940Z AUTO 18004KT 10SM CLR 32/06 A3007 RMK AO1,,6.0,,,6.13,10.0,,29.96,1.0,1.0,90740.69,19.71,2.06,100940.65,32.0,180.0,KGOO,3154,-121.003083,39.224028
564,2018-08-08 20:00:00,101828.66,SSE,,KGOO 082000Z AUTO 15007KT 10SM CLR 31/05 A3007 RMK AO1,,5.0,,,5.11,10.0,,29.06,1.0,1.0,90740.69,19.46,3.6,100975.69,31.0,150.0,KGOO,3154,-121.003083,39.224028
565,2018-08-08 20:20:00,101828.66,SW,,KGOO 082020Z AUTO 22005KT 8SM CLR 32/05 A3007 RMK AO1,,5.0,,,5.14,8.0,,29.9,1.0,1.0,90740.69,18.39,2.57,100940.69,32.0,220.0,KGOO,3154,-121.003083,39.224028
566,2018-08-08 20:40:00,101828.66,SSW,,KGOO 082040Z AUTO 20003KT 10SM CLR 32/05 A3007 RMK AO1,,5.0,,,5.14,10.0,,29.9,1.0,1.0,90740.69,18.39,1.54,100940.69,32.0,200.0,KGOO,3154,-121.003083,39.224028
567,2018-08-08 21:00:00,101828.66,N,,KGOO 082100Z AUTO 00000KT 10SM CLR 32/04 A3007 RMK AO1,,4.0,,,4.15,10.0,,29.85,1.0,1.0,90740.69,17.15,0.0,100940.73,32.0,0.0,KGOO,3154,-121.003083,39.224028
568,2018-08-08 21:20:00,101828.66,SSW,,KGOO 082120Z AUTO 20004KT 10SM CLR 32/07 A3007 RMK AO1,,7.0,,,7.13,10.0,,30.04,1.0,1.0,90740.69,21.12,2.06,100940.61,32.0,200.0,KGOO,3154,-121.003083,39.224028
569,2018-08-08 21:40:00,101828.66,SW,,KGOO 082140Z AUTO 23005KT 10SM CLR 32/09 A3007 RMK AO1,,9.0,,,9.12,10.0,,30.25,1.0,1.0,90740.69,24.2,2.57,100940.53,32.0,230.0,KGOO,3154,-121.003083,39.224028
570,2018-08-08 22:00:00,101828.66,N,,KGOO 082200Z AUTO 00000KT 10SM CLR 32/08 A3007 RMK AO1,,8.0,,,8.12,10.0,,30.14,1.0,1.0,90740.69,22.61,0.0,100940.57,32.0,0.0,KGOO,3154,-121.003083,39.224028
571,2018-08-08 22:20:00,101828.66,WSW,,KGOO 082220Z AUTO 24004KT 10SM CLR 32/09 A3007 RMK AO1,,9.0,,,9.12,10.0,,30.25,1.0,1.0,90740.69,24.2,2.06,100940.53,32.0,240.0,KGOO,3154,-121.003083,39.224028
572,2018-08-08 22:40:00,101828.66,SW,,KGOO 082240Z AUTO 23005KT 10SM CLR 31/09 A3007 RMK AO1,,9.0,,,9.1,10.0,,29.38,1.0,1.0,90740.69,25.61,2.57,100975.53,31.0,230.0,KGOO,3154,-121.003083,39.224028
573,2018-08-08 23:00:00,101794.79,SSW,,KGOO 082300Z AUTO 21005KT 9SM CLR 32/09 A3006 RMK AO1,,9.0,,,9.12,9.0,,30.25,1.0,1.0,90710.51,24.2,2.57,100906.96,32.0,210.0,KGOO,3154,-121.003083,39.224028
574,2018-08-08 23:20:00,101794.79,W,,KGOO 082320Z AUTO 27006KT 10SM CLR 31/08 A3006 RMK AO1,,8.0,,,8.1,10.0,,29.27,1.0,1.0,90710.51,23.93,3.09,100941.99,31.0,270.0,KGOO,3154,-121.003083,39.224028
575,2018-08-08 23:40:00,101760.93,W,,KGOO 082340Z AUTO 28006KT 10SM CLR 31/08 A3005 RMK AO1,,8.0,,,8.1,10.0,,29.27,1.0,1.0,90680.34,23.93,3.09,100908.41,31.0,280.0,KGOO,3154,-121.003083,39.224028
576,2018-08-09 00:00:00,101760.93,SW,,KGOO 090000Z AUTO 23005KT 10SM CLR 31/07 A3005 RMK AO1,,7.0,,,7.11,10.0,,29.18,1.0,1.0,90680.34,22.35,2.57,100908.46,31.0,230.0,KGOO,3154,-121.003083,39.224028
577,2018-08-09 00:20:00,101760.93,N,,KGOO 090020Z AUTO 00000KT 10SM CLR 31/07 A3005 RMK AO1,,7.0,,,7.11,10.0,,29.18,1.0,1.0,90680.34,22.35,0.0,100908.46,31.0,0.0,KGOO,3154,-121.003083,39.224028
578,2018-08-09 00:40:00,101760.93,N,,KGOO 090040Z AUTO 00000KT 10SM CLR 32/07 A3005 RMK AO1,,7.0,,,7.13,10.0,,30.04,1.0,1.0,90680.34,21.12,0.0,100873.48,32.0,0.0,KGOO,3154,-121.003083,39.224028
579,2018-08-09 01:00:00,101727.07,W,,KGOO 090100Z AUTO 27004KT 10SM CLR 31/05 A3004 RMK AO1,,5.0,,,5.11,10.0,,29.06,1.0,1.0,90650.16,19.46,2.06,100874.95,31.0,270.0,KGOO,3154,-121.003083,39.224028
580,2018-08-09 01:20:00,101727.07,WNW,,KGOO 090120Z AUTO 30005KT 10SM CLR 31/07 A3004 RMK AO1,,7.0,,,7.11,10.0,,29.18,1.0,1.0,90650.16,22.35,2.57,100874.87,31.0,300.0,KGOO,3154,-121.003083,39.224028
581,2018-08-09 01:40:00,101727.07,NNW,,KGOO 090140Z AUTO 33003KT 10SM CLR 30/09 A3004 RMK AO1,,9.0,,,9.07,10.0,,28.56,1.0,1.0,90650.16,27.11,1.54,100909.99,30.0,330.0,KGOO,3154,-121.003083,39.224028
582,2018-08-09 02:00:00,101727.07,NW,,KGOO 090200Z AUTO 32003KT 10SM CLR 29/09 A3004 RMK AO1,,9.0,,,9.05,10.0,,27.8,1.0,1.0,90650.16,28.71,1.54,100945.44,29.0,320.0,KGOO,3154,-121.003083,39.224028
583,2018-08-09 02:20:00,101727.07,NW,,KGOO 090220Z AUTO 32003KT 10SM CLR 29/09 A3004 RMK AO1,,9.0,,,9.05,10.0,,27.8,1.0,1.0,90650.16,28.71,1.54,100945.44,29.0,320.0,KGOO,3154,-121.003083,39.224028
584,2018-08-09 02:40:00,101727.07,N,,KGOO 090240Z AUTO 35004KT 10SM CLR 28/10 A3004 RMK AO1,,10.0,,,10.04,10.0,,27.22,1.0,1.0,90650.16,32.54,2.06,100981.08,28.0,350.0,KGOO,3154,-121.003083,39.224028
585,2018-08-09 03:00:00,101760.93,N,,KGOO 090300Z AUTO 01003KT 10SM CLR 27/10 A3005 RMK AO1,,10.0,,,10.02,10.0,,26.66,1.0,1.0,90680.34,34.5,1.54,101050.65,27.0,10.0,KGOO,3154,-121.003083,39.224028
586,2018-08-09 03:20:00,101760.93,NNE,,KGOO 090320Z AUTO 03003KT 10SM CLR 25/10 A3005 RMK AO1,,10.0,,,10.0,10.0,,,1.0,1.0,90680.34,38.82,1.54,101123.32,25.0,30.0,KGOO,3154,-121.003083,39.224028
587,2018-08-09 03:40:00,101760.93,NNE,,KGOO 090340Z AUTO 02003KT 10SM CLR 25/09 A3005 RMK AO1,,9.0,,,9.0,10.0,,,1.0,1.0,90680.34,36.3,1.54,101123.36,25.0,20.0,KGOO,3154,-121.003083,39.224028
588,2018-08-09 04:00:00,101794.79,NNE,,KGOO 090400Z AUTO 02003KT 10SM CLR 24/09 A3006 RMK AO1,,9.0,,,8.99,10.0,,,1.0,1.0,90710.51,38.53,1.54,101193.74,24.0,20.0,KGOO,3154,-121.003083,39.224028
589,2018-08-09 04:20:00,101828.66,NNE,,KGOO 090420Z AUTO 03003KT 10SM CLR 24/09 A3007 RMK AO1,,9.0,,,8.99,10.0,,,1.0,1.0,90740.69,38.53,1.54,101227.4,24.0,30.0,KGOO,3154,-121.003083,39.224028
590,2018-08-09 04:40:00,101828.66,NNE,,KGOO 090440Z AUTO 03003KT 10SM CLR 24/07 A3007 RMK AO1,,7.0,,,6.99,10.0,,,1.0,1.0,90740.69,33.63,1.54,101227.49,24.0,30.0,KGOO,3154,-121.003083,39.224028
591,2018-08-09 05:00:00,101828.66,NNE,,KGOO 090500Z AUTO 03003KT 10SM CLR 24/07 A3007 RMK AO1,,7.0,,,6.99,10.0,,,1.0,1.0,90740.69,33.63,1.54,101227.49,24.0,30.0,KGOO,3154,-121.003083,39.224028
592,2018-08-09 05:20:00,101828.66,N,,KGOO 090520Z AUTO 00000KT 10SM CLR 24/07 A3007 RMK AO1,,7.0,,,6.99,10.0,,,1.0,1.0,90740.69,33.63,0.0,101227.49,24.0,0.0,KGOO,3154,-121.003083,39.224028
593,2018-08-09 05:40:00,101828.66,NNE,,KGOO 090540Z AUTO 02003KT 10SM CLR 24/07 A3007 RMK AO1,,7.0,,,6.99,10.0,,,1.0,1.0,90740.69,33.63,1.54,101227.49,24.0,20.0,KGOO,3154,-121.003083,39.224028
594,2018-08-09 06:00:00,101828.66,N,,KGOO 090600Z AUTO 00000KT 10SM CLR 23/07 A3007 RMK AO1,,7.0,,,6.98,10.0,,,1.0,1.0,90740.69,35.72,0.0,101264.49,23.0,0.0,KGOO,3154,-121.003083,39.224028
595,2018-08-09 06:20:00,101828.66,NE,,KGOO 090620Z AUTO 04004KT 10SM CLR 23/07 A3007 RMK AO1,,7.0,,,6.98,10.0,,,1.0,1.0,90740.69,35.72,2.06,101264.49,23.0,40.0,KGOO,3154,-121.003083,39.224028
596,2018-08-09 06:40:00,101828.66,NNE,,KGOO 090640Z AUTO 03003KT 10SM CLR 24/08 A3007 RMK AO1,,8.0,,,7.99,10.0,,,1.0,1.0,90740.69,36.01,1.54,101227.45,24.0,30.0,KGOO,3154,-121.003083,39.224028
597,2018-08-09 07:00:00,101828.66,NNE,,KGOO 090700Z AUTO 03003KT 10SM CLR 23/08 A3007 RMK AO1,,8.0,,,7.98,10.0,,,1.0,1.0,90740.69,38.24,1.54,101264.45,23.0,30.0,KGOO,3154,-121.003083,39.224028
598,2018-08-09 07:20:00,101828.66,N,,KGOO 090720Z AUTO 00000KT 10SM CLR 23/09 A3007 RMK AO1,,9.0,,,8.98,10.0,,,1.0,1.0,90740.69,40.92,0.0,101264.4,23.0,0.0,KGOO,3154,-121.003083,39.224028
599,2018-08-09 07:40:00,101828.66,N,,KGOO 090740Z AUTO 00000KT 10SM CLR 24/08 A3007 RMK AO1,,8.0,,,7.99,10.0,,,1.0,1.0,90740.69,36.01,0.0,101227.45,24.0,0.0,KGOO,3154,-121.003083,39.224028
600,2018-08-09 08:00:00,101828.66,N,,KGOO 090800Z AUTO 00000KT 10SM CLR 24/08 A3007 RMK AO1,,8.0,,,7.99,10.0,,,1.0,1.0,90740.69,36.01,0.0,101227.45,24.0,0.0,KGOO,3154,-121.003083,39.224028
601,2018-08-09 08:20:00,101794.79,N,,KGOO 090820Z AUTO 00000KT 10SM CLR 24/08 A3006 RMK AO1,,8.0,,,7.99,10.0,,,1.0,1.0,90710.51,36.01,0.0,101193.78,24.0,0.0,KGOO,3154,-121.003083,39.224028
602,2018-08-09 08:40:00,101794.79,N,,KGOO 090840Z AUTO 00000KT 10SM CLR 24/07 A3006 RMK AO1,,7.0,,,6.99,10.0,,,1.0,1.0,90710.51,33.63,0.0,101193.82,24.0,0.0,KGOO,3154,-121.003083,39.224028
603,2018-08-09 09:00:00,101794.79,N,,KGOO 090900Z AUTO 00000KT 10SM CLR 24/07 A3006 RMK AO1,,7.0,,,6.99,10.0,,,1.0,1.0,90710.51,33.63,0.0,101193.82,24.0,0.0,KGOO,3154,-121.003083,39.224028
604,2018-08-09 09:20:00,101794.79,N,,KGOO 090920Z AUTO 00000KT 10SM CLR 24/07 A3006 RMK AO1,,7.0,,,6.99,10.0,,,1.0,1.0,90710.51,33.63,0.0,101193.82,24.0,0.0,KGOO,3154,-121.003083,39.224028
605,2018-08-09 09:40:00,101794.79,N,,KGOO 090940Z AUTO 00000KT 10SM CLR 24/07 A3006 RMK AO1,,7.0,,,6.99,10.0,,,1.0,1.0,90710.51,33.63,0.0,101193.82,24.0,0.0,KGOO,3154,-121.003083,39.224028
606,2018-08-09 10:00:00,101760.93,N,,KGOO 091000Z AUTO 00000KT 10SM CLR 23/08 A3005 RMK AO1,,8.0,,,7.98,10.0,,,1.0,1.0,90680.34,38.24,0.0,101197.1,23.0,0.0,KGOO,3154,-121.003083,39.224028
607,2018-08-09 10:20:00,101760.93,N,,KGOO 091020Z AUTO 00000KT 10SM CLR 23/07 A3005 RMK AO1,,7.0,,,6.98,10.0,,,1.0,1.0,90680.34,35.72,0.0,101197.14,23.0,0.0,KGOO,3154,-121.003083,39.224028
608,2018-08-09 10:40:00,101760.93,N,,KGOO 091040Z AUTO 00000KT 10SM CLR 23/05 A3005 RMK AO1,,5.0,,,4.98,10.0,,,1.0,1.0,90680.34,31.11,0.0,101197.22,23.0,0.0,KGOO,3154,-121.003083,39.224028
609,2018-08-09 11:00:00,101760.93,N,,KGOO 091100Z AUTO 00000KT 10SM CLR 23/04 A3005 RMK AO1,,4.0,,,3.98,10.0,,,1.0,1.0,90680.34,29.0,0.0,101197.26,23.0,0.0,KGOO,3154,-121.003083,39.224028
610,2018-08-09 11:20:00,101760.93,N,,KGOO 091120Z AUTO 01003KT 10SM CLR 23/04 A3005 RMK AO1,,4.0,,,3.98,10.0,,,1.0,1.0,90680.34,29.0,1.54,101197.26,23.0,10.0,KGOO,3154,-121.003083,39.224028
611,2018-08-09 11:40:00,101760.93,NNE,,KGOO 091140Z AUTO 03003KT 10SM CLR 23/04 A3005 RMK AO1,,4.0,,,3.98,10.0,,,1.0,1.0,90680.34,29.0,1.54,101197.26,23.0,30.0,KGOO,3154,-121.003083,39.224028
612,2018-08-09 12:00:00,101760.93,NE,,KGOO 091200Z AUTO 05003KT 10SM CLR 23/03 A3005 RMK AO1,,3.0,,,2.98,10.0,,,1.0,1.0,90680.34,27.03,1.54,101197.29,23.0,50.0,KGOO,3154,-121.003083,39.224028
613,2018-08-09 12:20:00,101760.93,N,,KGOO 091220Z AUTO 00000KT 10SM CLR 24/00 A3005 RMK AO1,,0.0,,,0.0,10.0,,,1.0,1.0,90680.34,20.52,0.0,101160.41,24.0,0.0,KGOO,3154,-121.003083,39.224028
614,2018-08-09 12:40:00,101760.93,N,,KGOO 091240Z AUTO 00000KT 10SM CLR 23/00 A3005 RMK AO1,,0.0,,,-0.01,10.0,,,1.0,1.0,90680.34,21.79,0.0,101197.38,23.0,0.0,KGOO,3154,-121.003083,39.224028
615,2018-08-09 13:00:00,101760.93,N,,KGOO 091300Z AUTO 00000KT 10SM CLR 24/00 A3005 RMK AO1,,0.0,,,0.0,10.0,,,1.0,1.0,90680.34,20.52,0.0,101160.41,24.0,0.0,KGOO,3154,-121.003083,39.224028
616,2018-08-09 13:20:00,101794.79,N,,KGOO 091320Z AUTO 00000KT 10SM CLR 24/01 A3006 RMK AO1,,1.0,,,1.0,10.0,,,1.0,1.0,90710.51,22.06,0.0,101194.04,24.0,0.0,KGOO,3154,-121.003083,39.224028
617,2018-08-09 13:40:00,101794.79,N,,KGOO 091340Z AUTO 00000KT 10SM CLR 24/02 A3006 RMK AO1,,2.0,,,2.0,10.0,,,1.0,1.0,90710.51,23.7,0.0,101194.01,24.0,0.0,KGOO,3154,-121.003083,39.224028
618,2018-08-09 14:00:00,101794.79,N,,KGOO 091400Z AUTO 00000KT 10SM CLR 24/03 A3006 RMK AO1,,3.0,,,2.99,10.0,,,1.0,1.0,90710.51,25.45,0.0,101193.97,24.0,0.0,KGOO,3154,-121.003083,39.224028
619,2018-08-09 14:20:00,101794.79,N,,KGOO 091420Z AUTO 00000KT 10SM CLR 22/05 A3006 RMK AO1,,5.0,,,4.97,10.0,,,1.0,1.0,90710.51,33.05,0.0,101268.14,22.0,0.0,KGOO,3154,-121.003083,39.224028
620,2018-08-09 14:40:00,101828.66,N,,KGOO 091440Z AUTO 00000KT 10SM CLR 23/05 A3007 RMK AO1,,5.0,,,4.98,10.0,,,1.0,1.0,90740.69,31.11,0.0,101264.57,23.0,0.0,KGOO,3154,-121.003083,39.224028
621,2018-08-09 15:00:00,101828.66,N,,KGOO 091500Z AUTO 00000KT 10SM CLR 24/06 A3007 RMK AO1,,6.0,,,5.99,10.0,,,1.0,1.0,90740.69,31.39,0.0,101227.53,24.0,0.0,KGOO,3154,-121.003083,39.224028
622,2018-08-09 15:20:00,101862.52,N,,KGOO 091520Z AUTO 00000KT 10SM CLR 25/04 A3008 RMK AO1,,4.0,,,4.01,10.0,,,1.0,1.0,90770.86,25.73,0.0,101224.51,25.0,0.0,KGOO,3154,-121.003083,39.224028
623,2018-08-09 15:40:00,101862.52,N,,KGOO 091540Z AUTO 00000KT 10SM CLR 25/04 A3008 RMK AO1,,4.0,,,4.01,10.0,,,1.0,1.0,90770.86,25.73,0.0,101224.51,25.0,0.0,KGOO,3154,-121.003083,39.224028
624,2018-08-09 16:00:00,101896.38,SE,,KGOO 091600Z AUTO 14003KT 10SM CLR 26/03 A3009 RMK AO1,,3.0,,,3.02,10.0,,,1.0,1.0,90801.04,22.59,1.54,101221.7,26.0,140.0,KGOO,3154,-121.003083,39.224028
625,2018-08-09 16:20:00,101896.38,SE,,KGOO 091620Z AUTO 14003KT 10SM CLR 27/05 A3009 RMK AO1,,5.0,,,5.04,10.0,,26.4,1.0,1.0,90801.04,24.52,1.54,101185.37,27.0,140.0,KGOO,3154,-121.003083,39.224028
626,2018-08-09 16:40:00,101896.38,SSE,,KGOO 091640Z AUTO 15003KT 10SM CLR 27/06 A3009 RMK AO1,,6.0,,,6.03,10.0,,26.44,1.0,1.0,90801.04,26.28,1.54,101185.34,27.0,150.0,KGOO,3154,-121.003083,39.224028
627,2018-08-09 17:00:00,101896.38,SSE,,KGOO 091700Z AUTO 16003KT 10SM CLR 28/06 A3009 RMK AO1,,6.0,,,6.05,10.0,,26.88,1.0,1.0,90801.04,24.79,1.54,101149.33,28.0,160.0,KGOO,3154,-121.003083,39.224028
628,2018-08-09 17:20:00,101862.52,SSE,,KGOO 091720Z AUTO 16003KT 10SM CLR 28/08 A3008 RMK AO1,,8.0,,,8.04,10.0,,27.03,1.0,1.0,90770.86,28.43,1.54,101115.63,28.0,160.0,KGOO,3154,-121.003083,39.224028
629,2018-08-09 17:40:00,101862.52,N,,KGOO 091740Z AUTO 00000KT 10SM CLR 29/08 A3008 RMK AO1,,8.0,,,8.06,10.0,,27.71,1.0,1.0,90770.86,26.83,0.0,101079.89,29.0,0.0,KGOO,3154,-121.003083,39.224028
630,2018-08-09 18:00:00,101862.52,SSE,,KGOO 091800Z AUTO 16003KT 10SM CLR 30/07 A3008 RMK AO1,,7.0,,,7.08,10.0,,28.38,1.0,1.0,90770.86,23.66,1.54,101044.44,30.0,160.0,KGOO,3154,-121.003083,39.224028
631,2018-08-09 18:20:00,101862.52,SSE,,KGOO 091820Z AUTO 16003KT 10SM CLR 31/05 A3008 RMK AO1,,5.0,,,5.11,10.0,,29.06,1.0,1.0,90770.86,19.46,1.54,101009.26,31.0,160.0,KGOO,3154,-121.003083,39.224028
632,2018-08-09 18:40:00,101862.52,SSE,,KGOO 091840Z AUTO 15003KT 10SM CLR 31/05 A3008 RMK AO1,,5.0,,,5.11,10.0,,29.06,1.0,1.0,90770.86,19.46,1.54,101009.26,31.0,150.0,KGOO,3154,-121.003083,39.224028
633,2018-08-09 19:00:00,101862.52,W,,KGOO 091900Z AUTO 26006KT 10SM CLR 32/07 A3008 RMK AO1,,7.0,,,7.13,10.0,,30.04,1.0,1.0,90770.86,21.12,3.09,100974.18,32.0,260.0,KGOO,3154,-121.003083,39.224028
634,2018-08-09 19:20:00,101862.52,SSE,,KGOO 091920Z AUTO 16004KT 10SM CLR 32/07 A3008 RMK AO1,,7.0,,,7.13,10.0,,30.04,1.0,1.0,90770.86,21.12,2.06,100974.18,32.0,160.0,KGOO,3154,-121.003083,39.224028
635,2018-08-09 19:40:00,101862.52,W,,KGOO 091940Z AUTO 27006KT 10SM CLR 32/04 A3008 RMK AO1,,4.0,,,4.15,10.0,,29.85,1.0,1.0,90770.86,17.15,3.09,100974.29,32.0,270.0,KGOO,3154,-121.003083,39.224028
636,2018-08-09 20:00:00,101862.52,SW,,KGOO 092000Z AUTO 22004KT 10SM CLR 32/04 A3008 RMK AO1,,4.0,,,4.15,10.0,,29.85,1.0,1.0,90770.86,17.15,2.06,100974.29,32.0,220.0,KGOO,3154,-121.003083,39.224028
637,2018-08-09 20:20:00,101862.52,WNW,,KGOO 092020Z AUTO 30006KT 10SM CLR 33/05 A3008 RMK AO1,,5.0,,,5.17,10.0,,30.78,1.0,1.0,90770.86,17.39,3.09,100939.48,33.0,300.0,KGOO,3154,-121.003083,39.224028
638,2018-08-09 20:40:00,101828.66,W,,KGOO 092040Z AUTO 28004KT 10SM CLR 32/06 A3007 RMK AO1,,6.0,,,6.13,10.0,,29.96,1.0,1.0,90740.69,19.71,2.06,100940.65,32.0,280.0,KGOO,3154,-121.003083,39.224028
639,2018-08-09 21:00:00,101828.66,W,,KGOO 092100Z AUTO 28005KT 10SM CLR 33/07 A3007 RMK AO1,,7.0,,,7.15,10.0,,30.94,1.0,1.0,90740.69,19.96,2.57,100905.85,33.0,280.0,KGOO,3154,-121.003083,39.224028
640,2018-08-09 21:20:00,101828.66,SSW,,KGOO 092120Z AUTO 21003KT 10SM CLR 32/07 A3007 RMK AO1,,7.0,,,7.13,10.0,,30.04,1.0,1.0,90740.69,21.12,1.54,100940.61,32.0,210.0,KGOO,3154,-121.003083,39.224028
641,2018-08-09 21:40:00,101828.66,N,,KGOO 092140Z AUTO 00000KT 10SM CLR 33/07 A3007 RMK AO1,,7.0,,,7.15,10.0,,30.94,1.0,1.0,90740.69,19.96,0.0,100905.85,33.0,0.0,KGOO,3154,-121.003083,39.224028
642,2018-08-09 22:00:00,101828.66,SSW,,KGOO 092200Z AUTO 20004KT 10SM CLR 33/06 A3007 RMK AO1,,6.0,,,6.16,10.0,,30.85,1.0,1.0,90740.69,18.64,2.06,100905.89,33.0,200.0,KGOO,3154,-121.003083,39.224028
643,2018-08-09 22:20:00,101828.66,SW,,KGOO 092220Z AUTO 23004KT 10SM CLR 33/06 A3007 RMK AO1,,6.0,,,6.16,10.0,,30.85,1.0,1.0,90740.69,18.64,2.06,100905.89,33.0,230.0,KGOO,3154,-121.003083,39.224028
644,2018-08-09 22:40:00,101794.79,WSW,,KGOO 092240Z AUTO 25003KT 10SM CLR 33/06 A3006 RMK AO1,,6.0,,,6.16,10.0,,30.85,1.0,1.0,90710.51,18.64,1.54,100872.33,33.0,250.0,KGOO,3154,-121.003083,39.224028
645,2018-08-09 23:00:00,101794.79,SW,,KGOO 092300Z AUTO 23004KT 10SM CLR 33/05 A3006 RMK AO1,,5.0,,,5.17,10.0,,30.78,1.0,1.0,90710.51,17.39,2.06,100872.37,33.0,230.0,KGOO,3154,-121.003083,39.224028
646,2018-08-09 23:20:00,101794.79,SW,,KGOO 092320Z AUTO 22003KT 10SM CLR 33/06 A3006 RMK AO1,,6.0,,,6.16,10.0,,30.85,1.0,1.0,90710.51,18.64,1.54,100872.33,33.0,220.0,KGOO,3154,-121.003083,39.224028
647,2018-08-09 23:40:00,101794.79,SW,,KGOO 092340Z AUTO 23004KT 10SM CLR 33/06 A3006 RMK AO1,,6.0,,,6.16,10.0,,30.85,1.0,1.0,90710.51,18.64,2.06,100872.33,33.0,230.0,KGOO,3154,-121.003083,39.224028
648,2018-08-10 00:00:00,101794.79,WSW,,KGOO 100000Z AUTO 24003KT 10SM CLR 33/06 A3006 RMK AO1,,6.0,,,6.16,10.0,,30.85,1.0,1.0,90710.51,18.64,1.54,100872.33,33.0,240.0,KGOO,3154,-121.003083,39.224028
649,2018-08-10 00:20:00,101794.79,WSW,,KGOO 100020Z AUTO 25005KT 10SM CLR 33/06 A3006 RMK AO1,,6.0,,,6.16,10.0,,30.85,1.0,1.0,90710.51,18.64,2.57,100872.33,33.0,250.0,KGOO,3154,-121.003083,39.224028
650,2018-08-10 00:40:00,101760.93,WSW,,KGOO 100040Z AUTO 24005KT 10SM CLR 33/07 A3005 RMK AO1,,7.0,,,7.15,10.0,,30.94,1.0,1.0,90680.34,19.96,2.57,100838.74,33.0,240.0,KGOO,3154,-121.003083,39.224028
651,2018-08-10 01:00:00,101760.93,SW,,KGOO 100100Z AUTO 23004KT 10SM CLR 32/07 A3005 RMK AO1,,7.0,,,7.13,10.0,,30.04,1.0,1.0,90680.34,21.12,2.06,100873.48,32.0,230.0,KGOO,3154,-121.003083,39.224028
652,2018-08-10 01:20:00,101794.79,SW,,KGOO 100120Z AUTO 23005KT 10SM CLR 32/07 A3006 RMK AO1,,7.0,,,7.13,10.0,,30.04,1.0,1.0,90710.51,21.12,2.57,100907.04,32.0,230.0,KGOO,3154,-121.003083,39.224028
653,2018-08-10 01:40:00,101760.93,N,,KGOO 100140Z AUTO 00000KT 10SM CLR 31/07 A3005 RMK AO1,,7.0,,,7.11,10.0,,29.18,1.0,1.0,90680.34,22.35,0.0,100908.46,31.0,0.0,KGOO,3154,-121.003083,39.224028
654,2018-08-10 02:00:00,101760.93,WSW,,KGOO 100200Z AUTO 25004KT 10SM CLR 30/07 A3005 RMK AO1,,7.0,,,7.08,10.0,,28.38,1.0,1.0,90680.34,23.66,2.06,100943.67,30.0,250.0,KGOO,3154,-121.003083,39.224028
655,2018-08-10 02:20:00,101760.93,N,,KGOO 100220Z AUTO 00000KT 10SM CLR 30/06 A3005 RMK AO1,,6.0,,,6.09,10.0,,28.31,1.0,1.0,90680.34,22.09,0.0,100943.71,30.0,0.0,KGOO,3154,-121.003083,39.224028
656,2018-08-10 02:40:00,101794.79,N,,KGOO 100240Z AUTO 00000KT 10SM CLR 29/06 A3006 RMK AO1,,6.0,,,6.07,10.0,,27.56,1.0,1.0,90710.51,23.4,0.0,101012.77,29.0,0.0,KGOO,3154,-121.003083,39.224028
657,2018-08-10 03:00:00,101828.66,N,,KGOO 100300Z AUTO 00000KT 10SM CLR 29/07 A3007 RMK AO1,,7.0,,,7.06,10.0,,27.63,1.0,1.0,90740.69,25.06,0.0,101046.34,29.0,0.0,KGOO,3154,-121.003083,39.224028
658,2018-08-10 03:20:00,101828.66,N,,KGOO 100320Z AUTO 00000KT 10SM CLR 27/08 A3007 RMK AO1,,8.0,,,8.02,10.0,,26.54,1.0,1.0,90740.69,30.14,0.0,101118.0,27.0,0.0,KGOO,3154,-121.003083,39.224028
659,2018-08-10 03:40:00,101828.66,N,,KGOO 100340Z AUTO 00000KT 10SM CLR 27/09 A3007 RMK AO1,,9.0,,,9.02,10.0,,26.6,1.0,1.0,90740.69,32.25,0.0,101117.96,27.0,0.0,KGOO,3154,-121.003083,39.224028
660,2018-08-10 04:00:00,101862.52,N,,KGOO 100400Z AUTO 00000KT 10SM CLR 26/08 A3008 RMK AO1,,8.0,,,8.01,10.0,,,1.0,1.0,90770.86,31.97,0.0,101187.86,26.0,0.0,KGOO,3154,-121.003083,39.224028
661,2018-08-10 04:20:00,101862.52,N,,KGOO 100420Z AUTO 00000KT 10SM CLR 25/08 A3008 RMK AO1,,8.0,,,8.0,10.0,,,1.0,1.0,90770.86,33.92,0.0,101224.36,25.0,0.0,KGOO,3154,-121.003083,39.224028
662,2018-08-10 04:40:00,101896.38,N,,KGOO 100440Z AUTO 00000KT 10SM CLR 26/07 A3009 RMK AO1,,7.0,,,7.01,10.0,,,1.0,1.0,90801.04,29.86,0.0,101221.55,26.0,0.0,KGOO,3154,-121.003083,39.224028
663,2018-08-10 05:00:00,101896.38,N,,KGOO 100500Z AUTO 00000KT 10SM CLR 26/06 A3009 RMK AO1,,6.0,,,6.01,10.0,,,1.0,1.0,90801.04,27.87,0.0,101221.59,26.0,0.0,KGOO,3154,-121.003083,39.224028
664,2018-08-10 05:20:00,101930.25,N,,KGOO 100520Z AUTO 00000KT 10SM CLR 26/06 A3010 RMK AO1,,6.0,,,6.01,10.0,,,1.0,1.0,90831.22,27.87,0.0,101255.23,26.0,0.0,KGOO,3154,-121.003083,39.224028
665,2018-08-10 05:40:00,101930.25,N,,KGOO 100540Z AUTO 00000KT 10SM CLR 25/07 A3010 RMK AO1,,7.0,,,7.0,10.0,,,1.0,1.0,90831.22,31.68,0.0,101291.71,25.0,0.0,KGOO,3154,-121.003083,39.224028
666,2018-08-10 06:00:00,101930.25,N,,KGOO 100600Z AUTO 00000KT 10SM CLR 25/07 A3010 RMK AO1,,7.0,,,7.0,10.0,,,1.0,1.0,90831.22,31.68,0.0,101291.71,25.0,0.0,KGOO,3154,-121.003083,39.224028
667,2018-08-10 06:20:00,101930.25,ESE,,KGOO 100620Z AUTO 11004KT 10SM CLR 25/07 A3010 RMK AO1,,7.0,,,7.0,10.0,,,1.0,1.0,90831.22,31.68,2.06,101291.71,25.0,110.0,KGOO,3154,-121.003083,39.224028
668,2018-08-10 06:40:00,101930.25,ESE,,KGOO 100640Z AUTO 11003KT 10SM CLR 26/07 A3010 RMK AO1,,7.0,,,7.01,10.0,,,1.0,1.0,90831.22,29.86,1.54,101255.19,26.0,110.0,KGOO,3154,-121.003083,39.224028
669,2018-08-10 07:00:00,101930.25,E,,KGOO 100700Z AUTO 10005KT 10SM CLR 26/07 A3010 RMK AO1,,7.0,,,7.01,10.0,,,1.0,1.0,90831.22,29.86,2.57,101255.19,26.0,100.0,KGOO,3154,-121.003083,39.224028
670,2018-08-10 07:20:00,101930.25,E,,KGOO 100720Z AUTO 10005KT 10SM CLR 27/07 A3010 RMK AO1,,7.0,,,7.03,10.0,,26.49,1.0,1.0,90831.22,28.15,2.57,101218.93,27.0,100.0,KGOO,3154,-121.003083,39.224028
671,2018-08-10 07:40:00,101930.25,E,,KGOO 100740Z AUTO 10006KT 10SM CLR 27/07 A3010 RMK AO1,,7.0,,,7.03,10.0,,26.49,1.0,1.0,90831.22,28.15,3.09,101218.93,27.0,100.0,KGOO,3154,-121.003083,39.224028
672,2018-08-10 08:00:00,101930.25,E,,KGOO 100800Z AUTO 10006KT 10SM CLR 25/07 A3010 RMK AO1,,7.0,,,7.0,10.0,,,1.0,1.0,90831.22,31.68,3.09,101291.71,25.0,100.0,KGOO,3154,-121.003083,39.224028
673,2018-08-10 08:20:00,101930.25,E,,KGOO 100820Z AUTO 10005KT 10SM CLR 26/07 A3010 RMK AO1,,7.0,,,7.01,10.0,,,1.0,1.0,90831.22,29.86,2.57,101255.19,26.0,100.0,KGOO,3154,-121.003083,39.224028
674,2018-08-10 08:40:00,101930.25,E,,KGOO 100840Z AUTO 10005KT 10SM CLR 26/07 A3010 RMK AO1,,7.0,,,7.01,10.0,,,1.0,1.0,90831.22,29.86,2.57,101255.19,26.0,100.0,KGOO,3154,-121.003083,39.224028
675,2018-08-10 09:00:00,101930.25,ESE,,KGOO 100900Z AUTO 11005KT 10SM CLR 26/07 A3010 RMK AO1,,7.0,,,7.01,10.0,,,1.0,1.0,90831.22,29.86,2.57,101255.19,26.0,110.0,KGOO,3154,-121.003083,39.224028
676,2018-08-10 09:20:00,101896.38,E,,KGOO 100920Z AUTO 10006KT 10SM CLR 26/07 A3009 RMK AO1,,7.0,,,7.01,10.0,,,1.0,1.0,90801.04,29.86,3.09,101221.55,26.0,100.0,KGOO,3154,-121.003083,39.224028
677,2018-08-10 09:40:00,101896.38,E,,KGOO 100940Z AUTO 10006KT 10SM CLR 26/06 A3009 RMK AO1,,6.0,,,6.01,10.0,,,1.0,1.0,90801.04,27.87,3.09,101221.59,26.0,100.0,KGOO,3154,-121.003083,39.224028
678,2018-08-10 10:00:00,101896.38,E,,KGOO 101000Z AUTO 10007KT 10SM CLR 25/06 A3009 RMK AO1,,6.0,,,6.0,10.0,,,1.0,1.0,90801.04,29.57,3.6,101258.1,25.0,100.0,KGOO,3154,-121.003083,39.224028
679,2018-08-10 10:20:00,101896.38,E,,KGOO 101020Z AUTO 10006KT 10SM CLR 25/05 A3009 RMK AO1,,5.0,,,5.0,10.0,,,1.0,1.0,90801.04,27.59,3.09,101258.13,25.0,100.0,KGOO,3154,-121.003083,39.224028
680,2018-08-10 10:40:00,101896.38,E,,KGOO 101040Z AUTO 10006KT 10SM CLR 26/05 A3009 RMK AO1,,5.0,,,5.02,10.0,,,1.0,1.0,90801.04,26.0,3.09,101221.63,26.0,100.0,KGOO,3154,-121.003083,39.224028
681,2018-08-10 11:00:00,101896.38,E,,KGOO 101100Z AUTO 10005KT 10SM CLR 26/05 A3009 RMK AO1,,5.0,,,5.02,10.0,,,1.0,1.0,90801.04,26.0,2.57,101221.63,26.0,100.0,KGOO,3154,-121.003083,39.224028
682,2018-08-10 11:20:00,101896.38,ESE,,KGOO 101120Z AUTO 11005KT 10SM CLR 25/05 A3009 RMK AO1,,5.0,,,5.0,10.0,,,1.0,1.0,90801.04,27.59,2.57,101258.13,25.0,110.0,KGOO,3154,-121.003083,39.224028
683,2018-08-10 11:40:00,101896.38,ESE,,KGOO 101140Z AUTO 11005KT 10SM CLR 25/05 A3009 RMK AO1,,5.0,,,5.0,10.0,,,1.0,1.0,90801.04,27.59,2.57,101258.13,25.0,110.0,KGOO,3154,-121.003083,39.224028
684,2018-08-10 12:00:00,101896.38,ESE,,KGOO 101200Z AUTO 11005KT 10SM CLR 25/04 A3009 RMK AO1,,4.0,,,4.01,10.0,,,1.0,1.0,90801.04,25.73,2.57,101258.17,25.0,110.0,KGOO,3154,-121.003083,39.224028
685,2018-08-10 12:20:00,101896.38,E,,KGOO 101220Z AUTO 10005KT 10SM CLR 25/04 A3009 RMK AO1,,4.0,,,4.01,10.0,,,1.0,1.0,90801.04,25.73,2.57,101258.17,25.0,100.0,KGOO,3154,-121.003083,39.224028
686,2018-08-10 12:40:00,101896.38,E,,KGOO 101240Z AUTO 10005KT 10SM CLR 25/04 A3009 RMK AO1,,4.0,,,4.01,10.0,,,1.0,1.0,90801.04,25.73,2.57,101258.17,25.0,100.0,KGOO,3154,-121.003083,39.224028
687,2018-08-10 13:00:00,101896.38,E,,KGOO 101300Z AUTO 10005KT 10SM CLR 25/04 A3009 RMK AO1,,4.0,,,4.01,10.0,,,1.0,1.0,90801.04,25.73,2.57,101258.17,25.0,100.0,KGOO,3154,-121.003083,39.224028
688,2018-08-10 13:20:00,101896.38,E,,KGOO 101320Z AUTO 10005KT 10SM CLR 25/03 A3009 RMK AO1,,3.0,,,3.01,10.0,,,1.0,1.0,90801.04,23.97,2.57,101258.2,25.0,100.0,KGOO,3154,-121.003083,39.224028
689,2018-08-10 13:40:00,101896.38,E,,KGOO 101340Z AUTO 10005KT 10SM CLR 25/03 A3009 RMK AO1,,3.0,,,3.01,10.0,,,1.0,1.0,90801.04,23.97,2.57,101258.2,25.0,100.0,KGOO,3154,-121.003083,39.224028
690,2018-08-10 14:00:00,101930.25,E,,KGOO 101400Z AUTO 10004KT 10SM CLR 25/03 A3010 RMK AO1,,3.0,,,3.01,10.0,,,1.0,1.0,90831.22,23.97,2.06,101291.86,25.0,100.0,KGOO,3154,-121.003083,39.224028
691,2018-08-10 14:20:00,101930.25,E,,KGOO 101420Z AUTO 10004KT 10SM CLR 25/04 A3010 RMK AO1,,4.0,,,4.01,10.0,,,1.0,1.0,90831.22,25.73,2.06,101291.83,25.0,100.0,KGOO,3154,-121.003083,39.224028
692,2018-08-10 14:40:00,101964.11,ESE,,KGOO 101440Z AUTO 11003KT 10SM CLR 25/04 A3011 RMK AO1,,4.0,,,4.01,10.0,,,1.0,1.0,90861.39,25.73,1.54,101325.47,25.0,110.0,KGOO,3154,-121.003083,39.224028
693,2018-08-10 15:00:00,101964.11,E,,KGOO 101500Z AUTO 09004KT 10SM CLR 25/05 A3011 RMK AO1,,5.0,,,5.0,10.0,,,1.0,1.0,90861.39,27.59,2.06,101325.43,25.0,90.0,KGOO,3154,-121.003083,39.224028
694,2018-08-10 15:20:00,101964.11,E,,KGOO 101520Z AUTO 10003KT 10SM CLR 27/05 A3011 RMK AO1,,5.0,,,5.04,10.0,,26.4,1.0,1.0,90861.39,24.52,1.54,101252.63,27.0,100.0,KGOO,3154,-121.003083,39.224028
695,2018-08-10 15:40:00,101964.11,N,,KGOO 101540Z AUTO 00000KT 10SM CLR 28/06 A3011 RMK AO1,,6.0,,,6.05,10.0,,26.88,1.0,1.0,90861.39,24.79,0.0,101216.56,28.0,0.0,KGOO,3154,-121.003083,39.224028
696,2018-08-10 16:00:00,101997.98,SE,,KGOO 101600Z AUTO 14003KT 10SM CLR 28/05 A3012 RMK AO1,,5.0,,,5.06,10.0,,26.83,1.0,1.0,90891.57,23.13,1.54,101250.22,28.0,140.0,KGOO,3154,-121.003083,39.224028
697,2018-08-10 16:20:00,101997.98,SSE,,KGOO 101620Z AUTO 15004KT 10SM CLR 28/07 A3012 RMK AO1,,7.0,,,7.05,10.0,,26.95,1.0,1.0,90891.57,26.56,2.06,101250.14,28.0,150.0,KGOO,3154,-121.003083,39.224028
698,2018-08-10 16:40:00,101997.98,SE,,KGOO 101640Z AUTO 14003KT 10SM CLR 29/08 A3012 RMK AO1,,8.0,,,8.06,10.0,,27.71,1.0,1.0,90891.57,26.83,1.54,101214.31,29.0,140.0,KGOO,3154,-121.003083,39.224028
699,2018-08-10 17:00:00,101997.98,SSE,,KGOO 101700Z AUTO 15003KT 10SM CLR 29/07 A3012 RMK AO1,,7.0,,,7.06,10.0,,27.63,1.0,1.0,90891.57,25.06,1.54,101214.35,29.0,150.0,KGOO,3154,-121.003083,39.224028
700,2018-08-10 17:20:00,101997.98,N,,KGOO 101720Z AUTO 00000KT 10SM CLR 29/06 A3012 RMK AO1,,6.0,,,6.07,10.0,,27.56,1.0,1.0,90891.57,23.4,0.0,101214.39,29.0,0.0,KGOO,3154,-121.003083,39.224028
701,2018-08-10 17:40:00,101997.98,N,,KGOO 101740Z AUTO 00000KT 10SM CLR 30/04 A3012 RMK AO1,,4.0,,,4.1,10.0,,28.22,1.0,1.0,90891.57,19.21,0.0,101178.92,30.0,0.0,KGOO,3154,-121.003083,39.224028
702,2018-08-10 18:00:00,101997.98,N,,KGOO 101800Z AUTO 00000KT 10SM CLR 30/01 A3012 RMK AO1,,1.0,,,1.12,10.0,,28.15,1.0,1.0,90891.57,15.52,0.0,101179.02,30.0,0.0,KGOO,3154,-121.003083,39.224028
703,2018-08-10 18:20:00,101997.98,SE,,KGOO 101820Z AUTO 13003KT 10SM CLR 31/03 A3012 RMK AO1,,3.0,,,3.13,10.0,,28.98,1.0,1.0,90891.57,16.91,1.54,101143.66,31.0,130.0,KGOO,3154,-121.003083,39.224028
704,2018-08-10 18:40:00,101997.98,SE,,KGOO 101840Z AUTO 13004KT 10SM CLR 32/03 A3012 RMK AO1,,3.0,,,3.16,10.0,,29.82,1.0,1.0,90891.57,15.98,2.06,101108.6,32.0,130.0,KGOO,3154,-121.003083,39.224028
705,2018-08-10 19:00:00,101997.98,SW,,KGOO 101900Z AUTO 22006KT 10SM CLR 32/03 A3012 RMK AO1,,3.0,,,3.16,10.0,,29.82,1.0,1.0,90891.57,15.98,3.09,101108.6,32.0,220.0,KGOO,3154,-121.003083,39.224028
706,2018-08-10 19:20:00,101997.98,SSW,,KGOO 101920Z AUTO 20004KT 10SM CLR 33/04 A3012 RMK AO1,,4.0,,,4.17,10.0,,30.73,1.0,1.0,90891.57,16.21,2.06,101073.75,33.0,200.0,KGOO,3154,-121.003083,39.224028
707,2018-08-10 19:40:00,101964.11,SSW,,KGOO 101940Z AUTO 20003KT 10SM CLR 33/03 A3011 RMK AO1,,3.0,,,3.19,10.0,,30.68,1.0,1.0,90861.39,15.11,1.54,101040.22,33.0,200.0,KGOO,3154,-121.003083,39.224028
708,2018-08-10 20:00:00,101964.11,SSW,,KGOO 102000Z AUTO 21004KT 10SM CLR 33/04 A3011 RMK AO1,,4.0,,,4.17,10.0,,30.73,1.0,1.0,90861.39,16.21,2.06,101040.19,33.0,210.0,KGOO,3154,-121.003083,39.224028
709,2018-08-10 20:20:00,101964.11,WSW,,KGOO 102020Z AUTO 25004KT 10SM CLR 34/04 A3011 RMK AO1,,4.0,,,4.2,10.0,,31.62,1.0,1.0,90861.39,15.33,2.06,101005.62,34.0,250.0,KGOO,3154,-121.003083,39.224028
710,2018-08-10 20:40:00,101964.11,WNW,,KGOO 102040Z AUTO 29005KT 10SM CLR 33/03 A3011 RMK AO1,,3.0,,,3.19,10.0,,30.68,1.0,1.0,90861.39,15.11,2.57,101040.22,33.0,290.0,KGOO,3154,-121.003083,39.224028
711,2018-08-10 21:00:00,101964.11,W,,KGOO 102100Z AUTO 28006KT 10SM CLR 34/06 A3011 RMK AO1,,6.0,,,6.18,10.0,,31.77,1.0,1.0,90861.39,17.62,3.09,101005.54,34.0,280.0,KGOO,3154,-121.003083,39.224028
712,2018-08-10 21:20:00,101964.11,WSW,,KGOO 102120Z AUTO 25006KT 10SM CLR 33/07 A3011 RMK AO1,,7.0,,,7.15,10.0,,30.94,1.0,1.0,90861.39,19.96,3.09,101040.08,33.0,250.0,KGOO,3154,-121.003083,39.224028
713,2018-08-10 21:40:00,101930.25,WSW,,KGOO 102140Z AUTO 24006KT 10SM CLR 34/07 A3010 RMK AO1,,7.0,,,7.18,10.0,,31.86,1.0,1.0,90831.22,18.88,3.09,100971.97,34.0,240.0,KGOO,3154,-121.003083,39.224028
714,2018-08-10 22:00:00,101930.25,WNW,,KGOO 102200Z AUTO 30008KT 10SM CLR 33/07 A3010 RMK AO1,,7.0,,,7.15,10.0,,30.94,1.0,1.0,90831.22,19.96,4.12,101006.53,33.0,300.0,KGOO,3154,-121.003083,39.224028
715,2018-08-10 22:20:00,101896.38,WNW,,KGOO 102220Z AUTO 30005KT 10SM CLR 34/05 A3009 RMK AO1,,5.0,,,5.19,10.0,,31.69,1.0,1.0,90801.04,16.44,2.57,100938.49,34.0,300.0,KGOO,3154,-121.003083,39.224028
716,2018-08-10 22:40:00,101896.38,WNW,,KGOO 102240Z AUTO 29007KT 260V330 10SM CLR 34/05 A3009 RMK AO1,,5.0,,,5.19,10.0,,31.69,1.0,1.0,90801.04,16.44,3.6,100938.49,34.0,290.0,KGOO,3154,-121.003083,39.224028
717,2018-08-10 23:00:00,101896.38,W,,KGOO 102300Z AUTO 26008KT 10SM CLR 34/05 A3009 RMK AO1,,5.0,,,5.19,10.0,,31.69,1.0,1.0,90801.04,16.44,4.12,100938.49,34.0,260.0,KGOO,3154,-121.003083,39.224028
718,2018-08-10 23:20:00,101862.52,W,,KGOO 102320Z AUTO 28006KT 10SM CLR 34/03 A3008 RMK AO1,,3.0,,,3.21,10.0,,31.57,1.0,1.0,90770.86,14.29,3.09,100905.01,34.0,280.0,KGOO,3154,-121.003083,39.224028
719,2018-08-10 23:40:00,101862.52,W,,KGOO 102340Z AUTO 27007KT 10SM CLR 33/04 A3008 RMK AO1,,4.0,,,4.17,10.0,,30.73,1.0,1.0,90770.86,16.21,3.6,100939.52,33.0,270.0,KGOO,3154,-121.003083,39.224028
720,2018-08-11 00:00:00,101862.52,WSW,,KGOO 110000Z AUTO 24007KT 10SM CLR 33/04 A3008 RMK AO1,,4.0,,,4.17,10.0,,30.73,1.0,1.0,90770.86,16.21,3.6,100939.52,33.0,240.0,KGOO,3154,-121.003083,39.224028
721,2018-08-11 00:20:00,101862.52,W,,KGOO 110020Z AUTO 26006KT 10SM CLR 33/03 A3008 RMK AO1,,3.0,,,3.19,10.0,,30.68,1.0,1.0,90770.86,15.11,3.09,100939.55,33.0,260.0,KGOO,3154,-121.003083,39.224028
722,2018-08-11 00:40:00,101862.52,W,,KGOO 110040Z AUTO 27006KT 10SM CLR 33/02 A3008 RMK AO1,,2.0,,,2.19,10.0,,30.65,1.0,1.0,90770.86,14.07,3.09,100939.58,33.0,270.0,KGOO,3154,-121.003083,39.224028
723,2018-08-11 01:00:00,101862.52,WNW,,KGOO 110100Z AUTO 29007KT 10SM CLR 33/02 A3008 RMK AO1,,2.0,,,2.19,10.0,,30.65,1.0,1.0,90770.86,14.07,3.6,100939.58,33.0,290.0,KGOO,3154,-121.003083,39.224028
724,2018-08-11 01:20:00,101862.52,W,,KGOO 110120Z AUTO 26004KT 10SM CLR 33/03 A3008 RMK AO1,,3.0,,,3.19,10.0,,30.68,1.0,1.0,90770.86,15.11,2.06,100939.55,33.0,260.0,KGOO,3154,-121.003083,39.224028
725,2018-08-11 01:40:00,101828.66,NW,,KGOO 110140Z AUTO 31004KT 10SM CLR 32/04 A3007 RMK AO1,,4.0,,,4.15,10.0,,29.85,1.0,1.0,90740.69,17.15,2.06,100940.73,32.0,310.0,KGOO,3154,-121.003083,39.224028
726,2018-08-11 02:00:00,101862.52,WNW,,KGOO 110200Z AUTO 30003KT 10SM CLR 31/05 A3008 RMK AO1,,5.0,,,5.11,10.0,,29.06,1.0,1.0,90770.86,19.46,1.54,101009.26,31.0,300.0,KGOO,3154,-121.003083,39.224028
727,2018-08-11 02:20:00,101862.52,WNW,,KGOO 110220Z AUTO 30003KT 10SM CLR 31/06 A3008 RMK AO1,,6.0,,,6.11,10.0,,29.11,1.0,1.0,90770.86,20.86,1.54,101009.23,31.0,300.0,KGOO,3154,-121.003083,39.224028
728,2018-08-11 02:40:00,101828.66,N,,KGOO 110240Z AUTO 00000KT 10SM CLR 30/07 A3007 RMK AO1,,7.0,,,7.08,10.0,,28.38,1.0,1.0,90740.69,23.66,0.0,101010.85,30.0,0.0,KGOO,3154,-121.003083,39.224028
729,2018-08-11 03:00:00,101828.66,N,,KGOO 110300Z AUTO 00000KT 10SM CLR 28/08 A3007 RMK AO1,,8.0,,,8.04,10.0,,27.03,1.0,1.0,90740.69,28.43,0.0,101082.02,28.0,0.0,KGOO,3154,-121.003083,39.224028
730,2018-08-11 03:20:00,101828.66,N,,KGOO 110320Z AUTO 00000KT 10SM CLR 27/08 A3007 RMK AO1,,8.0,,,8.02,10.0,,26.54,1.0,1.0,90740.69,30.14,0.0,101118.0,27.0,0.0,KGOO,3154,-121.003083,39.224028
731,2018-08-11 03:40:00,101828.66,N,,KGOO 110340Z AUTO 00000KT 10SM CLR 27/08 A3007 RMK AO1,,8.0,,,8.02,10.0,,26.54,1.0,1.0,90740.69,30.14,0.0,101118.0,27.0,0.0,KGOO,3154,-121.003083,39.224028
732,2018-08-11 04:00:00,101862.52,N,,KGOO 110400Z AUTO 00000KT 10SM CLR 27/07 A3008 RMK AO1,,7.0,,,7.03,10.0,,26.49,1.0,1.0,90770.86,28.15,0.0,101151.66,27.0,0.0,KGOO,3154,-121.003083,39.224028
733,2018-08-11 04:20:00,101896.38,N,,KGOO 110420Z AUTO 00000KT 10SM CLR 27/05 A3009 RMK AO1,,5.0,,,5.04,10.0,,26.4,1.0,1.0,90801.04,24.52,0.0,101185.37,27.0,0.0,KGOO,3154,-121.003083,39.224028
734,2018-08-11 04:40:00,101896.38,N,,KGOO 110440Z AUTO 00000KT 10SM CLR 27/05 A3009 RMK AO1,,5.0,,,5.04,10.0,,26.4,1.0,1.0,90801.04,24.52,0.0,101185.37,27.0,0.0,KGOO,3154,-121.003083,39.224028
735,2018-08-11 05:00:00,101896.38,N,,KGOO 110500Z AUTO 00000KT 10SM CLR 26/05 A3009 RMK AO1,,5.0,,,5.02,10.0,,,1.0,1.0,90801.04,26.0,0.0,101221.63,26.0,0.0,KGOO,3154,-121.003083,39.224028
736,2018-08-11 05:20:00,101896.38,SE,,KGOO 110520Z AUTO 13003KT 10SM CLR 27/04 A3009 RMK AO1,,4.0,,,4.04,10.0,,26.35,1.0,1.0,90801.04,22.86,1.54,101185.41,27.0,130.0,KGOO,3154,-121.003083,39.224028
737,2018-08-11 05:40:00,101896.38,N,,KGOO 110540Z AUTO 00000KT 10SM CLR 25/05 A3009 RMK AO1,,5.0,,,5.0,10.0,,,1.0,1.0,90801.04,27.59,0.0,101258.13,25.0,0.0,KGOO,3154,-121.003083,39.224028
738,2018-08-11 06:00:00,101896.38,SE,,KGOO 110600Z AUTO 13003KT 10SM CLR 26/04 A3009 RMK AO1,,4.0,,,4.02,10.0,,,1.0,1.0,90801.04,24.25,1.54,101221.66,26.0,130.0,KGOO,3154,-121.003083,39.224028
739,2018-08-11 06:20:00,101896.38,SE,,KGOO 110620Z AUTO 14003KT 10SM CLR 26/04 A3009 RMK AO1,,4.0,,,4.02,10.0,,,1.0,1.0,90801.04,24.25,1.54,101221.66,26.0,140.0,KGOO,3154,-121.003083,39.224028
740,2018-08-11 06:40:00,101896.38,N,,KGOO 110640Z AUTO 00000KT 10SM CLR 27/04 A3009 RMK AO1,,4.0,,,4.04,10.0,,26.35,1.0,1.0,90801.04,22.86,0.0,101185.41,27.0,0.0,KGOO,3154,-121.003083,39.224028
741,2018-08-11 07:00:00,101862.52,N,,KGOO 110700Z AUTO 00000KT 10SM CLR 25/04 A3008 RMK AO1,,4.0,,,4.01,10.0,,,1.0,1.0,90770.86,25.73,0.0,101224.51,25.0,0.0,KGOO,3154,-121.003083,39.224028
742,2018-08-11 07:20:00,101862.52,N,,KGOO 110720Z AUTO 00000KT 10SM CLR 25/04 A3008 RMK AO1,,4.0,,,4.01,10.0,,,1.0,1.0,90770.86,25.73,0.0,101224.51,25.0,0.0,KGOO,3154,-121.003083,39.224028
743,2018-08-11 07:40:00,101862.52,N,,KGOO 110740Z AUTO 00000KT 10SM CLR 26/04 A3008 RMK AO1,,4.0,,,4.02,10.0,,,1.0,1.0,90770.86,24.25,0.0,101188.02,26.0,0.0,KGOO,3154,-121.003083,39.224028
744,2018-08-11 08:00:00,101862.52,N,,KGOO 110800Z AUTO 00000KT 10SM CLR 25/04 A3008 RMK AO1,,4.0,,,4.01,10.0,,,1.0,1.0,90770.86,25.73,0.0,101224.51,25.0,0.0,KGOO,3154,-121.003083,39.224028
745,2018-08-11 08:20:00,101862.52,N,,KGOO 110820Z AUTO 00000KT 10SM CLR 24/05 A3008 RMK AO1,,5.0,,,4.99,10.0,,,1.0,1.0,90770.86,29.29,0.0,101261.23,24.0,0.0,KGOO,3154,-121.003083,39.224028
746,2018-08-11 08:40:00,101862.52,N,,KGOO 110840Z AUTO 00000KT 10SM CLR 25/05 A3008 RMK AO1,,5.0,,,5.0,10.0,,,1.0,1.0,90770.86,27.59,0.0,101224.48,25.0,0.0,KGOO,3154,-121.003083,39.224028
747,2018-08-11 09:00:00,101862.52,N,,KGOO 110900Z AUTO 00000KT 10SM CLR 25/05 A3008 RMK AO1,,5.0,,,5.0,10.0,,,1.0,1.0,90770.86,27.59,0.0,101224.48,25.0,0.0,KGOO,3154,-121.003083,39.224028
748,2018-08-11 09:20:00,101862.52,ESE,,KGOO 110920Z AUTO 11004KT 10SM CLR 25/05 A3008 RMK AO1,,5.0,,,5.0,10.0,,,1.0,1.0,90770.86,27.59,2.06,101224.48,25.0,110.0,KGOO,3154,-121.003083,39.224028
749,2018-08-11 09:40:00,101828.66,E,,KGOO 110940Z AUTO 10005KT 10SM CLR 25/04 A3007 RMK AO1,,4.0,,,4.01,10.0,,,1.0,1.0,90740.69,25.73,2.57,101190.87,25.0,100.0,KGOO,3154,-121.003083,39.224028
750,2018-08-11 10:00:00,101828.66,ESE,,KGOO 111000Z AUTO 11005KT 10SM CLR 25/05 A3007 RMK AO1,,5.0,,,5.0,10.0,,,1.0,1.0,90740.69,27.59,2.57,101190.83,25.0,110.0,KGOO,3154,-121.003083,39.224028
751,2018-08-11 10:20:00,101828.66,ESE,,KGOO 111020Z AUTO 11005KT 10SM CLR 25/05 A3007 RMK AO1,,5.0,,,5.0,10.0,,,1.0,1.0,90740.69,27.59,2.57,101190.83,25.0,110.0,KGOO,3154,-121.003083,39.224028
752,2018-08-11 10:40:00,101828.66,E,,KGOO 111040Z AUTO 10005KT 10SM CLR 25/05 A3007 RMK AO1,,5.0,,,5.0,10.0,,,1.0,1.0,90740.69,27.59,2.57,101190.83,25.0,100.0,KGOO,3154,-121.003083,39.224028
753,2018-08-11 11:00:00,101794.79,ESE,,KGOO 111100Z AUTO 11006KT 10SM CLR 25/05 A3006 RMK AO1,,5.0,,,5.0,10.0,,,1.0,1.0,90710.51,27.59,3.09,101157.18,25.0,110.0,KGOO,3154,-121.003083,39.224028
754,2018-08-11 11:20:00,101828.66,ESE,,KGOO 111120Z AUTO 12006KT 10SM CLR 24/05 A3007 RMK AO1,,5.0,,,4.99,10.0,,,1.0,1.0,90740.69,29.29,3.09,101227.57,24.0,120.0,KGOO,3154,-121.003083,39.224028
755,2018-08-11 11:40:00,101828.66,ESE,,KGOO 111140Z AUTO 11006KT 10SM CLR 25/05 A3007 RMK AO1,,5.0,,,5.0,10.0,,,1.0,1.0,90740.69,27.59,3.09,101190.83,25.0,110.0,KGOO,3154,-121.003083,39.224028
756,2018-08-11 12:00:00,101828.66,ESE,,KGOO 111200Z AUTO 11005KT 10SM CLR 25/05 A3007 RMK AO1,,5.0,,,5.0,10.0,,,1.0,1.0,90740.69,27.59,2.57,101190.83,25.0,110.0,KGOO,3154,-121.003083,39.224028
757,2018-08-11 12:20:00,101828.66,ESE,,KGOO 111220Z AUTO 11005KT 10SM CLR 25/05 A3007 RMK AO1,,5.0,,,5.0,10.0,,,1.0,1.0,90740.69,27.59,2.57,101190.83,25.0,110.0,KGOO,3154,-121.003083,39.224028
758,2018-08-11 12:40:00,101828.66,ESE,,KGOO 111240Z AUTO 11004KT 10SM CLR 25/05 A3007 RMK AO1,,5.0,,,5.0,10.0,,,1.0,1.0,90740.69,27.59,2.06,101190.83,25.0,110.0,KGOO,3154,-121.003083,39.224028
759,2018-08-11 13:00:00,101828.66,ESE,,KGOO 111300Z AUTO 12003KT 10SM CLR 24/05 A3007 RMK AO1,,5.0,,,4.99,10.0,,,1.0,1.0,90740.69,29.29,1.54,101227.57,24.0,120.0,KGOO,3154,-121.003083,39.224028
760,2018-08-11 13:20:00,101862.52,ESE,,KGOO 111320Z AUTO 12005KT 10SM CLR 24/05 A3008 RMK AO1,,5.0,,,4.99,10.0,,,1.0,1.0,90770.86,29.29,2.57,101261.23,24.0,120.0,KGOO,3154,-121.003083,39.224028
761,2018-08-11 13:40:00,101862.52,ESE,,KGOO 111340Z AUTO 11007KT 10SM CLR 25/04 A3008 RMK AO1,,4.0,,,4.01,10.0,,,1.0,1.0,90770.86,25.73,3.6,101224.51,25.0,110.0,KGOO,3154,-121.003083,39.224028
762,2018-08-11 14:00:00,101862.52,ESE,,KGOO 111400Z AUTO 11006KT 10SM CLR 25/04 A3008 RMK AO1,,4.0,,,4.01,10.0,,,1.0,1.0,90770.86,25.73,3.09,101224.51,25.0,110.0,KGOO,3154,-121.003083,39.224028
763,2018-08-11 14:20:00,101896.38,ESE,,KGOO 111420Z AUTO 11006KT 10SM CLR 25/04 A3009 RMK AO1,,4.0,,,4.01,10.0,,,1.0,1.0,90801.04,25.73,3.09,101258.17,25.0,110.0,KGOO,3154,-121.003083,39.224028
764,2018-08-11 14:40:00,101896.38,ESE,,KGOO 111440Z AUTO 11006KT 10SM CLR 26/04 A3009 RMK AO1,,4.0,,,4.02,10.0,,,1.0,1.0,90801.04,24.25,3.09,101221.66,26.0,110.0,KGOO,3154,-121.003083,39.224028
765,2018-08-11 15:00:00,101896.38,ESE,,KGOO 111500Z AUTO 12004KT 10SM CLR 26/04 A3009 RMK AO1,,4.0,,,4.02,10.0,,,1.0,1.0,90801.04,24.25,2.06,101221.66,26.0,120.0,KGOO,3154,-121.003083,39.224028
766,2018-08-11 15:20:00,101930.25,N,,KGOO 111520Z AUTO 00000KT 10SM CLR 24/07 A3010 RMK AO1,,7.0,,,6.99,10.0,,,1.0,1.0,90831.22,33.63,0.0,101328.49,24.0,0.0,KGOO,3154,-121.003083,39.224028
767,2018-08-11 15:40:00,101930.25,SSE,,KGOO 111540Z AUTO 15003KT 10SM CLR 24/07 A3010 RMK AO1,,7.0,,,6.99,10.0,,,1.0,1.0,90831.22,33.63,1.54,101328.49,24.0,150.0,KGOO,3154,-121.003083,39.224028
768,2018-08-11 16:00:00,101930.25,SSE,,KGOO 111600Z AUTO 15003KT 10SM CLR 25/07 A3010 RMK AO1,,7.0,,,7.0,10.0,,,1.0,1.0,90831.22,31.68,1.54,101291.71,25.0,150.0,KGOO,3154,-121.003083,39.224028
769,2018-08-11 16:20:00,101930.25,SSE,,KGOO 111620Z AUTO 16003KT 10SM CLR 26/08 A3010 RMK AO1,,8.0,,,8.01,10.0,,,1.0,1.0,90831.22,31.97,1.54,101255.15,26.0,160.0,KGOO,3154,-121.003083,39.224028
770,2018-08-11 16:40:00,101930.25,SE,,KGOO 111640Z AUTO 14004KT 10SM CLR 27/08 A3010 RMK AO1,,8.0,,,8.02,10.0,,26.54,1.0,1.0,90831.22,30.14,2.06,101218.88,27.0,140.0,KGOO,3154,-121.003083,39.224028
771,2018-08-11 17:00:00,101930.25,S,,KGOO 111700Z AUTO 17005KT 10SM CLR 28/07 A3010 RMK AO1,,7.0,,,7.05,10.0,,26.95,1.0,1.0,90831.22,26.56,2.57,101182.91,28.0,170.0,KGOO,3154,-121.003083,39.224028
772,2018-08-11 17:20:00,101964.11,SSE,,KGOO 111720Z AUTO 15006KT 10SM CLR 29/08 A3011 RMK AO1,,8.0,,,8.06,10.0,,27.71,1.0,1.0,90861.39,26.83,3.09,101180.7,29.0,150.0,KGOO,3154,-121.003083,39.224028
773,2018-08-11 17:40:00,101964.11,SSE,,KGOO 111740Z AUTO 15004KT 10SM CLR 28/07 A3011 RMK AO1,,7.0,,,7.05,10.0,,26.95,1.0,1.0,90861.39,26.56,2.06,101216.52,28.0,150.0,KGOO,3154,-121.003083,39.224028
774,2018-08-11 18:00:00,101964.11,SSE,,KGOO 111800Z AUTO 15006KT 10SM CLR 29/06 A3011 RMK AO1,,6.0,,,6.07,10.0,,27.56,1.0,1.0,90861.39,23.4,3.09,101180.79,29.0,150.0,KGOO,3154,-121.003083,39.224028
775,2018-08-11 18:20:00,101997.98,N,,KGOO 111820Z AUTO 00000KT 10SM CLR 30/07 A3012 RMK AO1,,7.0,,,7.08,10.0,,28.38,1.0,1.0,90891.57,23.66,0.0,101178.81,30.0,0.0,KGOO,3154,-121.003083,39.224028
776,2018-08-11 18:40:00,101997.98,S,,KGOO 111840Z AUTO 17005KT 10SM CLR 31/06 A3012 RMK AO1,,6.0,,,6.11,10.0,,29.11,1.0,1.0,90891.57,20.86,2.57,101143.55,31.0,170.0,KGOO,3154,-121.003083,39.224028
777,2018-08-11 19:00:00,101997.98,SW,,KGOO 111900Z AUTO 23004KT 10SM CLR 30/05 A3012 RMK AO1,,5.0,,,5.1,10.0,,28.26,1.0,1.0,90891.57,20.61,2.06,101178.89,30.0,230.0,KGOO,3154,-121.003083,39.224028
778,2018-08-11 19:20:00,101964.11,S,,KGOO 111920Z AUTO 17004KT 10SM CLR 31/05 A3011 RMK AO1,,5.0,,,5.11,10.0,,29.06,1.0,1.0,90861.39,19.46,2.06,101110.01,31.0,170.0,KGOO,3154,-121.003083,39.224028
779,2018-08-11 19:40:00,101964.11,SW,,KGOO 111940Z AUTO 23004KT 10SM CLR 32/04 A3011 RMK AO1,,4.0,,,4.15,10.0,,29.85,1.0,1.0,90861.39,17.15,2.06,101075.0,32.0,230.0,KGOO,3154,-121.003083,39.224028
780,2018-08-11 20:00:00,101964.11,WSW,,KGOO 112000Z AUTO 25005KT 10SM CLR 32/05 A3011 RMK AO1,,5.0,,,5.14,10.0,,29.9,1.0,1.0,90861.39,18.39,2.57,101074.96,32.0,250.0,KGOO,3154,-121.003083,39.224028
781,2018-08-11 20:20:00,101930.25,SW,,KGOO 112020Z AUTO 22005KT 10SM CLR 32/05 A3010 RMK AO1,,5.0,,,5.14,10.0,,29.9,1.0,1.0,90831.22,18.39,2.57,101041.4,32.0,220.0,KGOO,3154,-121.003083,39.224028
782,2018-08-11 20:40:00,101930.25,WSW,,KGOO 112040Z AUTO 24005KT 10SM CLR 32/04 A3010 RMK AO1,,4.0,,,4.15,10.0,,29.85,1.0,1.0,90831.22,17.15,2.57,101041.43,32.0,240.0,KGOO,3154,-121.003083,39.224028
783,2018-08-11 21:00:00,101896.38,SSW,,KGOO 112100Z AUTO 20003KT 10SM CLR 32/01 A3009 RMK AO1,,1.0,,,1.17,10.0,,29.77,1.0,1.0,90801.04,13.85,1.54,101007.95,32.0,200.0,KGOO,3154,-121.003083,39.224028
784,2018-08-11 21:20:00,101896.38,SW,,KGOO 112120Z AUTO 23004KT 10SM CLR 32/02 A3009 RMK AO1,,2.0,,,2.16,10.0,,29.79,1.0,1.0,90801.04,14.88,2.06,101007.93,32.0,230.0,KGOO,3154,-121.003083,39.224028
785,2018-08-11 21:40:00,101862.52,WSW,,KGOO 112140Z AUTO 24004KT 10SM CLR 32/03 A3008 RMK AO1,,3.0,,,3.16,10.0,,29.82,1.0,1.0,90770.86,15.98,2.06,100974.32,32.0,240.0,KGOO,3154,-121.003083,39.224028
786,2018-08-11 22:00:00,101862.52,WSW,,KGOO 112200Z AUTO 24003KT 10SM CLR 33/03 A3008 RMK AO1,,3.0,,,3.19,10.0,,30.68,1.0,1.0,90770.86,15.11,1.54,100939.55,33.0,240.0,KGOO,3154,-121.003083,39.224028
787,2018-08-11 22:20:00,101828.66,WNW,,KGOO 112220Z AUTO 29005KT 10SM CLR 32/03 A3007 RMK AO1,,3.0,,,3.16,10.0,,29.82,1.0,1.0,90740.69,15.98,2.57,100940.76,32.0,290.0,KGOO,3154,-121.003083,39.224028
788,2018-08-11 22:40:00,101828.66,WSW,,KGOO 112240Z AUTO 25004KT 10SM CLR 32/02 A3007 RMK AO1,,2.0,,,2.16,10.0,,29.79,1.0,1.0,90740.69,14.88,2.06,100940.79,32.0,250.0,KGOO,3154,-121.003083,39.224028
789,2018-08-11 23:00:00,101794.79,WNW,,KGOO 112300Z AUTO 29007KT 10SM CLR 32/04 A3006 RMK AO1,,4.0,,,4.15,10.0,,29.85,1.0,1.0,90710.51,17.15,3.6,100907.15,32.0,290.0,KGOO,3154,-121.003083,39.224028
790,2018-08-11 23:20:00,101794.79,W,,KGOO 112320Z AUTO 26004KT 10SM CLR 33/04 A3006 RMK AO1,,4.0,,,4.17,10.0,,30.73,1.0,1.0,90710.51,16.21,2.06,100872.4,33.0,260.0,KGOO,3154,-121.003083,39.224028
791,2018-08-11 23:40:00,101760.93,N,,KGOO 112340Z AUTO 00000KT 10SM CLR 32/04 A3005 RMK AO1,,4.0,,,4.15,10.0,,29.85,1.0,1.0,90680.34,17.15,0.0,100873.59,32.0,0.0,KGOO,3154,-121.003083,39.224028
792,2018-08-12 00:00:00,101760.93,W,,KGOO 120000Z AUTO 27006KT 10SM CLR 32/03 A3005 RMK AO1,,3.0,,,3.16,10.0,,29.82,1.0,1.0,90680.34,15.98,3.09,100873.63,32.0,270.0,KGOO,3154,-121.003083,39.224028
793,2018-08-12 00:20:00,101760.93,SW,,KGOO 120020Z AUTO 23006KT 10SM CLR 32/03 A3005 RMK AO1,,3.0,,,3.16,10.0,,29.82,1.0,1.0,90680.34,15.98,3.09,100873.63,32.0,230.0,KGOO,3154,-121.003083,39.224028
794,2018-08-12 00:40:00,101727.07,WSW,,KGOO 120040Z AUTO 24006KT 10SM CLR 32/03 A3004 RMK AO1,,3.0,,,3.16,10.0,,29.82,1.0,1.0,90650.16,15.98,3.09,100840.05,32.0,240.0,KGOO,3154,-121.003083,39.224028
795,2018-08-12 01:00:00,101727.07,WSW,,KGOO 120100Z AUTO 25003KT 10SM CLR 31/03 A3004 RMK AO1,,3.0,,,3.13,10.0,,28.98,1.0,1.0,90650.16,16.91,1.54,100875.02,31.0,250.0,KGOO,3154,-121.003083,39.224028
796,2018-08-12 01:20:00,101727.07,WSW,,KGOO 120120Z AUTO 24003KT 10SM CLR 31/04 A3004 RMK AO1,,4.0,,,4.13,10.0,,29.01,1.0,1.0,90650.16,18.15,1.54,100874.98,31.0,240.0,KGOO,3154,-121.003083,39.224028
797,2018-08-12 01:40:00,101693.2,N,,KGOO 120140Z AUTO 00000KT 10SM CLR 30/05 A3003 RMK AO1,,5.0,,,5.1,10.0,,28.26,1.0,1.0,90619.98,20.61,0.0,100876.56,30.0,0.0,KGOO,3154,-121.003083,39.224028
798,2018-08-12 02:00:00,101693.2,N,,KGOO 120200Z AUTO 00000KT 10SM CLR 30/04 A3003 RMK AO1,,4.0,,,4.1,10.0,,28.22,1.0,1.0,90619.98,19.21,0.0,100876.59,30.0,0.0,KGOO,3154,-121.003083,39.224028
799,2018-08-12 02:20:00,101693.2,SSW,,KGOO 120220Z AUTO 20003KT 10SM CLR 29/05 A3003 RMK AO1,,5.0,,,5.08,10.0,,27.51,1.0,1.0,90619.98,21.83,1.54,100912.0,29.0,200.0,KGOO,3154,-121.003083,39.224028
800,2018-08-12 02:40:00,101727.07,N,,KGOO 120240Z AUTO 00000KT 10SM CLR 28/05 A3004 RMK AO1,,5.0,,,5.06,10.0,,26.83,1.0,1.0,90650.16,23.13,0.0,100981.3,28.0,0.0,KGOO,3154,-121.003083,39.224028
801,2018-08-12 03:00:00,101727.07,N,,KGOO 120300Z AUTO 00000KT 10SM CLR 27/06 A3004 RMK AO1,,6.0,,,6.03,10.0,,26.44,1.0,1.0,90650.16,26.28,0.0,101017.2,27.0,0.0,KGOO,3154,-121.003083,39.224028
802,2018-08-12 03:20:00,101727.07,N,,KGOO 120320Z AUTO 00000KT 10SM CLR 27/05 A3004 RMK AO1,,5.0,,,5.04,10.0,,26.4,1.0,1.0,90650.16,24.52,0.0,101017.24,27.0,0.0,KGOO,3154,-121.003083,39.224028
803,2018-08-12 03:40:00,101760.93,SE,,KGOO 120340Z AUTO 13003KT 10SM CLR 26/05 A3005 RMK AO1,,5.0,,,5.02,10.0,,,1.0,1.0,90680.34,26.0,1.54,101087.08,26.0,130.0,KGOO,3154,-121.003083,39.224028
804,2018-08-12 04:00:00,101760.93,SE,,KGOO 120400Z AUTO 14004KT 10SM CLR 26/04 A3005 RMK AO1,,4.0,,,4.02,10.0,,,1.0,1.0,90680.34,24.25,2.06,101087.11,26.0,140.0,KGOO,3154,-121.003083,39.224028
805,2018-08-12 04:20:00,101794.79,SE,,KGOO 120420Z AUTO 13004KT 10SM CLR 26/04 A3006 RMK AO1,,4.0,,,4.02,10.0,,,1.0,1.0,90710.51,24.25,2.06,101120.74,26.0,130.0,KGOO,3154,-121.003083,39.224028
806,2018-08-12 04:40:00,101794.79,SE,,KGOO 120440Z AUTO 13005KT 10SM CLR 25/05 A3006 RMK AO1,,5.0,,,5.0,10.0,,,1.0,1.0,90710.51,27.59,2.57,101157.18,25.0,130.0,KGOO,3154,-121.003083,39.224028
807,2018-08-12 05:00:00,101794.79,SE,,KGOO 120500Z AUTO 13006KT 10SM CLR 25/04 A3006 RMK AO1,,4.0,,,4.01,10.0,,,1.0,1.0,90710.51,25.73,3.09,101157.21,25.0,130.0,KGOO,3154,-121.003083,39.224028
808,2018-08-12 05:20:00,101794.79,SE,,KGOO 120520Z AUTO 13005KT 10SM CLR 25/04 A3006 RMK AO1,,4.0,,,4.01,10.0,,,1.0,1.0,90710.51,25.73,2.57,101157.21,25.0,130.0,KGOO,3154,-121.003083,39.224028
809,2018-08-12 05:40:00,101760.93,SE,,KGOO 120540Z AUTO 13004KT 10SM CLR 25/04 A3005 RMK AO1,,4.0,,,4.01,10.0,,,1.0,1.0,90680.34,25.73,2.06,101123.57,25.0,130.0,KGOO,3154,-121.003083,39.224028
810,2018-08-12 06:00:00,101760.93,SE,,KGOO 120600Z AUTO 13005KT 10SM CLR 25/04 A3005 RMK AO1,,4.0,,,4.01,10.0,,,1.0,1.0,90680.34,25.73,2.57,101123.57,25.0,130.0,KGOO,3154,-121.003083,39.224028
811,2018-08-12 06:20:00,101760.93,SE,,KGOO 120620Z AUTO 13004KT 10SM CLR 24/04 A3005 RMK AO1,,4.0,,,3.99,10.0,,,1.0,1.0,90680.34,27.31,2.06,101160.28,24.0,130.0,KGOO,3154,-121.003083,39.224028
812,2018-08-12 06:40:00,101727.07,SE,,KGOO 120640Z AUTO 13005KT 10SM CLR 24/05 A3004 RMK AO1,,5.0,,,4.99,10.0,,,1.0,1.0,90650.16,29.29,2.57,101126.58,24.0,130.0,KGOO,3154,-121.003083,39.224028
813,2018-08-12 07:00:00,101727.07,SE,,KGOO 120700Z AUTO 13005KT 10SM CLR 24/05 A3004 RMK AO1,,5.0,,,4.99,10.0,,,1.0,1.0,90650.16,29.29,2.57,101126.58,24.0,130.0,KGOO,3154,-121.003083,39.224028
814,2018-08-12 07:20:00,101727.07,SE,,KGOO 120720Z AUTO 13006KT 10SM CLR 25/04 A3004 RMK AO1,,4.0,,,4.01,10.0,,,1.0,1.0,90650.16,25.73,3.09,101089.91,25.0,130.0,KGOO,3154,-121.003083,39.224028
815,2018-08-12 07:40:00,101727.07,ESE,,KGOO 120740Z AUTO 12005KT 10SM CLR 25/04 A3004 RMK AO1,,4.0,,,4.01,10.0,,,1.0,1.0,90650.16,25.73,2.57,101089.91,25.0,120.0,KGOO,3154,-121.003083,39.224028
816,2018-08-12 08:00:00,101727.07,SE,,KGOO 120800Z AUTO 14003KT 10SM CLR 24/05 A3004 RMK AO1,,5.0,,,4.99,10.0,,,1.0,1.0,90650.16,29.29,1.54,101126.58,24.0,140.0,KGOO,3154,-121.003083,39.224028
817,2018-08-12 08:20:00,101727.07,SSE,,KGOO 120820Z AUTO 15004KT 10SM CLR 23/05 A3004 RMK AO1,,5.0,,,4.98,10.0,,,1.0,1.0,90650.16,31.11,2.06,101163.54,23.0,150.0,KGOO,3154,-121.003083,39.224028
818,2018-08-12 08:40:00,101727.07,ESE,,KGOO 120840Z AUTO 11005KT 10SM CLR 23/05 A3004 RMK AO1,,5.0,,,4.98,10.0,,,1.0,1.0,90650.16,31.11,2.57,101163.54,23.0,110.0,KGOO,3154,-121.003083,39.224028
819,2018-08-12 09:00:00,101727.07,SE,,KGOO 120900Z AUTO 14003KT 10SM CLR 24/05 A3004 RMK AO1,,5.0,,,4.99,10.0,,,1.0,1.0,90650.16,29.29,1.54,101126.58,24.0,140.0,KGOO,3154,-121.003083,39.224028
820,2018-08-12 09:20:00,101693.2,ESE,,KGOO 120920Z AUTO 12004KT 10SM CLR 23/05 A3003 RMK AO1,,5.0,,,4.98,10.0,,,1.0,1.0,90619.98,31.11,2.06,101129.86,23.0,120.0,KGOO,3154,-121.003083,39.224028
821,2018-08-12 09:40:00,101693.2,ESE,,KGOO 120940Z AUTO 12004KT 10SM CLR 24/05 A3003 RMK AO1,,5.0,,,4.99,10.0,,,1.0,1.0,90619.98,29.29,2.06,101092.91,24.0,120.0,KGOO,3154,-121.003083,39.224028
822,2018-08-12 10:00:00,101693.2,ESE,,KGOO 121000Z AUTO 12005KT 10SM CLR 24/05 A3003 RMK AO1,,5.0,,,4.99,10.0,,,1.0,1.0,90619.98,29.29,2.57,101092.91,24.0,120.0,KGOO,3154,-121.003083,39.224028
823,2018-08-12 10:20:00,101693.2,ESE,,KGOO 121020Z AUTO 11006KT 10SM CLR 25/04 A3003 RMK AO1,,4.0,,,4.01,10.0,,,1.0,1.0,90619.98,25.73,3.09,101056.26,25.0,110.0,KGOO,3154,-121.003083,39.224028
824,2018-08-12 10:40:00,101693.2,ESE,,KGOO 121040Z AUTO 11004KT 10SM CLR 25/04 A3003 RMK AO1,,4.0,,,4.01,10.0,,,1.0,1.0,90619.98,25.73,2.06,101056.26,25.0,110.0,KGOO,3154,-121.003083,39.224028
825,2018-08-12 11:00:00,101693.2,ESE,,KGOO 121100Z AUTO 11005KT 10SM CLR 25/04 A3003 RMK AO1,,4.0,,,4.01,10.0,,,1.0,1.0,90619.98,25.73,2.57,101056.26,25.0,110.0,KGOO,3154,-121.003083,39.224028
826,2018-08-12 11:20:00,101693.2,ESE,,KGOO 121120Z AUTO 11005KT 10SM CLR 25/04 A3003 RMK AO1,,4.0,,,4.01,10.0,,,1.0,1.0,90619.98,25.73,2.57,101056.26,25.0,110.0,KGOO,3154,-121.003083,39.224028
827,2018-08-12 11:40:00,101693.2,ESE,,KGOO 121140Z AUTO 11006KT 10SM CLR 25/04 A3003 RMK AO1,,4.0,,,4.01,10.0,,,1.0,1.0,90619.98,25.73,3.09,101056.26,25.0,110.0,KGOO,3154,-121.003083,39.224028
828,2018-08-12 12:00:00,101693.2,ESE,,KGOO 121200Z AUTO 11006KT 10SM CLR 25/04 A3003 RMK AO1,,4.0,,,4.01,10.0,,,1.0,1.0,90619.98,25.73,3.09,101056.26,25.0,110.0,KGOO,3154,-121.003083,39.224028
829,2018-08-12 12:20:00,101693.2,ESE,,KGOO 121220Z AUTO 11005KT 10SM CLR 25/03 A3003 RMK AO1,,3.0,,,3.01,10.0,,,1.0,1.0,90619.98,23.97,2.57,101056.29,25.0,110.0,KGOO,3154,-121.003083,39.224028
830,2018-08-12 12:40:00,101693.2,ESE,,KGOO 121240Z AUTO 11005KT 10SM CLR 25/03 A3003 RMK AO1,,3.0,,,3.01,10.0,,,1.0,1.0,90619.98,23.97,2.57,101056.29,25.0,110.0,KGOO,3154,-121.003083,39.224028
831,2018-08-12 13:00:00,101693.2,ESE,,KGOO 121300Z AUTO 11005KT 10SM CLR 24/02 A3003 RMK AO1,,2.0,,,2.0,10.0,,,1.0,1.0,90619.98,23.7,2.57,101093.01,24.0,110.0,KGOO,3154,-121.003083,39.224028
832,2018-08-12 13:20:00,101727.07,SE,,KGOO 121320Z AUTO 13004KT 10SM CLR 24/02 A3004 RMK AO1,,2.0,,,2.0,10.0,,,1.0,1.0,90650.16,23.7,2.06,101126.68,24.0,130.0,KGOO,3154,-121.003083,39.224028
833,2018-08-12 13:40:00,101727.07,SE,,KGOO 121340Z AUTO 14003KT 10SM CLR 22/04 A3004 RMK AO1,,4.0,,,3.97,10.0,,,1.0,1.0,90650.16,30.82,1.54,101200.8,22.0,140.0,KGOO,3154,-121.003083,39.224028
834,2018-08-12 13:50:00,101727.07,SE,,KGOO 121350Z AUTO 14004KT 10SM CLR 22/04 A3004 RMK AO1,,4.0,,,3.97,10.0,,,1.0,1.0,90650.16,30.82,2.06,101200.8,22.0,140.0,KGOO,3154,-121.003083,39.224028
835,2018-08-12 14:20:00,101760.93,SE,,KGOO 121420Z AUTO 13003KT 10SM CLR 23/03 A3005 RMK AO1,,3.0,,,2.98,10.0,,,1.0,1.0,90680.34,27.03,1.54,101197.29,23.0,130.0,KGOO,3154,-121.003083,39.224028
836,2018-08-12 14:40:00,101760.93,ESE,,KGOO 121440Z AUTO 12004KT 10SM CLR 23/04 A3005 RMK AO1,,4.0,,,3.98,10.0,,,1.0,1.0,90680.34,29.0,2.06,101197.26,23.0,120.0,KGOO,3154,-121.003083,39.224028
837,2018-08-12 15:00:00,101760.93,SE,,KGOO 121500Z AUTO 14003KT 10SM CLR 24/04 A3005 RMK AO1,,4.0,,,3.99,10.0,,,1.0,1.0,90680.34,27.31,1.54,101160.28,24.0,140.0,KGOO,3154,-121.003083,39.224028
838,2018-08-12 15:20:00,101794.79,SSE,,KGOO 121520Z AUTO 15004KT 10SM CLR 24/03 A3006 RMK AO1,,3.0,,,2.99,10.0,,,1.0,1.0,90710.51,25.45,2.06,101193.97,24.0,150.0,KGOO,3154,-121.003083,39.224028
839,2018-08-12 15:40:00,101794.79,SE,,KGOO 121540Z AUTO 14004KT 10SM CLR 25/04 A3006 RMK AO1,,4.0,,,4.01,10.0,,,1.0,1.0,90710.51,25.73,2.06,101157.21,25.0,140.0,KGOO,3154,-121.003083,39.224028
840,2018-08-12 16:00:00,101794.79,SE,,KGOO 121600Z AUTO 14006KT 10SM CLR 25/04 A3006 RMK AO1,,4.0,,,4.01,10.0,,,1.0,1.0,90710.51,25.73,3.09,101157.21,25.0,140.0,KGOO,3154,-121.003083,39.224028
841,2018-08-12 16:20:00,101828.66,SSE,,KGOO 121620Z AUTO 15005KT 10SM CLR 26/04 A3007 RMK AO1,,4.0,,,4.02,10.0,,,1.0,1.0,90740.69,24.25,2.57,101154.39,26.0,150.0,KGOO,3154,-121.003083,39.224028
842,2018-08-12 16:40:00,101828.66,SSE,,KGOO 121640Z AUTO 15005KT 10SM CLR 27/03 A3007 RMK AO1,,3.0,,,3.04,10.0,,26.31,1.0,1.0,90740.69,21.3,2.57,101118.19,27.0,150.0,KGOO,3154,-121.003083,39.224028
843,2018-08-12 17:00:00,101828.66,SE,,KGOO 121700Z AUTO 14007KT 10SM CLR 27/02 A3007 RMK AO1,,2.0,,,2.05,10.0,,26.27,1.0,1.0,90740.69,19.84,3.6,101118.22,27.0,140.0,KGOO,3154,-121.003083,39.224028
844,2018-08-12 17:20:00,101828.66,SSE,,KGOO 121720Z AUTO 15004KT 10SM CLR 28/02 A3007 RMK AO1,,2.0,,,2.07,10.0,,26.71,1.0,1.0,90740.69,18.72,2.06,101082.25,28.0,150.0,KGOO,3154,-121.003083,39.224028
845,2018-08-12 17:40:00,101828.66,SSE,,KGOO 121740Z AUTO 15005KT 10SM CLR 29/01 A3007 RMK AO1,,1.0,,,1.1,10.0,,27.39,1.0,1.0,90740.69,16.44,2.57,101046.54,29.0,150.0,KGOO,3154,-121.003083,39.224028
846,2018-08-12 18:00:00,101828.66,S,,KGOO 121800Z AUTO 17004KT 10SM CLR 29/00 A3007 RMK AO1,,0.0,,,0.11,10.0,,27.38,1.0,1.0,90740.69,15.29,2.06,101046.57,29.0,170.0,KGOO,3154,-121.003083,39.224028
847,2018-08-12 18:20:00,101828.66,SE,,KGOO 121820Z AUTO 13006KT 10SM CLR 30/00 A3007 RMK AO1,,0.0,,,0.13,10.0,,28.14,1.0,1.0,90740.69,14.44,3.09,101011.09,30.0,130.0,KGOO,3154,-121.003083,39.224028
848,2018-08-12 18:40:00,101828.66,S,,KGOO 121840Z AUTO 18007KT 10SM CLR 30/00 A3007 RMK AO1,,0.0,,,0.13,10.0,,28.14,1.0,1.0,90740.69,14.44,3.6,101011.09,30.0,180.0,KGOO,3154,-121.003083,39.224028
849,2018-08-12 19:00:00,101828.66,S,,KGOO 121900Z AUTO 18003KT 10SM CLR 30/00 A3007 RMK AO1,,0.0,,,0.13,10.0,,28.14,1.0,1.0,90740.69,14.44,1.54,101011.09,30.0,180.0,KGOO,3154,-121.003083,39.224028
850,2018-08-12 19:20:00,101828.66,SSW,,KGOO 121920Z AUTO 21005KT 10SM CLR 30/00 A3007 RMK AO1,,0.0,,,0.13,10.0,,28.14,1.0,1.0,90740.69,14.44,2.57,101011.09,30.0,210.0,KGOO,3154,-121.003083,39.224028
851,2018-08-12 19:40:00,101828.66,SW,,KGOO 121940Z AUTO 22004KT 10SM CLR 31/00 A3007 RMK AO1,,0.0,,,0.16,10.0,,28.93,1.0,1.0,90740.69,13.64,2.06,100975.85,31.0,220.0,KGOO,3154,-121.003083,39.224028
852,2018-08-12 20:00:00,101828.66,SW,,KGOO 122000Z AUTO 22004KT 10SM CLR 30/00 A3007 RMK AO1,,0.0,,,0.13,10.0,,28.14,1.0,1.0,90740.69,14.44,2.06,101011.09,30.0,220.0,KGOO,3154,-121.003083,39.224028
853,2018-08-12 20:20:00,101828.66,S,,KGOO 122020Z AUTO 19004KT 10SM CLR 32/00 A3007 RMK AO1,,0.0,,,0.19,10.0,,29.75,1.0,1.0,90740.69,12.89,2.06,100940.85,32.0,190.0,KGOO,3154,-121.003083,39.224028
854,2018-08-12 20:40:00,101794.79,S,,KGOO 122040Z AUTO 18006KT 10SM CLR 32/00 A3006 RMK AO1,,0.0,,,0.19,10.0,,29.75,1.0,1.0,90710.51,12.89,3.09,100907.27,32.0,180.0,KGOO,3154,-121.003083,39.224028
855,2018-08-12 21:00:00,101794.79,SW,,KGOO 122100Z AUTO 23005KT 10SM CLR 31/M01 A3006 RMK AO1,,-1.0,,,-0.83,10.0,,28.9,1.0,1.0,90710.51,12.68,2.57,100942.29,31.0,230.0,KGOO,3154,-121.003083,39.224028
856,2018-08-12 21:20:00,101760.93,SSW,,KGOO 122120Z AUTO 20004KT 10SM CLR 32/00 A3005 RMK AO1,,0.0,,,0.19,10.0,,29.75,1.0,1.0,90680.34,12.89,2.06,100873.71,32.0,200.0,KGOO,3154,-121.003083,39.224028
857,2018-08-12 21:40:00,101760.93,SW,,KGOO 122140Z AUTO 23005KT 10SM CLR 31/M02 A3005 RMK AO1,,-2.0,,,-1.82,10.0,,28.8,1.0,1.0,90680.34,11.78,2.57,100908.74,31.0,230.0,KGOO,3154,-121.003083,39.224028
858,2018-08-12 22:00:00,101727.07,S,,KGOO 122200Z AUTO 19003KT 10SM CLR 32/M02 A3004 RMK AO1,,-2.0,,,-1.79,10.0,,29.54,1.0,1.0,90650.16,11.13,1.54,100840.19,32.0,190.0,KGOO,3154,-121.003083,39.224028
859,2018-08-12 22:20:00,101727.07,S,,KGOO 122220Z AUTO 19005KT 10SM CLR 32/M03 A3004 RMK AO1,,-3.0,,,-2.79,10.0,,29.46,1.0,1.0,90650.16,10.33,2.57,100840.21,32.0,190.0,KGOO,3154,-121.003083,39.224028
860,2018-08-12 22:40:00,101693.2,SSW,,KGOO 122240Z AUTO 21004KT 10SM CLR 32/M03 A3003 RMK AO1,,-3.0,,,-2.79,10.0,,29.46,1.0,1.0,90619.98,10.33,2.06,100806.64,32.0,210.0,KGOO,3154,-121.003083,39.224028
861,2018-08-12 23:00:00,101693.2,SW,,KGOO 122300Z AUTO 23007KT 10SM CLR 32/M02 A3003 RMK AO1,,-2.0,,,-1.79,10.0,,29.54,1.0,1.0,90619.98,11.13,3.6,100806.62,32.0,230.0,KGOO,3154,-121.003083,39.224028
862,2018-08-12 23:20:00,101693.2,S,,KGOO 122320Z AUTO 19004KT 10SM CLR 31/M02 A3003 RMK AO1,,-2.0,,,-1.82,10.0,,28.8,1.0,1.0,90619.98,11.78,2.06,100841.57,31.0,190.0,KGOO,3154,-121.003083,39.224028
863,2018-08-12 23:40:00,101659.34,S,,KGOO 122340Z AUTO 19003KT 10SM CLR 32/M02 A3002 RMK AO1,,-2.0,,,-1.79,10.0,,29.54,1.0,1.0,90589.81,11.13,1.54,100773.06,32.0,190.0,KGOO,3154,-121.003083,39.224028
864,2018-08-13 00:00:00,101659.34,S,,KGOO 130000Z AUTO 19003KT 10SM CLR 31/M02 A3002 RMK AO1,,-2.0,,,-1.82,10.0,,28.8,1.0,1.0,90589.81,11.78,1.54,100808.0,31.0,190.0,KGOO,3154,-121.003083,39.224028
865,2018-08-13 00:20:00,101659.34,SSW,,KGOO 130020Z AUTO 20003KT 10SM CLR 31/M02 A3002 RMK AO1,,-2.0,,,-1.82,10.0,,28.8,1.0,1.0,90589.81,11.78,1.54,100808.0,31.0,200.0,KGOO,3154,-121.003083,39.224028
866,2018-08-13 00:40:00,101659.34,SSW,,KGOO 130040Z AUTO 21005KT 10SM CLR 30/M01 A3002 RMK AO1,,-1.0,,,-0.86,10.0,,28.13,1.0,1.0,90589.81,13.42,2.57,100843.16,30.0,210.0,KGOO,3154,-121.003083,39.224028
867,2018-08-13 01:00:00,101659.34,N,,KGOO 130100Z AUTO 00000KT 10SM CLR 30/00 A3002 RMK AO1,,0.0,,,0.13,10.0,,28.14,1.0,1.0,90589.81,14.44,0.0,100843.13,30.0,0.0,KGOO,3154,-121.003083,39.224028
868,2018-08-13 01:20:00,101659.34,N,,KGOO 130120Z AUTO 00000KT 10SM CLR 29/01 A3002 RMK AO1,,1.0,,,1.1,10.0,,27.39,1.0,1.0,90589.81,16.44,0.0,100878.53,29.0,0.0,KGOO,3154,-121.003083,39.224028
869,2018-08-13 01:40:00,101625.47,N,,KGOO 130140Z AUTO 00000KT 10SM CLR 29/01 A3001 RMK AO1,,1.0,,,1.1,10.0,,27.39,1.0,1.0,90559.63,16.44,0.0,100844.92,29.0,0.0,KGOO,3154,-121.003083,39.224028
870,2018-08-13 02:00:00,101659.34,N,,KGOO 130200Z AUTO 00000KT 10SM CLR 29/02 A3002 RMK AO1,,2.0,,,2.09,10.0,,27.41,1.0,1.0,90589.81,17.66,0.0,100878.5,29.0,0.0,KGOO,3154,-121.003083,39.224028
871,2018-08-13 02:20:00,101659.34,N,,KGOO 130220Z AUTO 00000KT 10SM CLR 28/03 A3002 RMK AO1,,3.0,,,3.07,10.0,,26.75,1.0,1.0,90589.81,20.1,0.0,100914.14,28.0,0.0,KGOO,3154,-121.003083,39.224028
872,2018-08-13 02:40:00,101659.34,N,,KGOO 130240Z AUTO 00000KT 10SM CLR 27/04 A3002 RMK AO1,,4.0,,,4.04,10.0,,26.35,1.0,1.0,90589.81,22.86,0.0,100950.02,27.0,0.0,KGOO,3154,-121.003083,39.224028
873,2018-08-13 03:00:00,101659.34,N,,KGOO 130300Z AUTO 00000KT 10SM CLR 26/04 A3002 RMK AO1,,4.0,,,4.02,10.0,,,1.0,1.0,90589.81,24.25,0.0,100986.19,26.0,0.0,KGOO,3154,-121.003083,39.224028
874,2018-08-13 03:20:00,101693.2,N,,KGOO 130320Z AUTO 00000KT 10SM CLR 25/03 A3003 RMK AO1,,3.0,,,3.01,10.0,,,1.0,1.0,90619.98,23.97,0.0,101056.29,25.0,0.0,KGOO,3154,-121.003083,39.224028
875,2018-08-13 03:40:00,101693.2,N,,KGOO 130340Z AUTO 00000KT 10SM CLR 25/02 A3003 RMK AO1,,2.0,,,2.02,10.0,,,1.0,1.0,90619.98,22.33,0.0,101056.32,25.0,0.0,KGOO,3154,-121.003083,39.224028
876,2018-08-13 04:00:00,101693.2,SE,,KGOO 130400Z AUTO 13004KT 10SM CLR 25/03 A3003 RMK AO1,,3.0,,,3.01,10.0,,,1.0,1.0,90619.98,23.97,2.06,101056.29,25.0,130.0,KGOO,3154,-121.003083,39.224028
877,2018-08-13 04:20:00,101727.07,SE,,KGOO 130420Z AUTO 13004KT 10SM CLR 25/03 A3004 RMK AO1,,3.0,,,3.01,10.0,,,1.0,1.0,90650.16,23.97,2.06,101089.95,25.0,130.0,KGOO,3154,-121.003083,39.224028
878,2018-08-13 04:40:00,101727.07,SE,,KGOO 130440Z AUTO 13004KT 10SM CLR 24/02 A3004 RMK AO1,,2.0,,,2.0,10.0,,,1.0,1.0,90650.16,23.7,2.06,101126.68,24.0,130.0,KGOO,3154,-121.003083,39.224028
879,2018-08-13 05:00:00,101760.93,SE,,KGOO 130500Z AUTO 13004KT 10SM CLR 24/02 A3005 RMK AO1,,2.0,,,2.0,10.0,,,1.0,1.0,90680.34,23.7,2.06,101160.35,24.0,130.0,KGOO,3154,-121.003083,39.224028
880,2018-08-13 05:20:00,101760.93,ESE,,KGOO 130520Z AUTO 12004KT 10SM CLR 24/02 A3005 RMK AO1,,2.0,,,2.0,10.0,,,1.0,1.0,90680.34,23.7,2.06,101160.35,24.0,120.0,KGOO,3154,-121.003083,39.224028
881,2018-08-13 05:40:00,101760.93,SE,,KGOO 130540Z AUTO 13004KT 10SM CLR 24/03 A3005 RMK AO1,,3.0,,,2.99,10.0,,,1.0,1.0,90680.34,25.45,2.06,101160.32,24.0,130.0,KGOO,3154,-121.003083,39.224028
882,2018-08-13 06:00:00,101727.07,ESE,,KGOO 130600Z AUTO 12005KT 10SM CLR 24/03 A3004 RMK AO1,,3.0,,,2.99,10.0,,,1.0,1.0,90650.16,25.45,2.57,101126.65,24.0,120.0,KGOO,3154,-121.003083,39.224028
883,2018-08-13 06:20:00,101727.07,ESE,,KGOO 130620Z AUTO 12006KT 10SM CLR 24/03 A3004 RMK AO1,,3.0,,,2.99,10.0,,,1.0,1.0,90650.16,25.45,3.09,101126.65,24.0,120.0,KGOO,3154,-121.003083,39.224028
884,2018-08-13 06:40:00,101760.93,ESE,,KGOO 130640Z AUTO 12005KT 10SM CLR 24/03 A3005 RMK AO1,,3.0,,,2.99,10.0,,,1.0,1.0,90680.34,25.45,2.57,101160.32,24.0,120.0,KGOO,3154,-121.003083,39.224028
885,2018-08-13 07:00:00,101760.93,ESE,,KGOO 130700Z AUTO 11006KT 10SM CLR 24/03 A3005 RMK AO1,,3.0,,,2.99,10.0,,,1.0,1.0,90680.34,25.45,3.09,101160.32,24.0,110.0,KGOO,3154,-121.003083,39.224028
886,2018-08-13 07:20:00,101760.93,ESE,,KGOO 130720Z AUTO 12006KT 10SM CLR 24/03 A3005 RMK AO1,,3.0,,,2.99,10.0,,,1.0,1.0,90680.34,25.45,3.09,101160.32,24.0,120.0,KGOO,3154,-121.003083,39.224028
887,2018-08-13 07:40:00,101760.93,ESE,,KGOO 130740Z AUTO 12006KT 10SM CLR 24/02 A3005 RMK AO1,,2.0,,,2.0,10.0,,,1.0,1.0,90680.34,23.7,3.09,101160.35,24.0,120.0,KGOO,3154,-121.003083,39.224028
888,2018-08-13 08:00:00,101727.07,ESE,,KGOO 130800Z AUTO 12005KT 10SM CLR 25/02 A3004 RMK AO1,,2.0,,,2.02,10.0,,,1.0,1.0,90650.16,22.33,2.57,101089.98,25.0,120.0,KGOO,3154,-121.003083,39.224028
889,2018-08-13 08:20:00,101727.07,ESE,,KGOO 130820Z AUTO 12007KT 10SM CLR 25/02 A3004 RMK AO1,,2.0,,,2.02,10.0,,,1.0,1.0,90650.16,22.33,3.6,101089.98,25.0,120.0,KGOO,3154,-121.003083,39.224028
890,2018-08-13 08:40:00,101693.2,ESE,,KGOO 130840Z AUTO 11006KT 10SM CLR 25/02 A3003 RMK AO1,,2.0,,,2.02,10.0,,,1.0,1.0,90619.98,22.33,3.09,101056.32,25.0,110.0,KGOO,3154,-121.003083,39.224028
891,2018-08-13 09:00:00,101693.2,ESE,,KGOO 130900Z AUTO 11005KT 10SM CLR 25/02 A3003 RMK AO1,,2.0,,,2.02,10.0,,,1.0,1.0,90619.98,22.33,2.57,101056.32,25.0,110.0,KGOO,3154,-121.003083,39.224028
892,2018-08-13 09:20:00,101693.2,ESE,,KGOO 130920Z AUTO 11004KT 10SM CLR 25/02 A3003 RMK AO1,,2.0,,,2.02,10.0,,,1.0,1.0,90619.98,22.33,2.06,101056.32,25.0,110.0,KGOO,3154,-121.003083,39.224028
893,2018-08-13 09:40:00,101693.2,ESE,,KGOO 130940Z AUTO 11006KT 10SM CLR 25/02 A3003 RMK AO1,,2.0,,,2.02,10.0,,,1.0,1.0,90619.98,22.33,3.09,101056.32,25.0,110.0,KGOO,3154,-121.003083,39.224028
894,2018-08-13 10:00:00,101659.34,ESE,,KGOO 131000Z AUTO 11005KT 10SM CLR 25/02 A3002 RMK AO1,,2.0,,,2.02,10.0,,,1.0,1.0,90589.81,22.33,2.57,101022.68,25.0,110.0,KGOO,3154,-121.003083,39.224028
895,2018-08-13 10:20:00,101693.2,E,,KGOO 131020Z AUTO 10005KT 10SM CLR 25/02 A3003 RMK AO1,,2.0,,,2.02,10.0,,,1.0,1.0,90619.98,22.33,2.57,101056.32,25.0,100.0,KGOO,3154,-121.003083,39.224028
896,2018-08-13 10:40:00,101693.2,ESE,,KGOO 131040Z AUTO 11005KT 10SM CLR 24/02 A3003 RMK AO1,,2.0,,,2.0,10.0,,,1.0,1.0,90619.98,23.7,2.57,101093.01,24.0,110.0,KGOO,3154,-121.003083,39.224028
897,2018-08-13 11:00:00,101659.34,ESE,,KGOO 131100Z AUTO 11006KT 10SM CLR 25/02 A3002 RMK AO1,,2.0,,,2.02,10.0,,,1.0,1.0,90589.81,22.33,3.09,101022.68,25.0,110.0,KGOO,3154,-121.003083,39.224028
898,2018-08-13 11:20:00,101693.2,ESE,,KGOO 131120Z AUTO 11005KT 10SM CLR 25/02 A3003 RMK AO1,,2.0,,,2.02,10.0,,,1.0,1.0,90619.98,22.33,2.57,101056.32,25.0,110.0,KGOO,3154,-121.003083,39.224028
899,2018-08-13 11:40:00,101693.2,ESE,,KGOO 131140Z AUTO 11006KT 10SM CLR 24/02 A3003 RMK AO1,,2.0,,,2.0,10.0,,,1.0,1.0,90619.98,23.7,3.09,101093.01,24.0,110.0,KGOO,3154,-121.003083,39.224028
900,2018-08-13 12:00:00,101693.2,E,,KGOO 131200Z AUTO 10005KT 10SM CLR 24/02 A3003 RMK AO1,,2.0,,,2.0,10.0,,,1.0,1.0,90619.98,23.7,2.57,101093.01,24.0,100.0,KGOO,3154,-121.003083,39.224028
901,2018-08-13 12:20:00,101693.2,E,,KGOO 131220Z AUTO 10006KT 10SM CLR 24/01 A3003 RMK AO1,,1.0,,,1.0,10.0,,,1.0,1.0,90619.98,22.06,3.09,101093.04,24.0,100.0,KGOO,3154,-121.003083,39.224028
902,2018-08-13 12:40:00,101693.2,E,,KGOO 131240Z AUTO 10006KT 10SM CLR 24/01 A3003 RMK AO1,,1.0,,,1.0,10.0,,,1.0,1.0,90619.98,22.06,3.09,101093.04,24.0,100.0,KGOO,3154,-121.003083,39.224028
903,2018-08-13 13:00:00,101693.2,ESE,,KGOO 131300Z AUTO 11006KT 10SM CLR 24/01 A3003 RMK AO1,,1.0,,,1.0,10.0,,,1.0,1.0,90619.98,22.06,3.09,101093.04,24.0,110.0,KGOO,3154,-121.003083,39.224028
904,2018-08-13 13:20:00,101693.2,ESE,,KGOO 131320Z AUTO 11006KT 10SM CLR 24/00 A3003 RMK AO1,,0.0,,,0.0,10.0,,,1.0,1.0,90619.98,20.52,3.09,101093.07,24.0,110.0,KGOO,3154,-121.003083,39.224028
905,2018-08-13 13:40:00,101693.2,SE,,KGOO 131340Z AUTO 13003KT 10SM CLR 24/01 A3003 RMK AO1,,1.0,,,1.0,10.0,,,1.0,1.0,90619.98,22.06,1.54,101093.04,24.0,130.0,KGOO,3154,-121.003083,39.224028
906,2018-08-13 14:00:00,101727.07,ESE,,KGOO 131400Z AUTO 12005KT 10SM CLR 23/00 A3004 RMK AO1,,0.0,,,-0.01,10.0,,,1.0,1.0,90650.16,21.79,2.57,101163.7,23.0,120.0,KGOO,3154,-121.003083,39.224028
907,2018-08-13 14:20:00,101727.07,ESE,,KGOO 131420Z AUTO 12004KT 10SM CLR 24/00 A3004 RMK AO1,,0.0,,,0.0,10.0,,,1.0,1.0,90650.16,20.52,2.06,101126.74,24.0,120.0,KGOO,3154,-121.003083,39.224028
908,2018-08-13 14:40:00,101760.93,ESE,,KGOO 131440Z AUTO 12004KT 10SM CLR 24/00 A3005 RMK AO1,,0.0,,,0.0,10.0,,,1.0,1.0,90680.34,20.52,2.06,101160.41,24.0,120.0,KGOO,3154,-121.003083,39.224028
909,2018-08-13 15:00:00,101760.93,ESE,,KGOO 131500Z AUTO 12003KT 10SM CLR 25/00 A3005 RMK AO1,,0.0,,,0.02,10.0,,,1.0,1.0,90680.34,19.33,1.54,101123.69,25.0,120.0,KGOO,3154,-121.003083,39.224028
910,2018-08-13 15:20:00,101760.93,SE,,KGOO 131520Z AUTO 14004KT 10SM CLR 26/00 A3005 RMK AO1,,0.0,,,0.04,10.0,,,1.0,1.0,90680.34,18.22,2.06,101087.23,26.0,140.0,KGOO,3154,-121.003083,39.224028
911,2018-08-13 15:40:00,101760.93,SE,,KGOO 131540Z AUTO 14004KT 10SM CLR 26/00 A3005 RMK AO1,,0.0,,,0.04,10.0,,,1.0,1.0,90680.34,18.22,2.06,101087.23,26.0,140.0,KGOO,3154,-121.003083,39.224028
912,2018-08-13 16:00:00,101760.93,SSE,,KGOO 131600Z AUTO 15004KT 10SM CLR 26/02 A3005 RMK AO1,,2.0,,,2.03,10.0,,,1.0,1.0,90680.34,21.04,2.06,101087.18,26.0,150.0,KGOO,3154,-121.003083,39.224028
913,2018-08-13 16:20:00,101794.79,SSE,,KGOO 131620Z AUTO 15004KT 10SM CLR 26/04 A3006 RMK AO1,,4.0,,,4.02,10.0,,,1.0,1.0,90710.51,24.25,2.06,101120.74,26.0,150.0,KGOO,3154,-121.003083,39.224028
914,2018-08-13 16:40:00,101794.79,SSE,,KGOO 131640Z AUTO 15005KT 10SM CLR 27/04 A3006 RMK AO1,,4.0,,,4.04,10.0,,26.35,1.0,1.0,90710.51,22.86,2.57,101084.53,27.0,150.0,KGOO,3154,-121.003083,39.224028
915,2018-08-13 17:00:00,101794.79,SE,,KGOO 131700Z AUTO 14006KT 10SM CLR 28/04 A3006 RMK AO1,,4.0,,,4.06,10.0,,26.78,1.0,1.0,90710.51,21.57,3.09,101048.56,28.0,140.0,KGOO,3154,-121.003083,39.224028
916,2018-08-13 17:20:00,101794.79,ESE,,KGOO 131720Z AUTO 12004KT 10SM CLR 27/03 A3006 RMK AO1,,3.0,,,3.04,10.0,,26.31,1.0,1.0,90710.51,21.3,2.06,101084.56,27.0,120.0,KGOO,3154,-121.003083,39.224028
917,2018-08-13 17:40:00,101828.66,SSW,,KGOO 131740Z AUTO 20003KT 10SM CLR 28/03 A3007 RMK AO1,,3.0,,,3.07,10.0,,26.75,1.0,1.0,90740.69,20.1,1.54,101082.21,28.0,200.0,KGOO,3154,-121.003083,39.224028
918,2018-08-13 18:00:00,101828.66,S,,KGOO 131800Z AUTO 19003KT 10SM CLR 28/03 A3007 RMK AO1,,3.0,,,3.07,10.0,,26.75,1.0,1.0,90740.69,20.1,1.54,101082.21,28.0,190.0,KGOO,3154,-121.003083,39.224028
919,2018-08-13 18:20:00,101828.66,S,,KGOO 131820Z AUTO 17004KT 10SM CLR 29/03 A3007 RMK AO1,,3.0,,,3.09,10.0,,27.44,1.0,1.0,90740.69,18.97,2.06,101046.48,29.0,170.0,KGOO,3154,-121.003083,39.224028
920,2018-08-13 18:40:00,101828.66,SSW,,KGOO 131840Z AUTO 20005KT 10SM CLR 29/02 A3007 RMK AO1,,2.0,,,2.09,10.0,,27.41,1.0,1.0,90740.69,17.66,2.57,101046.52,29.0,200.0,KGOO,3154,-121.003083,39.224028
921,2018-08-13 19:00:00,101828.66,SSW,,KGOO 131900Z AUTO 20005KT 10SM CLR 30/00 A3007 RMK AO1,,0.0,,,0.13,10.0,,28.14,1.0,1.0,90740.69,14.44,2.57,101011.09,30.0,200.0,KGOO,3154,-121.003083,39.224028
922,2018-08-13 19:20:00,101828.66,SSW,,KGOO 131920Z AUTO 21005KT 10SM CLR 31/00 A3007 RMK AO1,,0.0,,,0.16,10.0,,28.93,1.0,1.0,90740.69,13.64,2.57,100975.85,31.0,210.0,KGOO,3154,-121.003083,39.224028
923,2018-08-13 19:40:00,101794.79,SSW,,KGOO 131940Z AUTO 21006KT 10SM CLR 30/00 A3006 RMK AO1,,0.0,,,0.13,10.0,,28.14,1.0,1.0,90710.51,14.44,3.09,100977.49,30.0,210.0,KGOO,3154,-121.003083,39.224028
924,2018-08-13 20:00:00,101794.79,S,,KGOO 132000Z AUTO 19005KT 10SM CLR 31/00 A3006 RMK AO1,,0.0,,,0.16,10.0,,28.93,1.0,1.0,90710.51,13.64,2.57,100942.26,31.0,190.0,KGOO,3154,-121.003083,39.224028
925,2018-08-13 20:20:00,101794.79,SSW,,KGOO 132020Z AUTO 21004KT 10SM CLR 31/03 A3006 RMK AO1,,3.0,,,3.13,10.0,,28.98,1.0,1.0,90710.51,16.91,2.06,100942.18,31.0,210.0,KGOO,3154,-121.003083,39.224028
926,2018-08-13 20:40:00,101760.93,SSW,,KGOO 132040Z AUTO 21006KT 10SM CLR 30/03 A3005 RMK AO1,,3.0,,,3.11,10.0,,28.18,1.0,1.0,90680.34,17.91,3.09,100943.82,30.0,210.0,KGOO,3154,-121.003083,39.224028
927,2018-08-13 21:00:00,101760.93,WSW,,KGOO 132100Z AUTO 25005KT 10SM CLR 30/03 A3005 RMK AO1,,3.0,,,3.11,10.0,,28.18,1.0,1.0,90680.34,17.91,2.57,100943.82,30.0,250.0,KGOO,3154,-121.003083,39.224028
928,2018-08-13 21:20:00,101760.93,S,7.2,KGOO 132120Z AUTO 19005G14KT 10SM CLR 31/03 A3005 RMK AO1,,3.0,,,3.13,10.0,,28.98,1.0,1.0,90680.34,16.91,2.57,100908.6,31.0,190.0,KGOO,3154,-121.003083,39.224028
929,2018-08-13 21:40:00,101760.93,SSW,,KGOO 132140Z AUTO 21005KT 10SM CLR 31/02 A3005 RMK AO1,,2.0,,,2.14,10.0,,28.96,1.0,1.0,90680.34,15.75,2.57,100908.63,31.0,210.0,KGOO,3154,-121.003083,39.224028
930,2018-08-13 22:00:00,101727.07,S,,KGOO 132200Z AUTO 19003KT 10SM CLR 31/00 A3004 RMK AO1,,0.0,,,0.16,10.0,,28.93,1.0,1.0,90650.16,13.64,1.54,100875.11,31.0,190.0,KGOO,3154,-121.003083,39.224028
931,2018-08-13 22:20:00,101727.07,SSW,,KGOO 132220Z AUTO 21005KT 10SM CLR 30/01 A3004 RMK AO1,,1.0,,,1.12,10.0,,28.15,1.0,1.0,90650.16,15.52,2.57,100910.28,30.0,210.0,KGOO,3154,-121.003083,39.224028
932,2018-08-13 22:40:00,101693.2,SW,,KGOO 132240Z AUTO 22004KT 10SM CLR 31/00 A3003 RMK AO1,,0.0,,,0.16,10.0,,28.93,1.0,1.0,90619.98,13.64,2.06,100841.52,31.0,220.0,KGOO,3154,-121.003083,39.224028
933,2018-08-13 23:00:00,101659.34,N,,KGOO 132300Z AUTO 00000KT 10SM CLR 31/00 A3002 RMK AO1,,0.0,,,0.16,10.0,,28.93,1.0,1.0,90589.81,13.64,0.0,100807.95,31.0,0.0,KGOO,3154,-121.003083,39.224028
934,2018-08-13 23:20:00,101659.34,S,,KGOO 132320Z AUTO 17004KT 10SM CLR 30/03 A3002 RMK AO1,,3.0,,,3.11,10.0,,28.18,1.0,1.0,90589.81,17.91,2.06,100843.04,30.0,170.0,KGOO,3154,-121.003083,39.224028
935,2018-08-13 23:40:00,101625.47,SSW,,KGOO 132340Z AUTO 20003KT 10SM CLR 30/02 A3001 RMK AO1,,2.0,,,2.12,10.0,,28.16,1.0,1.0,90559.63,16.68,1.54,100809.48,30.0,200.0,KGOO,3154,-121.003083,39.224028
936,2018-08-14 00:00:00,101625.47,W,,KGOO 140000Z AUTO 26004KT 10SM CLR 31/03 A3001 RMK AO1,,3.0,,,3.13,10.0,,28.98,1.0,1.0,90559.63,16.91,2.06,100774.28,31.0,260.0,KGOO,3154,-121.003083,39.224028
937,2018-08-14 00:20:00,101625.47,SSW,,KGOO 140020Z AUTO 21003KT 10SM CLR 30/02 A3001 RMK AO1,,2.0,,,2.12,10.0,,28.16,1.0,1.0,90559.63,16.68,1.54,100809.48,30.0,210.0,KGOO,3154,-121.003083,39.224028
938,2018-08-14 00:40:00,101591.61,N,,KGOO 140040Z AUTO 00000KT 10SM CLR 30/03 A3000 RMK AO1,,3.0,,,3.11,10.0,,28.18,1.0,1.0,90529.45,17.91,0.0,100775.85,30.0,0.0,KGOO,3154,-121.003083,39.224028
939,2018-08-14 01:00:00,101591.61,S,,KGOO 140100Z AUTO 19004KT 10SM CLR 30/03 A3000 RMK AO1,,3.0,,,3.11,10.0,,28.18,1.0,1.0,90529.45,17.91,2.06,100775.85,30.0,190.0,KGOO,3154,-121.003083,39.224028
940,2018-08-14 01:20:00,101591.61,N,,KGOO 140120Z AUTO 00000KT 10SM CLR 30/02 A3000 RMK AO1,,2.0,,,2.12,10.0,,28.16,1.0,1.0,90529.45,16.68,0.0,100775.88,30.0,0.0,KGOO,3154,-121.003083,39.224028
941,2018-08-14 01:40:00,101591.61,N,,KGOO 140140Z AUTO 00000KT 10SM CLR 29/03 A3000 RMK AO1,,3.0,,,3.09,10.0,,27.44,1.0,1.0,90529.45,18.97,0.0,100811.25,29.0,0.0,KGOO,3154,-121.003083,39.224028
942,2018-08-14 02:00:00,101591.61,S,,KGOO 140200Z AUTO 19003KT 10SM CLR 28/05 A3000 RMK AO1,,5.0,,,5.06,10.0,,26.83,1.0,1.0,90529.45,23.13,1.54,100846.83,28.0,190.0,KGOO,3154,-121.003083,39.224028
943,2018-08-14 02:20:00,101591.61,SSW,,KGOO 140220Z AUTO 21003KT 10SM CLR 28/06 A3000 RMK AO1,,6.0,,,6.05,10.0,,26.88,1.0,1.0,90529.45,24.79,1.54,100846.79,28.0,210.0,KGOO,3154,-121.003083,39.224028
944,2018-08-14 02:40:00,101591.61,N,,KGOO 140240Z AUTO 00000KT 10SM CLR 27/06 A3000 RMK AO1,,6.0,,,6.03,10.0,,26.44,1.0,1.0,90529.45,26.28,0.0,100882.69,27.0,0.0,KGOO,3154,-121.003083,39.224028
945,2018-08-14 03:00:00,101591.61,N,,KGOO 140300Z AUTO 00000KT 10SM CLR 26/07 A3000 RMK AO1,,7.0,,,7.01,10.0,,,1.0,1.0,90529.45,29.86,0.0,100918.79,26.0,0.0,KGOO,3154,-121.003083,39.224028
946,2018-08-14 03:20:00,101591.61,N,,KGOO 140320Z AUTO 00000KT 10SM CLR 25/07 A3000 RMK AO1,,7.0,,,7.0,10.0,,,1.0,1.0,90529.45,31.68,0.0,100955.19,25.0,0.0,KGOO,3154,-121.003083,39.224028
947,2018-08-14 03:40:00,101591.61,N,,KGOO 140340Z AUTO 00000KT 10SM CLR 24/06 A3000 RMK AO1,,6.0,,,5.99,10.0,,,1.0,1.0,90529.45,31.39,0.0,100991.88,24.0,0.0,KGOO,3154,-121.003083,39.224028
948,2018-08-14 04:00:00,101625.47,N,,KGOO 140400Z AUTO 00000KT 10SM CLR 24/06 A3001 RMK AO1,,6.0,,,5.99,10.0,,,1.0,1.0,90559.63,31.39,0.0,101025.55,24.0,0.0,KGOO,3154,-121.003083,39.224028
949,2018-08-14 04:20:00,101625.47,N,,KGOO 140420Z AUTO 00000KT 10SM CLR 24/06 A3001 RMK AO1,,6.0,,,5.99,10.0,,,1.0,1.0,90559.63,31.39,0.0,101025.55,24.0,0.0,KGOO,3154,-121.003083,39.224028
950,2018-08-14 04:40:00,101625.47,SSE,,KGOO 140440Z AUTO 15004KT 10SM CLR 23/06 A3001 RMK AO1,,6.0,,,5.98,10.0,,,1.0,1.0,90559.63,33.34,2.06,101062.47,23.0,150.0,KGOO,3154,-121.003083,39.224028
951,2018-08-14 05:00:00,101625.47,SE,,KGOO 140500Z AUTO 13003KT 10SM CLR 23/05 A3001 RMK AO1,,5.0,,,4.98,10.0,,,1.0,1.0,90559.63,31.11,1.54,101062.51,23.0,130.0,KGOO,3154,-121.003083,39.224028
952,2018-08-14 05:20:00,101625.47,ESE,,KGOO 140520Z AUTO 12004KT 10SM CLR 23/05 A3001 RMK AO1,,5.0,,,4.98,10.0,,,1.0,1.0,90559.63,31.11,2.06,101062.51,23.0,120.0,KGOO,3154,-121.003083,39.224028
953,2018-08-14 05:40:00,101625.47,ESE,,KGOO 140540Z AUTO 12004KT 10SM CLR 23/05 A3001 RMK AO1,,5.0,,,4.98,10.0,,,1.0,1.0,90559.63,31.11,2.06,101062.51,23.0,120.0,KGOO,3154,-121.003083,39.224028
954,2018-08-14 06:00:00,101625.47,ESE,,KGOO 140600Z AUTO 12005KT 10SM CLR 23/05 A3001 RMK AO1,,5.0,,,4.98,10.0,,,1.0,1.0,90559.63,31.11,2.57,101062.51,23.0,120.0,KGOO,3154,-121.003083,39.224028
955,2018-08-14 06:20:00,101591.61,ESE,,KGOO 140620Z AUTO 12005KT 10SM CLR 23/05 A3000 RMK AO1,,5.0,,,4.98,10.0,,,1.0,1.0,90529.45,31.11,2.57,101028.83,23.0,120.0,KGOO,3154,-121.003083,39.224028
956,2018-08-14 06:40:00,101591.61,E,,KGOO 140640Z AUTO 10003KT 10SM CLR 23/05 A3000 RMK AO1,,5.0,,,4.98,10.0,,,1.0,1.0,90529.45,31.11,1.54,101028.83,23.0,100.0,KGOO,3154,-121.003083,39.224028
957,2018-08-14 07:00:00,101591.61,N,,KGOO 140700Z AUTO 00000KT 10SM CLR 22/05 A3000 RMK AO1,,5.0,,,4.97,10.0,,,1.0,1.0,90529.45,33.05,0.0,101066.0,22.0,0.0,KGOO,3154,-121.003083,39.224028
958,2018-08-14 07:20:00,101591.61,N,,KGOO 140720Z AUTO 00000KT 10SM CLR 22/05 A3000 RMK AO1,,5.0,,,4.97,10.0,,,1.0,1.0,90529.45,33.05,0.0,101066.0,22.0,0.0,KGOO,3154,-121.003083,39.224028
959,2018-08-14 07:40:00,101591.61,N,,KGOO 140740Z AUTO 00000KT 10SM CLR 21/05 A3000 RMK AO1,,5.0,,,4.95,10.0,,,1.0,1.0,90529.45,35.13,0.0,101103.44,21.0,0.0,KGOO,3154,-121.003083,39.224028
960,2018-08-14 08:00:00,101591.61,N,,KGOO 140800Z AUTO 00000KT 10SM CLR 21/05 A3000 RMK AO1,,5.0,,,4.95,10.0,,,1.0,1.0,90529.45,35.13,0.0,101103.44,21.0,0.0,KGOO,3154,-121.003083,39.224028
961,2018-08-14 08:20:00,101591.61,N,,KGOO 140820Z AUTO 00000KT 10SM CLR 22/05 A3000 RMK AO1,,5.0,,,4.97,10.0,,,1.0,1.0,90529.45,33.05,0.0,101066.0,22.0,0.0,KGOO,3154,-121.003083,39.224028
962,2018-08-14 08:40:00,101591.61,N,,KGOO 140840Z AUTO 00000KT 10SM CLR 22/05 A3000 RMK AO1,,5.0,,,4.97,10.0,,,1.0,1.0,90529.45,33.05,0.0,101066.0,22.0,0.0,KGOO,3154,-121.003083,39.224028
963,2018-08-14 09:00:00,101591.61,N,,KGOO 140900Z AUTO 00000KT 10SM CLR 22/05 A3000 RMK AO1,,5.0,,,4.97,10.0,,,1.0,1.0,90529.45,33.05,0.0,101066.0,22.0,0.0,KGOO,3154,-121.003083,39.224028
964,2018-08-14 09:20:00,101591.61,N,,KGOO 140920Z AUTO 00000KT 10SM CLR 22/05 A3000 RMK AO1,,5.0,,,4.97,10.0,,,1.0,1.0,90529.45,33.05,0.0,101066.0,22.0,0.0,KGOO,3154,-121.003083,39.224028
965,2018-08-14 09:40:00,101591.61,N,,KGOO 140940Z AUTO 00000KT 10SM CLR 21/05 A3000 RMK AO1,,5.0,,,4.95,10.0,,,1.0,1.0,90529.45,35.13,0.0,101103.44,21.0,0.0,KGOO,3154,-121.003083,39.224028
966,2018-08-14 10:00:00,101591.61,SE,,KGOO 141000Z AUTO 14003KT 10SM CLR 20/05 A3000 RMK AO1,,5.0,,,4.95,10.0,,,1.0,1.0,90529.45,37.36,1.54,101141.14,20.0,140.0,KGOO,3154,-121.003083,39.224028
967,2018-08-14 10:20:00,101557.75,SE,,KGOO 141020Z AUTO 14003KT 10SM CLR 22/03 A2999 RMK AO1,,3.0,,,2.97,10.0,,,1.0,1.0,90499.28,28.72,1.54,101032.39,22.0,140.0,KGOO,3154,-121.003083,39.224028
968,2018-08-14 10:40:00,101557.75,ESE,,KGOO 141040Z AUTO 12004KT 10SM CLR 22/03 A2999 RMK AO1,,3.0,,,2.97,10.0,,,1.0,1.0,90499.28,28.72,2.06,101032.39,22.0,120.0,KGOO,3154,-121.003083,39.224028
969,2018-08-14 11:00:00,101557.75,N,,KGOO 141100Z AUTO 00000KT 10SM CLR 22/04 A2999 RMK AO1,,4.0,,,3.97,10.0,,,1.0,1.0,90499.28,30.82,0.0,101032.36,22.0,0.0,KGOO,3154,-121.003083,39.224028
970,2018-08-14 11:20:00,101523.88,ESE,,KGOO 141120Z AUTO 11004KT 10SM CLR 22/03 A2998 RMK AO1,,3.0,,,2.97,10.0,,,1.0,1.0,90469.1,28.72,2.06,100998.7,22.0,110.0,KGOO,3154,-121.003083,39.224028
971,2018-08-14 11:40:00,101523.88,E,,KGOO 141140Z AUTO 10004KT 10SM CLR 22/03 A2998 RMK AO1,,3.0,,,2.97,10.0,,,1.0,1.0,90469.1,28.72,2.06,100998.7,22.0,100.0,KGOO,3154,-121.003083,39.224028
972,2018-08-14 12:00:00,101523.88,ESE,,KGOO 141200Z AUTO 11005KT 10SM CLR 23/03 A2998 RMK AO1,,3.0,,,2.98,10.0,,,1.0,1.0,90469.1,27.03,2.57,100961.55,23.0,110.0,KGOO,3154,-121.003083,39.224028
973,2018-08-14 12:20:00,101523.88,ESE,,KGOO 141220Z AUTO 12005KT 10SM CLR 24/02 A2998 RMK AO1,,2.0,,,2.0,10.0,,,1.0,1.0,90469.1,23.7,2.57,100924.7,24.0,120.0,KGOO,3154,-121.003083,39.224028
974,2018-08-14 12:40:00,101523.88,ESE,,KGOO 141240Z AUTO 11005KT 10SM CLR 24/02 A2998 RMK AO1,,2.0,,,2.0,10.0,,,1.0,1.0,90469.1,23.7,2.57,100924.7,24.0,110.0,KGOO,3154,-121.003083,39.224028
975,2018-08-14 13:00:00,101523.88,ESE,,KGOO 141300Z AUTO 11006KT 10SM CLR 24/02 A2998 RMK AO1,,2.0,,,2.0,10.0,,,1.0,1.0,90469.1,23.7,3.09,100924.7,24.0,110.0,KGOO,3154,-121.003083,39.224028
976,2018-08-14 13:20:00,101523.88,ESE,,KGOO 141320Z AUTO 11005KT 10SM CLR 24/02 A2998 RMK AO1,,2.0,,,2.0,10.0,,,1.0,1.0,90469.1,23.7,2.57,100924.7,24.0,110.0,KGOO,3154,-121.003083,39.224028
977,2018-08-14 13:40:00,101523.88,ESE,,KGOO 141340Z AUTO 11005KT 10SM CLR 24/02 A2998 RMK AO1,,2.0,,,2.0,10.0,,,1.0,1.0,90469.1,23.7,2.57,100924.7,24.0,110.0,KGOO,3154,-121.003083,39.224028
978,2018-08-14 14:00:00,101523.88,ESE,,KGOO 141400Z AUTO 11004KT 10SM CLR 24/02 A2998 RMK AO1,,2.0,,,2.0,10.0,,,1.0,1.0,90469.1,23.7,2.06,100924.7,24.0,110.0,KGOO,3154,-121.003083,39.224028
979,2018-08-14 14:20:00,101557.75,ESE,,KGOO 141420Z AUTO 12003KT 10SM CLR 23/02 A2999 RMK AO1,,2.0,,,1.98,10.0,,,1.0,1.0,90499.28,25.17,1.54,100995.26,23.0,120.0,KGOO,3154,-121.003083,39.224028
980,2018-08-14 14:40:00,101557.75,N,,KGOO 141440Z AUTO 00000KT 10SM CLR 23/03 A2999 RMK AO1,,3.0,,,2.98,10.0,,,1.0,1.0,90499.28,27.03,0.0,100995.23,23.0,0.0,KGOO,3154,-121.003083,39.224028
981,2018-08-14 15:00:00,101557.75,ESE,,KGOO 141500Z AUTO 11003KT 10SM CLR 24/04 A2999 RMK AO1,,4.0,,,3.99,10.0,,,1.0,1.0,90499.28,27.31,1.54,100958.3,24.0,110.0,KGOO,3154,-121.003083,39.224028
982,2018-08-14 15:20:00,101557.75,SE,,KGOO 141520Z AUTO 13003KT 10SM CLR 24/03 A2999 RMK AO1,,3.0,,,2.99,10.0,,,1.0,1.0,90499.28,25.45,1.54,100958.33,24.0,130.0,KGOO,3154,-121.003083,39.224028
983,2018-08-14 15:40:00,101591.61,N,,KGOO 141540Z AUTO 00000KT 10SM CLR 25/03 A3000 RMK AO1,,3.0,,,3.01,10.0,,,1.0,1.0,90529.45,23.97,0.0,100955.34,25.0,0.0,KGOO,3154,-121.003083,39.224028
984,2018-08-14 16:00:00,101591.61,N,,KGOO 141600Z AUTO 00000KT 10SM CLR 25/03 A3000 RMK AO1,,3.0,,,3.01,10.0,,,1.0,1.0,90529.45,23.97,0.0,100955.34,25.0,0.0,KGOO,3154,-121.003083,39.224028
985,2018-08-14 16:20:00,101591.61,N,,KGOO 141620Z AUTO 00000KT 10SM CLR 25/02 A3000 RMK AO1,,2.0,,,2.02,10.0,,,1.0,1.0,90529.45,22.33,0.0,100955.37,25.0,0.0,KGOO,3154,-121.003083,39.224028
986,2018-08-14 16:40:00,101591.61,N,,KGOO 141640Z AUTO 00000KT 10SM CLR 25/03 A3000 RMK AO1,,3.0,,,3.01,10.0,,,1.0,1.0,90529.45,23.97,0.0,100955.34,25.0,0.0,KGOO,3154,-121.003083,39.224028
987,2018-08-14 17:00:00,101591.61,SE,,KGOO 141700Z AUTO 14004KT 10SM CLR 27/03 A3000 RMK AO1,,3.0,,,3.04,10.0,,26.31,1.0,1.0,90529.45,21.3,2.06,100882.79,27.0,140.0,KGOO,3154,-121.003083,39.224028
988,2018-08-14 17:20:00,101625.47,SSE,,KGOO 141720Z AUTO 16004KT 10SM CLR 27/04 A3001 RMK AO1,,4.0,,,4.04,10.0,,26.35,1.0,1.0,90559.63,22.86,2.06,100916.39,27.0,160.0,KGOO,3154,-121.003083,39.224028
989,2018-08-14 17:40:00,101625.47,SE,,KGOO 141740Z AUTO 13003KT 10SM CLR 27/03 A3001 RMK AO1,,3.0,,,3.04,10.0,,26.31,1.0,1.0,90559.63,21.3,1.54,100916.42,27.0,130.0,KGOO,3154,-121.003083,39.224028
990,2018-08-14 18:00:00,101625.47,SSW,,KGOO 141800Z AUTO 21003KT 10SM CLR 28/02 A3001 RMK AO1,,2.0,,,2.07,10.0,,26.71,1.0,1.0,90559.63,18.72,1.54,100880.55,28.0,210.0,KGOO,3154,-121.003083,39.224028
991,2018-08-14 18:20:00,101625.47,SSW,,KGOO 141820Z AUTO 20003KT 10SM CLR 28/02 A3001 RMK AO1,,2.0,,,2.07,10.0,,26.71,1.0,1.0,90559.63,18.72,1.54,100880.55,28.0,200.0,KGOO,3154,-121.003083,39.224028
992,2018-08-14 18:40:00,101625.47,S,,KGOO 141840Z AUTO 18004KT 10SM CLR 28/00 A3001 RMK AO1,,0.0,,,0.08,10.0,,26.67,1.0,1.0,90559.63,16.2,2.06,100880.61,28.0,180.0,KGOO,3154,-121.003083,39.224028
993,2018-08-14 19:00:00,101625.47,SSW,,KGOO 141900Z AUTO 21005KT 10SM CLR 29/02 A3001 RMK AO1,,2.0,,,2.09,10.0,,27.41,1.0,1.0,90559.63,17.66,2.57,100844.89,29.0,210.0,KGOO,3154,-121.003083,39.224028
994,2018-08-14 19:20:00,101625.47,N,,KGOO 141920Z AUTO 00000KT 10SM CLR 30/03 A3001 RMK AO1,,3.0,,,3.11,10.0,,28.18,1.0,1.0,90559.63,17.91,0.0,100809.45,30.0,0.0,KGOO,3154,-121.003083,39.224028
995,2018-08-14 19:40:00,101625.47,S,,KGOO 141940Z AUTO 19003KT 10SM CLR 29/04 A3001 RMK AO1,,4.0,,,4.08,10.0,,27.47,1.0,1.0,90559.63,20.35,1.54,100844.83,29.0,190.0,KGOO,3154,-121.003083,39.224028
996,2018-08-14 20:00:00,101625.47,WSW,,KGOO 142000Z AUTO 25006KT 10SM CLR 30/02 A3001 RMK AO1,,2.0,,,2.12,10.0,,28.16,1.0,1.0,90559.63,16.68,3.09,100809.48,30.0,250.0,KGOO,3154,-121.003083,39.224028
997,2018-08-14 20:20:00,101591.61,W,,KGOO 142020Z AUTO 27006KT 10SM CLR 30/M02 A3000 RMK AO1,,-2.0,,,-1.85,10.0,,28.08,1.0,1.0,90529.45,12.47,3.09,100775.99,30.0,270.0,KGOO,3154,-121.003083,39.224028
998,2018-08-14 20:40:00,101625.47,SW,,KGOO 142040Z AUTO 22007KT 10SM CLR 29/M02 A3001 RMK AO1,,-2.0,,,-1.87,10.0,,27.36,1.0,1.0,90559.63,13.21,3.6,100845.0,29.0,220.0,KGOO,3154,-121.003083,39.224028
999,2018-08-14 21:00:00,101591.61,SW,,KGOO 142100Z AUTO 23004KT 10SM CLR 28/00 A3000 RMK AO1,,0.0,,,0.08,10.0,,26.67,1.0,1.0,90529.45,16.2,2.06,100846.99,28.0,230.0,KGOO,3154,-121.003083,39.224028
1000,2018-08-14 21:20:00,101591.61,SSE,,KGOO 142120Z AUTO 16003KT 10SM CLR 29/M02 A3000 RMK AO1,,-2.0,,,-1.87,10.0,,27.36,1.0,1.0,90529.45,13.21,1.54,100811.39,29.0,160.0,KGOO,3154,-121.003083,39.224028
1001,2018-08-14 21:40:00,101591.61,SSW,,KGOO 142140Z AUTO 20003KT 10SM CLR 28/02 A3000 RMK AO1,,2.0,,,2.07,10.0,,26.71,1.0,1.0,90529.45,18.72,1.54,100846.93,28.0,200.0,KGOO,3154,-121.003083,39.224028
1002,2018-08-14 22:00:00,101557.75,SSW,,KGOO 142200Z AUTO 20003KT 10SM CLR 28/03 A2999 RMK AO1,,3.0,,,3.07,10.0,,26.75,1.0,1.0,90499.28,20.1,1.54,100813.29,28.0,200.0,KGOO,3154,-121.003083,39.224028
1003,2018-08-14 22:20:00,101557.75,SSE,,KGOO 142220Z AUTO 16004KT 10SM CLR 29/M01 A2999 RMK AO1,,-1.0,,,-0.88,10.0,,27.37,1.0,1.0,90499.28,14.22,2.06,100777.77,29.0,160.0,KGOO,3154,-121.003083,39.224028
1004,2018-08-14 22:40:00,101523.88,N,,KGOO 142240Z AUTO 00000KT 10SM CLR 30/00 A2998 RMK AO1,,0.0,,,0.13,10.0,,28.14,1.0,1.0,90469.1,14.44,0.0,100708.76,30.0,0.0,KGOO,3154,-121.003083,39.224028
1005,2018-08-14 23:00:00,101523.88,SW,,KGOO 142300Z AUTO 23004KT 10SM CLR 30/00 A2998 RMK AO1,,0.0,,,0.13,10.0,,28.14,1.0,1.0,90469.1,14.44,2.06,100708.76,30.0,230.0,KGOO,3154,-121.003083,39.224028
1006,2018-08-14 23:20:00,101523.88,N,,KGOO 142320Z AUTO 00000KT 10SM CLR 29/00 A2998 RMK AO1,,0.0,,,0.11,10.0,,27.38,1.0,1.0,90469.1,15.29,0.0,100744.14,29.0,0.0,KGOO,3154,-121.003083,39.224028
1007,2018-08-14 23:40:00,101523.88,SSW,,KGOO 142340Z AUTO 21004KT 10SM CLR 29/02 A2998 RMK AO1,,2.0,,,2.09,10.0,,27.41,1.0,1.0,90469.1,17.66,2.06,100744.08,29.0,210.0,KGOO,3154,-121.003083,39.224028
1008,2018-08-15 00:00:00,101523.88,N,,KGOO 150000Z AUTO 00000KT 10SM CLR 30/03 A2998 RMK AO1,,3.0,,,3.11,10.0,,28.18,1.0,1.0,90469.1,17.91,0.0,100708.67,30.0,0.0,KGOO,3154,-121.003083,39.224028
1009,2018-08-15 00:20:00,101523.88,SSW,,KGOO 150020Z AUTO 20003KT 10SM CLR 30/02 A2998 RMK AO1,,2.0,,,2.12,10.0,,28.16,1.0,1.0,90469.1,16.68,1.54,100708.7,30.0,200.0,KGOO,3154,-121.003083,39.224028
1010,2018-08-15 00:40:00,101523.88,N,,KGOO 150040Z AUTO 00000KT 10SM CLR 29/02 A2998 RMK AO1,,2.0,,,2.09,10.0,,27.41,1.0,1.0,90469.1,17.66,0.0,100744.08,29.0,0.0,KGOO,3154,-121.003083,39.224028
1011,2018-08-15 01:00:00,101490.02,N,,KGOO 150100Z AUTO 00000KT 10SM CLR 29/02 A2997 RMK AO1,,2.0,,,2.09,10.0,,27.41,1.0,1.0,90438.93,17.66,0.0,100710.48,29.0,0.0,KGOO,3154,-121.003083,39.224028
1012,2018-08-15 01:20:00,101490.02,N,,KGOO 150120Z AUTO 00000KT 10SM CLR 29/02 A2997 RMK AO1,,2.0,,,2.09,10.0,,27.41,1.0,1.0,90438.93,17.66,0.0,100710.48,29.0,0.0,KGOO,3154,-121.003083,39.224028
1013,2018-08-15 01:40:00,101456.15,W,,KGOO 150140Z AUTO 28004KT 10SM CLR 29/05 A2996 RMK AO1,,5.0,,,5.08,10.0,,27.51,1.0,1.0,90408.74,21.83,2.06,100676.76,29.0,280.0,KGOO,3154,-121.003083,39.224028
1014,2018-08-15 02:00:00,101456.15,NW,,KGOO 150200Z AUTO 31003KT 10SM CLR 28/06 A2996 RMK AO1,,6.0,,,6.05,10.0,,26.88,1.0,1.0,90408.74,24.79,1.54,100712.32,28.0,310.0,KGOO,3154,-121.003083,39.224028
1015,2018-08-15 02:20:00,101456.15,WNW,,KGOO 150220Z AUTO 30003KT 10SM CLR 27/08 A2996 RMK AO1,,8.0,,,8.02,10.0,,26.54,1.0,1.0,90408.74,30.14,1.54,100748.09,27.0,300.0,KGOO,3154,-121.003083,39.224028
1016,2018-08-15 02:40:00,101456.15,N,,KGOO 150240Z AUTO 00000KT 10SM CLR 27/08 A2996 RMK AO1,,8.0,,,8.02,10.0,,26.54,1.0,1.0,90408.74,30.14,0.0,100748.09,27.0,0.0,KGOO,3154,-121.003083,39.224028
1017,2018-08-15 03:00:00,101456.15,WNW,,KGOO 150300Z AUTO 29003KT 10SM CLR 26/08 A2996 RMK AO1,,8.0,,,8.01,10.0,,,1.0,1.0,90408.74,31.97,1.54,100784.18,26.0,290.0,KGOO,3154,-121.003083,39.224028
1018,2018-08-15 03:20:00,101456.15,WNW,,KGOO 150320Z AUTO 30003KT 10SM CLR 25/09 A2996 RMK AO1,,9.0,,,9.0,10.0,,,1.0,1.0,90408.74,36.3,1.54,100820.49,25.0,300.0,KGOO,3154,-121.003083,39.224028
1019,2018-08-15 03:40:00,101456.15,N,,KGOO 150340Z AUTO 00000KT 10SM CLR 24/09 A2996 RMK AO1,,9.0,,,8.99,10.0,,,1.0,1.0,90408.74,38.53,0.0,100857.09,24.0,0.0,KGOO,3154,-121.003083,39.224028
1020,2018-08-15 04:00:00,101490.02,N,,KGOO 150400Z AUTO 00000KT 10SM CLR 23/09 A2997 RMK AO1,,9.0,,,8.98,10.0,,,1.0,1.0,90438.93,40.92,0.0,100927.64,23.0,0.0,KGOO,3154,-121.003083,39.224028
1021,2018-08-15 04:20:00,101490.02,N,,KGOO 150420Z AUTO 00000KT 10SM CLR 23/09 A2997 RMK AO1,,9.0,,,8.98,10.0,,,1.0,1.0,90438.93,40.92,0.0,100927.64,23.0,0.0,KGOO,3154,-121.003083,39.224028
1022,2018-08-15 04:40:00,101490.02,SSE,,KGOO 150440Z AUTO 15004KT 10SM CLR 22/09 A2997 RMK AO1,,9.0,,,8.97,10.0,,,1.0,1.0,90438.93,43.48,2.06,100964.78,22.0,150.0,KGOO,3154,-121.003083,39.224028
1023,2018-08-15 05:00:00,101523.88,SE,,KGOO 150500Z AUTO 13004KT 10SM CLR 22/09 A2998 RMK AO1,,9.0,,,8.97,10.0,,,1.0,1.0,90469.1,43.48,2.06,100998.46,22.0,130.0,KGOO,3154,-121.003083,39.224028
1024,2018-08-15 05:20:00,101523.88,SE,,KGOO 150520Z AUTO 13004KT 10SM CLR 22/09 A2998 RMK AO1,,9.0,,,8.97,10.0,,,1.0,1.0,90469.1,43.48,2.06,100998.46,22.0,130.0,KGOO,3154,-121.003083,39.224028
1025,2018-08-15 05:40:00,101523.88,N,,KGOO 150540Z AUTO 00000KT 10SM CLR 22/09 A2998 RMK AO1,,9.0,,,8.97,10.0,,,1.0,1.0,90469.1,43.48,0.0,100998.46,22.0,0.0,KGOO,3154,-121.003083,39.224028
1026,2018-08-15 06:00:00,101523.88,SE,,KGOO 150600Z AUTO 13003KT 10SM CLR 22/09 A2998 RMK AO1,,9.0,,,8.97,10.0,,,1.0,1.0,90469.1,43.48,1.54,100998.46,22.0,130.0,KGOO,3154,-121.003083,39.224028
1027,2018-08-15 06:20:00,101490.02,N,,KGOO 150620Z AUTO 00000KT 10SM CLR 22/09 A2997 RMK AO1,,9.0,,,8.97,10.0,,,1.0,1.0,90438.93,43.48,0.0,100964.78,22.0,0.0,KGOO,3154,-121.003083,39.224028
1028,2018-08-15 06:40:00,101490.02,N,,KGOO 150640Z AUTO 00000KT 10SM CLR 22/09 A2997 RMK AO1,,9.0,,,8.97,10.0,,,1.0,1.0,90438.93,43.48,0.0,100964.78,22.0,0.0,KGOO,3154,-121.003083,39.224028
1029,2018-08-15 07:00:00,101523.88,N,,KGOO 150700Z AUTO 00000KT 10SM CLR 22/09 A2998 RMK AO1,,9.0,,,8.97,10.0,,,1.0,1.0,90469.1,43.48,0.0,100998.46,22.0,0.0,KGOO,3154,-121.003083,39.224028
1030,2018-08-15 07:20:00,101523.88,N,,KGOO 150720Z AUTO 00000KT 10SM CLR 22/08 A2998 RMK AO1,,8.0,,,7.97,10.0,,,1.0,1.0,90469.1,40.63,0.0,100998.5,22.0,0.0,KGOO,3154,-121.003083,39.224028
1031,2018-08-15 07:40:00,101523.88,N,,KGOO 150740Z AUTO 00000KT 10SM CLR 23/08 A2998 RMK AO1,,8.0,,,7.98,10.0,,,1.0,1.0,90469.1,38.24,0.0,100961.36,23.0,0.0,KGOO,3154,-121.003083,39.224028
1032,2018-08-15 08:00:00,101523.88,N,,KGOO 150800Z AUTO 00000KT 10SM CLR 22/08 A2998 RMK AO1,,8.0,,,7.97,10.0,,,1.0,1.0,90469.1,40.63,0.0,100998.5,22.0,0.0,KGOO,3154,-121.003083,39.224028
1033,2018-08-15 08:20:00,101523.88,N,,KGOO 150820Z AUTO 00000KT 10SM CLR 22/08 A2998 RMK AO1,,8.0,,,7.97,10.0,,,1.0,1.0,90469.1,40.63,0.0,100998.5,22.0,0.0,KGOO,3154,-121.003083,39.224028
1034,2018-08-15 08:40:00,101523.88,N,,KGOO 150840Z AUTO 00000KT 10SM CLR 22/08 A2998 RMK AO1,,8.0,,,7.97,10.0,,,1.0,1.0,90469.1,40.63,0.0,100998.5,22.0,0.0,KGOO,3154,-121.003083,39.224028
1035,2018-08-15 09:00:00,101523.88,N,,KGOO 150900Z AUTO 00000KT 10SM CLR 22/08 A2998 RMK AO1,,8.0,,,7.97,10.0,,,1.0,1.0,90469.1,40.63,0.0,100998.5,22.0,0.0,KGOO,3154,-121.003083,39.224028
1036,2018-08-15 09:20:00,101523.88,N,,KGOO 150920Z AUTO 00000KT 10SM CLR 22/08 A2998 RMK AO1,,8.0,,,7.97,10.0,,,1.0,1.0,90469.1,40.63,0.0,100998.5,22.0,0.0,KGOO,3154,-121.003083,39.224028
1037,2018-08-15 09:40:00,101523.88,N,,KGOO 150940Z AUTO 00000KT 10SM CLR 22/08 A2998 RMK AO1,,8.0,,,7.97,10.0,,,1.0,1.0,90469.1,40.63,0.0,100998.5,22.0,0.0,KGOO,3154,-121.003083,39.224028
1038,2018-08-15 10:00:00,101523.88,E,,KGOO 151000Z AUTO 10003KT 10SM CLR 22/06 A2998 RMK AO1,,6.0,,,5.96,10.0,,,1.0,1.0,90469.1,35.42,1.54,100998.59,22.0,100.0,KGOO,3154,-121.003083,39.224028
1039,2018-08-15 10:20:00,101523.88,E,,KGOO 151020Z AUTO 09003KT 10SM CLR 22/06 A2998 RMK AO1,,6.0,,,5.96,10.0,,,1.0,1.0,90469.1,35.42,1.54,100998.59,22.0,90.0,KGOO,3154,-121.003083,39.224028
1040,2018-08-15 10:40:00,101523.88,N,,KGOO 151040Z AUTO 00000KT 10SM CLR 22/06 A2998 RMK AO1,,6.0,,,5.96,10.0,,,1.0,1.0,90469.1,35.42,0.0,100998.59,22.0,0.0,KGOO,3154,-121.003083,39.224028
1041,2018-08-15 11:00:00,101523.88,ESE,,KGOO 151100Z AUTO 11003KT 10SM CLR 22/05 A2998 RMK AO1,,5.0,,,4.97,10.0,,,1.0,1.0,90469.1,33.05,1.54,100998.63,22.0,110.0,KGOO,3154,-121.003083,39.224028
1042,2018-08-15 11:20:00,101523.88,E,,KGOO 151120Z AUTO 10003KT 10SM CLR 22/06 A2998 RMK AO1,,6.0,,,5.96,10.0,,,1.0,1.0,90469.1,35.42,1.54,100998.59,22.0,100.0,KGOO,3154,-121.003083,39.224028
1043,2018-08-15 11:40:00,101523.88,N,,KGOO 151140Z AUTO 00000KT 10SM CLR 22/06 A2998 RMK AO1,,6.0,,,5.96,10.0,,,1.0,1.0,90469.1,35.42,0.0,100998.59,22.0,0.0,KGOO,3154,-121.003083,39.224028
1044,2018-08-15 12:00:00,101523.88,N,,KGOO 151200Z AUTO 00000KT 10SM CLR 22/06 A2998 RMK AO1,,6.0,,,5.96,10.0,,,1.0,1.0,90469.1,35.42,0.0,100998.59,22.0,0.0,KGOO,3154,-121.003083,39.224028
1045,2018-08-15 12:20:00,101523.88,ESE,,KGOO 151220Z AUTO 12003KT 10SM CLR 22/05 A2998 RMK AO1,,5.0,,,4.97,10.0,,,1.0,1.0,90469.1,33.05,1.54,100998.63,22.0,120.0,KGOO,3154,-121.003083,39.224028
1046,2018-08-15 12:40:00,101523.88,ESE,,KGOO 151240Z AUTO 11005KT 10SM CLR 22/05 A2998 RMK AO1,,5.0,,,4.97,10.0,,,1.0,1.0,90469.1,33.05,2.57,100998.63,22.0,110.0,KGOO,3154,-121.003083,39.224028
1047,2018-08-15 13:00:00,101523.88,ESE,,KGOO 151300Z AUTO 11004KT 10SM CLR 22/05 A2998 RMK AO1,,5.0,,,4.97,10.0,,,1.0,1.0,90469.1,33.05,2.06,100998.63,22.0,110.0,KGOO,3154,-121.003083,39.224028
1048,2018-08-15 13:20:00,101557.75,N,,KGOO 151320Z AUTO 00000KT 10SM CLR 22/04 A2999 RMK AO1,,4.0,,,3.97,10.0,,,1.0,1.0,90499.28,30.82,0.0,101032.36,22.0,0.0,KGOO,3154,-121.003083,39.224028
1049,2018-08-15 13:40:00,101557.75,N,,KGOO 151340Z AUTO 00000KT 10SM CLR 22/04 A2999 RMK AO1,,4.0,,,3.97,10.0,,,1.0,1.0,90499.28,30.82,0.0,101032.36,22.0,0.0,KGOO,3154,-121.003083,39.224028
1050,2018-08-15 14:00:00,101591.61,N,,KGOO 151400Z AUTO 00000KT 10SM CLR 22/04 A3000 RMK AO1,,4.0,,,3.97,10.0,,,1.0,1.0,90529.45,30.82,0.0,101066.04,22.0,0.0,KGOO,3154,-121.003083,39.224028
1051,2018-08-15 14:20:00,101591.61,N,,KGOO 151420Z AUTO 00000KT 10SM CLR 22/04 A3000 RMK AO1,,4.0,,,3.97,10.0,,,1.0,1.0,90529.45,30.82,0.0,101066.04,22.0,0.0,KGOO,3154,-121.003083,39.224028
1052,2018-08-15 14:40:00,101591.61,N,,KGOO 151440Z AUTO 00000KT 10SM CLR 23/05 A3000 RMK AO1,,5.0,,,4.98,10.0,,,1.0,1.0,90529.45,31.11,0.0,101028.83,23.0,0.0,KGOO,3154,-121.003083,39.224028
1053,2018-08-15 15:00:00,101625.47,SSE,,KGOO 151500Z AUTO 15003KT 10SM CLR 23/06 A3001 RMK AO1,,6.0,,,5.98,10.0,,,1.0,1.0,90559.63,33.34,1.54,101062.47,23.0,150.0,KGOO,3154,-121.003083,39.224028
1054,2018-08-15 15:20:00,101659.34,N,,KGOO 151520Z AUTO 00000KT 10SM CLR 24/06 A3002 RMK AO1,,6.0,,,5.99,10.0,,,1.0,1.0,90589.81,31.39,0.0,101059.22,24.0,0.0,KGOO,3154,-121.003083,39.224028
1055,2018-08-15 15:40:00,101659.34,SE,,KGOO 151540Z AUTO 14003KT 10SM CLR 24/05 A3002 RMK AO1,,5.0,,,4.99,10.0,,,1.0,1.0,90589.81,29.29,1.54,101059.25,24.0,140.0,KGOO,3154,-121.003083,39.224028
1056,2018-08-15 16:00:00,101693.2,SSE,,KGOO 151600Z AUTO 15004KT 10SM CLR 24/06 A3003 RMK AO1,,6.0,,,5.99,10.0,,,1.0,1.0,90619.98,31.39,2.06,101092.87,24.0,150.0,KGOO,3154,-121.003083,39.224028
1057,2018-08-15 16:20:00,101693.2,SE,,KGOO 151620Z AUTO 14004KT 10SM CLR 25/06 A3003 RMK AO1,,6.0,,,6.0,10.0,,,1.0,1.0,90619.98,29.57,2.06,101056.18,25.0,140.0,KGOO,3154,-121.003083,39.224028
1058,2018-08-15 16:40:00,101693.2,SE,,KGOO 151640Z AUTO 14004KT 10SM CLR 25/06 A3003 RMK AO1,,6.0,,,6.0,10.0,,,1.0,1.0,90619.98,29.57,2.06,101056.18,25.0,140.0,KGOO,3154,-121.003083,39.224028
1059,2018-08-15 17:00:00,101693.2,ESE,,KGOO 151700Z AUTO 12003KT 10SM CLR 27/07 A3003 RMK AO1,,7.0,,,7.03,10.0,,26.49,1.0,1.0,90619.98,28.15,1.54,100983.53,27.0,120.0,KGOO,3154,-121.003083,39.224028
1060,2018-08-15 17:20:00,101727.07,SSE,,KGOO 151720Z AUTO 16003KT 10SM CLR 27/07 A3004 RMK AO1,,7.0,,,7.03,10.0,,26.49,1.0,1.0,90650.16,28.15,1.54,101017.16,27.0,160.0,KGOO,3154,-121.003083,39.224028
1061,2018-08-15 17:40:00,101727.07,S,,KGOO 151740Z AUTO 18004KT 10SM CLR 27/06 A3004 RMK AO1,,6.0,,,6.03,10.0,,26.44,1.0,1.0,90650.16,26.28,2.06,101017.2,27.0,180.0,KGOO,3154,-121.003083,39.224028
1062,2018-08-15 18:00:00,101727.07,SSE,,KGOO 151800Z AUTO 15004KT 10SM CLR 28/04 A3004 RMK AO1,,4.0,,,4.06,10.0,,26.78,1.0,1.0,90650.16,21.57,2.06,100981.33,28.0,150.0,KGOO,3154,-121.003083,39.224028
1063,2018-08-15 18:20:00,101727.07,N,,KGOO 151820Z AUTO 00000KT 10SM CLR 28/03 A3004 RMK AO1,,3.0,,,3.07,10.0,,26.75,1.0,1.0,90650.16,20.1,0.0,100981.37,28.0,0.0,KGOO,3154,-121.003083,39.224028
1064,2018-08-15 18:40:00,101727.07,N,,KGOO 151840Z AUTO 00000KT 10SM CLR 28/02 A3004 RMK AO1,,2.0,,,2.07,10.0,,26.71,1.0,1.0,90650.16,18.72,0.0,100981.4,28.0,0.0,KGOO,3154,-121.003083,39.224028
1065,2018-08-15 19:00:00,101727.07,N,,KGOO 151900Z AUTO 00000KT 10SM CLR 29/01 A3004 RMK AO1,,1.0,,,1.1,10.0,,27.39,1.0,1.0,90650.16,16.44,0.0,100945.73,29.0,0.0,KGOO,3154,-121.003083,39.224028
1066,2018-08-15 19:20:00,101727.07,N,,KGOO 151920Z AUTO 00000KT 10SM CLR 30/03 A3004 RMK AO1,,3.0,,,3.11,10.0,,28.18,1.0,1.0,90650.16,17.91,0.0,100910.22,30.0,0.0,KGOO,3154,-121.003083,39.224028
1067,2018-08-15 19:40:00,101727.07,SW,,KGOO 151940Z AUTO 22006KT 10SM CLR 29/03 A3004 RMK AO1,,3.0,,,3.09,10.0,,27.44,1.0,1.0,90650.16,18.97,3.09,100945.67,29.0,220.0,KGOO,3154,-121.003083,39.224028
1068,2018-08-15 20:00:00,101727.07,SSW,,KGOO 152000Z AUTO 20004KT 10SM CLR 30/04 A3004 RMK AO1,,4.0,,,4.1,10.0,,28.22,1.0,1.0,90650.16,19.21,2.06,100910.19,30.0,200.0,KGOO,3154,-121.003083,39.224028
1069,2018-08-15 20:20:00,101727.07,S,,KGOO 152020Z AUTO 19003KT 10SM CLR 30/03 A3004 RMK AO1,,3.0,,,3.11,10.0,,28.18,1.0,1.0,90650.16,17.91,1.54,100910.22,30.0,190.0,KGOO,3154,-121.003083,39.224028
1070,2018-08-15 20:40:00,101727.07,SSW,,KGOO 152040Z AUTO 20004KT 10SM CLR 30/04 A3004 RMK AO1,,4.0,,,4.1,10.0,,28.22,1.0,1.0,90650.16,19.21,2.06,100910.19,30.0,200.0,KGOO,3154,-121.003083,39.224028
1071,2018-08-15 21:00:00,101727.07,ESE,,KGOO 152100Z AUTO 12004KT 10SM CLR 31/03 A3004 RMK AO1,,3.0,,,3.13,10.0,,28.98,1.0,1.0,90650.16,16.91,2.06,100875.02,31.0,120.0,KGOO,3154,-121.003083,39.224028
1072,2018-08-15 21:20:00,101693.2,SW,,KGOO 152120Z AUTO 23005KT 10SM CLR 30/04 A3003 RMK AO1,,4.0,,,4.1,10.0,,28.22,1.0,1.0,90619.98,19.21,2.57,100876.59,30.0,230.0,KGOO,3154,-121.003083,39.224028
1073,2018-08-15 21:40:00,101693.2,SSW,,KGOO 152140Z AUTO 21005KT 10SM CLR 30/05 A3003 RMK AO1,,5.0,,,5.1,10.0,,28.26,1.0,1.0,90619.98,20.61,2.57,100876.56,30.0,210.0,KGOO,3154,-121.003083,39.224028
1074,2018-08-15 22:00:00,101693.2,SSW,,KGOO 152200Z AUTO 20004KT 10SM CLR 30/05 A3003 RMK AO1,,5.0,,,5.1,10.0,,28.26,1.0,1.0,90619.98,20.61,2.06,100876.56,30.0,200.0,KGOO,3154,-121.003083,39.224028
1075,2018-08-15 22:20:00,101693.2,S,,KGOO 152220Z AUTO 19004KT 10SM CLR 30/05 A3003 RMK AO1,,5.0,,,5.1,10.0,,28.26,1.0,1.0,90619.98,20.61,2.06,100876.56,30.0,190.0,KGOO,3154,-121.003083,39.224028
1076,2018-08-15 22:40:00,101693.2,S,,KGOO 152240Z AUTO 19003KT 10SM CLR 30/04 A3003 RMK AO1,,4.0,,,4.1,10.0,,28.22,1.0,1.0,90619.98,19.21,1.54,100876.59,30.0,190.0,KGOO,3154,-121.003083,39.224028
1077,2018-08-15 23:00:00,101659.34,W,,KGOO 152300Z AUTO 27008KT 10SM CLR 29/07 A3002 RMK AO1,,7.0,,,7.06,10.0,,27.63,1.0,1.0,90589.81,25.06,4.12,100878.32,29.0,270.0,KGOO,3154,-121.003083,39.224028
1078,2018-08-15 23:20:00,101659.34,N,,KGOO 152320Z AUTO 00000KT 10SM CLR 29/05 A3002 RMK AO1,,5.0,,,5.08,10.0,,27.51,1.0,1.0,90589.81,21.83,0.0,100878.4,29.0,0.0,KGOO,3154,-121.003083,39.224028
1079,2018-08-15 23:40:00,101659.34,SW,,KGOO 152340Z AUTO 23005KT 10SM CLR 29/07 A3002 RMK AO1,,7.0,,,7.06,10.0,,27.63,1.0,1.0,90589.81,25.06,2.57,100878.32,29.0,230.0,KGOO,3154,-121.003083,39.224028
1080,2018-08-16 00:00:00,101659.34,W,,KGOO 160000Z AUTO 27005KT 10SM CLR 28/06 A3002 RMK AO1,,6.0,,,6.05,10.0,,26.88,1.0,1.0,90589.81,24.79,2.57,100914.03,28.0,270.0,KGOO,3154,-121.003083,39.224028
1081,2018-08-16 00:20:00,101659.34,SSW,,KGOO 160020Z AUTO 21005KT 10SM CLR 29/06 A3002 RMK AO1,,6.0,,,6.07,10.0,,27.56,1.0,1.0,90589.81,23.4,2.57,100878.36,29.0,210.0,KGOO,3154,-121.003083,39.224028
1082,2018-08-16 00:40:00,101659.34,SSW,,KGOO 160040Z AUTO 21003KT 10SM CLR 28/04 A3002 RMK AO1,,4.0,,,4.06,10.0,,26.78,1.0,1.0,90589.81,21.57,1.54,100914.1,28.0,210.0,KGOO,3154,-121.003083,39.224028
1083,2018-08-16 01:00:00,101659.34,N,,KGOO 160100Z AUTO 00000KT 10SM CLR 28/04 A3002 RMK AO1,,4.0,,,4.06,10.0,,26.78,1.0,1.0,90589.81,21.57,0.0,100914.1,28.0,0.0,KGOO,3154,-121.003083,39.224028
1084,2018-08-16 01:20:00,101659.34,S,,KGOO 160120Z AUTO 19004KT 10SM CLR 28/07 A3002 RMK AO1,,7.0,,,7.05,10.0,,26.95,1.0,1.0,90589.81,26.56,2.06,100913.99,28.0,190.0,KGOO,3154,-121.003083,39.224028
1085,2018-08-16 01:40:00,101659.34,N,,KGOO 160140Z AUTO 00000KT 10SM CLR 28/07 A3002 RMK AO1,,7.0,,,7.05,10.0,,26.95,1.0,1.0,90589.81,26.56,0.0,100913.99,28.0,0.0,KGOO,3154,-121.003083,39.224028
1086,2018-08-16 02:00:00,101659.34,N,,KGOO 160200Z AUTO 00000KT 10SM CLR 27/07 A3002 RMK AO1,,7.0,,,7.03,10.0,,26.49,1.0,1.0,90589.81,28.15,0.0,100949.91,27.0,0.0,KGOO,3154,-121.003083,39.224028
1087,2018-08-16 02:20:00,101625.47,N,,KGOO 160220Z AUTO 00000KT 10SM CLR 26/07 A3001 RMK AO1,,7.0,,,7.01,10.0,,,1.0,1.0,90559.63,29.86,0.0,100952.43,26.0,0.0,KGOO,3154,-121.003083,39.224028
1088,2018-08-16 02:40:00,101659.34,N,,KGOO 160240Z AUTO 00000KT 10SM CLR 25/07 A3002 RMK AO1,,7.0,,,7.0,10.0,,,1.0,1.0,90589.81,31.68,0.0,101022.5,25.0,0.0,KGOO,3154,-121.003083,39.224028
1089,2018-08-16 03:00:00,101659.34,N,,KGOO 160300Z AUTO 00000KT 10SM CLR 25/07 A3002 RMK AO1,,7.0,,,7.0,10.0,,,1.0,1.0,90589.81,31.68,0.0,101022.5,25.0,0.0,KGOO,3154,-121.003083,39.224028
1090,2018-08-16 03:20:00,101659.34,N,,KGOO 160320Z AUTO 00000KT 10SM CLR 24/08 A3002 RMK AO1,,8.0,,,7.99,10.0,,,1.0,1.0,90589.81,36.01,0.0,101059.13,24.0,0.0,KGOO,3154,-121.003083,39.224028
1091,2018-08-16 03:40:00,101693.2,N,,KGOO 160340Z AUTO 00000KT 10SM CLR 24/08 A3003 RMK AO1,,8.0,,,7.99,10.0,,,1.0,1.0,90619.98,36.01,0.0,101092.79,24.0,0.0,KGOO,3154,-121.003083,39.224028
1092,2018-08-16 04:00:00,101693.2,N,,KGOO 160400Z AUTO 00000KT 10SM CLR 23/08 A3003 RMK AO1,,8.0,,,7.98,10.0,,,1.0,1.0,90619.98,38.24,0.0,101129.74,23.0,0.0,KGOO,3154,-121.003083,39.224028
1093,2018-08-16 04:20:00,101693.2,N,,KGOO 160420Z AUTO 00000KT 10SM CLR 23/08 A3003 RMK AO1,,8.0,,,7.98,10.0,,,1.0,1.0,90619.98,38.24,0.0,101129.74,23.0,0.0,KGOO,3154,-121.003083,39.224028
1094,2018-08-16 04:40:00,101727.07,N,,KGOO 160440Z AUTO 00000KT 10SM CLR 23/08 A3004 RMK AO1,,8.0,,,7.98,10.0,,,1.0,1.0,90650.16,38.24,0.0,101163.42,23.0,0.0,KGOO,3154,-121.003083,39.224028
1095,2018-08-16 05:00:00,101727.07,ESE,,KGOO 160500Z AUTO 11004KT 10SM CLR 23/08 A3004 RMK AO1,,8.0,,,7.98,10.0,,,1.0,1.0,90650.16,38.24,2.06,101163.42,23.0,110.0,KGOO,3154,-121.003083,39.224028
1096,2018-08-16 05:20:00,101727.07,ESE,,KGOO 160520Z AUTO 11004KT 10SM CLR 22/08 A3004 RMK AO1,,8.0,,,7.97,10.0,,,1.0,1.0,90650.16,40.63,2.06,101200.64,22.0,110.0,KGOO,3154,-121.003083,39.224028
1097,2018-08-16 05:40:00,101727.07,ESE,,KGOO 160540Z AUTO 11004KT 10SM CLR 23/08 A3004 RMK AO1,,8.0,,,7.98,10.0,,,1.0,1.0,90650.16,38.24,2.06,101163.42,23.0,110.0,KGOO,3154,-121.003083,39.224028
1098,2018-08-16 06:00:00,101727.07,SE,,KGOO 160600Z AUTO 13003KT 10SM CLR 23/08 A3004 RMK AO1,,8.0,,,7.98,10.0,,,1.0,1.0,90650.16,38.24,1.54,101163.42,23.0,130.0,KGOO,3154,-121.003083,39.224028
1099,2018-08-16 06:20:00,101727.07,N,,KGOO 160620Z AUTO 00000KT 10SM CLR 23/08 A3004 RMK AO1,,8.0,,,7.98,10.0,,,1.0,1.0,90650.16,38.24,0.0,101163.42,23.0,0.0,KGOO,3154,-121.003083,39.224028
1100,2018-08-16 06:40:00,101727.07,E,,KGOO 160640Z AUTO 09003KT 10SM CLR 22/08 A3004 RMK AO1,,8.0,,,7.97,10.0,,,1.0,1.0,90650.16,40.63,1.54,101200.64,22.0,90.0,KGOO,3154,-121.003083,39.224028
1101,2018-08-16 07:00:00,101760.93,N,,KGOO 160700Z AUTO 00000KT 10SM CLR 22/08 A3005 RMK AO1,,8.0,,,7.97,10.0,,,1.0,1.0,90680.34,40.63,0.0,101234.33,22.0,0.0,KGOO,3154,-121.003083,39.224028
1102,2018-08-16 07:20:00,101760.93,ESE,,KGOO 160720Z AUTO 11004KT 10SM CLR 23/07 A3005 RMK AO1,,7.0,,,6.98,10.0,,,1.0,1.0,90680.34,35.72,2.06,101197.14,23.0,110.0,KGOO,3154,-121.003083,39.224028
1103,2018-08-16 07:40:00,101760.93,ESE,,KGOO 160740Z AUTO 11003KT 10SM CLR 23/07 A3005 RMK AO1,,7.0,,,6.98,10.0,,,1.0,1.0,90680.34,35.72,1.54,101197.14,23.0,110.0,KGOO,3154,-121.003083,39.224028
1104,2018-08-16 08:00:00,101760.93,ESE,,KGOO 160800Z AUTO 11004KT 10SM CLR 23/05 A3005 RMK AO1,,5.0,,,4.98,10.0,,,1.0,1.0,90680.34,31.11,2.06,101197.22,23.0,110.0,KGOO,3154,-121.003083,39.224028
1105,2018-08-16 08:20:00,101760.93,ESE,,KGOO 160820Z AUTO 11003KT 10SM CLR 23/05 A3005 RMK AO1,,5.0,,,4.98,10.0,,,1.0,1.0,90680.34,31.11,1.54,101197.22,23.0,110.0,KGOO,3154,-121.003083,39.224028
1106,2018-08-16 08:40:00,101760.93,ESE,,KGOO 160840Z AUTO 11003KT 10SM CLR 23/05 A3005 RMK AO1,,5.0,,,4.98,10.0,,,1.0,1.0,90680.34,31.11,1.54,101197.22,23.0,110.0,KGOO,3154,-121.003083,39.224028
1107,2018-08-16 09:00:00,101760.93,N,,KGOO 160900Z AUTO 00000KT 10SM CLR 23/04 A3005 RMK AO1,,4.0,,,3.98,10.0,,,1.0,1.0,90680.34,29.0,0.0,101197.26,23.0,0.0,KGOO,3154,-121.003083,39.224028
1108,2018-08-16 09:20:00,101760.93,N,,KGOO 160920Z AUTO 00000KT 10SM CLR 22/04 A3005 RMK AO1,,4.0,,,3.97,10.0,,,1.0,1.0,90680.34,30.82,0.0,101234.49,22.0,0.0,KGOO,3154,-121.003083,39.224028
1109,2018-08-16 09:40:00,101760.93,N,,KGOO 160940Z AUTO 00000KT 10SM CLR 22/04 A3005 RMK AO1,,4.0,,,3.97,10.0,,,1.0,1.0,90680.34,30.82,0.0,101234.49,22.0,0.0,KGOO,3154,-121.003083,39.224028
1110,2018-08-16 10:00:00,101794.79,N,,KGOO 161000Z AUTO 00000KT 10SM CLR 22/04 A3006 RMK AO1,,4.0,,,3.97,10.0,,,1.0,1.0,90710.51,30.82,0.0,101268.17,22.0,0.0,KGOO,3154,-121.003083,39.224028
1111,2018-08-16 10:20:00,101794.79,N,,KGOO 161020Z AUTO 00000KT 10SM CLR 22/04 A3006 RMK AO1,,4.0,,,3.97,10.0,,,1.0,1.0,90710.51,30.82,0.0,101268.17,22.0,0.0,KGOO,3154,-121.003083,39.224028
1112,2018-08-16 10:40:00,101794.79,N,,KGOO 161040Z AUTO 00000KT 10SM CLR 22/04 A3006 RMK AO1,,4.0,,,3.97,10.0,,,1.0,1.0,90710.51,30.82,0.0,101268.17,22.0,0.0,KGOO,3154,-121.003083,39.224028
1113,2018-08-16 11:00:00,101794.79,N,,KGOO 161100Z AUTO 00000KT 10SM CLR 22/04 A3006 RMK AO1,,4.0,,,3.97,10.0,,,1.0,1.0,90710.51,30.82,0.0,101268.17,22.0,0.0,KGOO,3154,-121.003083,39.224028
1114,2018-08-16 11:20:00,101794.79,N,,KGOO 161120Z AUTO 00000KT 10SM CLR 22/04 A3006 RMK AO1,,4.0,,,3.97,10.0,,,1.0,1.0,90710.51,30.82,0.0,101268.17,22.0,0.0,KGOO,3154,-121.003083,39.224028
1115,2018-08-16 11:40:00,101794.79,N,,KGOO 161140Z AUTO 00000KT 10SM CLR 22/04 A3006 RMK AO1,,4.0,,,3.97,10.0,,,1.0,1.0,90710.51,30.82,0.0,101268.17,22.0,0.0,KGOO,3154,-121.003083,39.224028
1116,2018-08-16 12:00:00,101794.79,ESE,,KGOO 161200Z AUTO 11003KT 10SM CLR 23/04 A3006 RMK AO1,,4.0,,,3.98,10.0,,,1.0,1.0,90710.51,29.0,1.54,101230.93,23.0,110.0,KGOO,3154,-121.003083,39.224028
1117,2018-08-16 12:20:00,101828.66,ESE,,KGOO 161220Z AUTO 12003KT 10SM CLR 23/04 A3007 RMK AO1,,4.0,,,3.98,10.0,,,1.0,1.0,90740.69,29.0,1.54,101264.61,23.0,120.0,KGOO,3154,-121.003083,39.224028
1118,2018-08-16 12:40:00,101828.66,N,,KGOO 161240Z AUTO 00000KT 10SM CLR 23/04 A3007 RMK AO1,,4.0,,,3.98,10.0,,,1.0,1.0,90740.69,29.0,0.0,101264.61,23.0,0.0,KGOO,3154,-121.003083,39.224028
1119,2018-08-16 13:00:00,101862.52,N,,KGOO 161300Z AUTO 00000KT 10SM CLR 23/04 A3008 RMK AO1,,4.0,,,3.98,10.0,,,1.0,1.0,90770.86,29.0,0.0,101298.28,23.0,0.0,KGOO,3154,-121.003083,39.224028
1120,2018-08-16 13:20:00,101862.52,N,,KGOO 161320Z AUTO 00000KT 10SM CLR 22/04 A3008 RMK AO1,,4.0,,,3.97,10.0,,,1.0,1.0,90770.86,30.82,0.0,101335.55,22.0,0.0,KGOO,3154,-121.003083,39.224028
1121,2018-08-16 13:40:00,101896.38,ESE,,KGOO 161340Z AUTO 12003KT 10SM CLR 23/04 A3009 RMK AO1,,4.0,,,3.98,10.0,,,1.0,1.0,90801.04,29.0,1.54,101331.96,23.0,120.0,KGOO,3154,-121.003083,39.224028
1122,2018-08-16 14:00:00,101896.38,E,,KGOO 161400Z AUTO 10005KT 10SM CLR 23/03 A3009 RMK AO1,,3.0,,,2.98,10.0,,,1.0,1.0,90801.04,27.03,2.57,101331.99,23.0,100.0,KGOO,3154,-121.003083,39.224028
1123,2018-08-16 14:20:00,101930.25,E,,KGOO 161420Z AUTO 10004KT 10SM CLR 23/04 A3010 RMK AO1,,4.0,,,3.98,10.0,,,1.0,1.0,90831.22,29.0,2.06,101365.64,23.0,100.0,KGOO,3154,-121.003083,39.224028
1124,2018-08-16 14:40:00,101930.25,ESE,,KGOO 161440Z AUTO 11004KT 10SM CLR 24/04 A3010 RMK AO1,,4.0,,,3.99,10.0,,,1.0,1.0,90831.22,27.31,2.06,101328.6,24.0,110.0,KGOO,3154,-121.003083,39.224028
1125,2018-08-16 15:00:00,101964.11,ESE,,KGOO 161500Z AUTO 12004KT 10SM CLR 25/04 A3011 RMK AO1,,4.0,,,4.01,10.0,,,1.0,1.0,90861.39,25.73,2.06,101325.47,25.0,120.0,KGOO,3154,-121.003083,39.224028
1126,2018-08-16 15:20:00,101964.11,SE,,KGOO 161520Z AUTO 13003KT 10SM CLR 25/05 A3011 RMK AO1,,5.0,,,5.0,10.0,,,1.0,1.0,90861.39,27.59,1.54,101325.43,25.0,130.0,KGOO,3154,-121.003083,39.224028
1127,2018-08-16 15:40:00,101997.98,SSE,,KGOO 161540Z AUTO 15004KT 10SM CLR 25/07 A3012 RMK AO1,,7.0,,,7.0,10.0,,,1.0,1.0,90891.57,31.68,2.06,101359.01,25.0,150.0,KGOO,3154,-121.003083,39.224028
1128,2018-08-16 16:00:00,101997.98,SSE,,KGOO 161600Z AUTO 15004KT 10SM CLR 25/07 A3012 RMK AO1,,7.0,,,7.0,10.0,,,1.0,1.0,90891.57,31.68,2.06,101359.01,25.0,150.0,KGOO,3154,-121.003083,39.224028
1129,2018-08-16 16:20:00,102031.84,SSE,,KGOO 161620Z AUTO 15003KT 10SM CLR 25/07 A3013 RMK AO1,,7.0,,,7.0,10.0,,,1.0,1.0,90921.75,31.68,1.54,101392.67,25.0,150.0,KGOO,3154,-121.003083,39.224028
1130,2018-08-16 16:40:00,102031.84,SE,,KGOO 161640Z AUTO 13003KT 10SM CLR 26/04 A3013 RMK AO1,,4.0,,,4.02,10.0,,,1.0,1.0,90921.75,24.25,1.54,101356.23,26.0,130.0,KGOO,3154,-121.003083,39.224028
1131,2018-08-16 17:00:00,102031.84,SE,,KGOO 161700Z AUTO 14003KT 7SM CLR 27/05 A3013 RMK AO1,,5.0,,,5.04,7.0,,26.4,1.0,1.0,90921.75,24.52,1.54,101319.89,27.0,140.0,KGOO,3154,-121.003083,39.224028
1132,2018-08-16 17:20:00,102031.84,SE,,KGOO 161720Z AUTO 13005KT 10SM CLR 28/04 A3013 RMK AO1,,4.0,,,4.06,10.0,,26.78,1.0,1.0,90921.75,21.57,2.57,101283.88,28.0,130.0,KGOO,3154,-121.003083,39.224028
1133,2018-08-16 17:40:00,102065.7,N,,KGOO 161740Z AUTO 00000KT 10SM CLR 28/04 A3014 RMK AO1,,4.0,,,4.06,10.0,,26.78,1.0,1.0,90951.92,21.57,0.0,101317.48,28.0,0.0,KGOO,3154,-121.003083,39.224028
1134,2018-08-16 18:00:00,102099.57,SSW,,KGOO 161800Z AUTO 21005KT 10SM CLR 28/04 A3015 RMK AO1,,4.0,,,4.06,10.0,,26.78,1.0,1.0,90982.1,21.57,2.57,101351.1,28.0,210.0,KGOO,3154,-121.003083,39.224028
1135,2018-08-16 18:20:00,102099.57,S,,KGOO 161820Z AUTO 19003KT 10SM CLR 29/04 A3015 RMK AO1,,4.0,,,4.08,10.0,,27.47,1.0,1.0,90982.1,20.35,1.54,101315.28,29.0,190.0,KGOO,3154,-121.003083,39.224028
1136,2018-08-16 18:40:00,102099.57,S,,KGOO 161840Z AUTO 18004KT 10SM CLR 29/05 A3015 RMK AO1,,5.0,,,5.08,10.0,,27.51,1.0,1.0,90982.1,21.83,2.06,101315.24,29.0,180.0,KGOO,3154,-121.003083,39.224028
1137,2018-08-16 19:00:00,102099.57,S,,KGOO 161900Z AUTO 19004KT 10SM CLR 29/05 A3015 RMK AO1,,5.0,,,5.08,10.0,,27.51,1.0,1.0,90982.1,21.83,2.06,101315.24,29.0,190.0,KGOO,3154,-121.003083,39.224028
1138,2018-08-16 19:20:00,102099.57,SSW,,KGOO 161920Z AUTO 20003KT 10SM CLR 30/06 A3015 RMK AO1,,6.0,,,6.09,10.0,,28.31,1.0,1.0,90982.1,22.09,1.54,101279.63,30.0,200.0,KGOO,3154,-121.003083,39.224028
1139,2018-08-16 19:40:00,102133.43,WSW,,KGOO 161940Z AUTO 24004KT 10SM CLR 30/05 A3016 RMK AO1,,5.0,,,5.1,10.0,,28.26,1.0,1.0,91012.28,20.61,2.06,101313.26,30.0,240.0,KGOO,3154,-121.003083,39.224028
1140,2018-08-16 20:00:00,102133.43,W,,KGOO 162000Z AUTO 27005KT 8SM CLR 30/07 A3016 RMK AO1,,7.0,,,7.08,8.0,,28.38,1.0,1.0,91012.28,23.66,2.57,101313.18,30.0,270.0,KGOO,3154,-121.003083,39.224028
1141,2018-08-16 20:20:00,102133.43,WSW,,KGOO 162020Z AUTO 25006KT 10SM CLR 30/07 A3016 RMK AO1,,7.0,,,7.08,10.0,,28.38,1.0,1.0,91012.28,23.66,3.09,101313.18,30.0,250.0,KGOO,3154,-121.003083,39.224028
1142,2018-08-16 20:40:00,102099.57,SW,,KGOO 162040Z AUTO 22005KT 10SM CLR 30/07 A3015 RMK AO1,,7.0,,,7.08,10.0,,28.38,1.0,1.0,90982.1,23.66,2.57,101279.59,30.0,220.0,KGOO,3154,-121.003083,39.224028
1143,2018-08-16 21:00:00,102099.57,WSW,,KGOO 162100Z AUTO 24005KT 10SM CLR 30/07 A3015 RMK AO1,,7.0,,,7.08,10.0,,28.38,1.0,1.0,90982.1,23.66,2.57,101279.59,30.0,240.0,KGOO,3154,-121.003083,39.224028
1144,2018-08-16 21:20:00,102099.57,SSW,,KGOO 162120Z AUTO 20003KT 10SM CLR 30/07 A3015 RMK AO1,,7.0,,,7.08,10.0,,28.38,1.0,1.0,90982.1,23.66,1.54,101279.59,30.0,200.0,KGOO,3154,-121.003083,39.224028
1145,2018-08-16 21:40:00,102099.57,W,,KGOO 162140Z AUTO 26007KT 10SM CLR 31/05 A3015 RMK AO1,,5.0,,,5.11,10.0,,29.06,1.0,1.0,90982.1,19.46,3.6,101244.33,31.0,260.0,KGOO,3154,-121.003083,39.224028
1146,2018-08-16 22:00:00,102099.57,SW,,KGOO 162200Z AUTO 23005KT 10SM CLR 30/05 A3015 RMK AO1,,5.0,,,5.1,10.0,,28.26,1.0,1.0,90982.1,20.61,2.57,101279.67,30.0,230.0,KGOO,3154,-121.003083,39.224028
1147,2018-08-16 22:20:00,102099.57,WSW,,KGOO 162220Z AUTO 25005KT 10SM CLR 31/05 A3015 RMK AO1,,5.0,,,5.11,10.0,,29.06,1.0,1.0,90982.1,19.46,2.57,101244.33,31.0,250.0,KGOO,3154,-121.003083,39.224028
1148,2018-08-16 22:40:00,102065.7,SSE,,KGOO 162240Z AUTO 16003KT 10SM CLR 30/05 A3014 RMK AO1,,5.0,,,5.1,10.0,,28.26,1.0,1.0,90951.92,20.61,1.54,101246.07,30.0,160.0,KGOO,3154,-121.003083,39.224028
1149,2018-08-16 23:00:00,102065.7,W,,KGOO 162300Z AUTO 26006KT 10SM CLR 30/05 A3014 RMK AO1,,5.0,,,5.1,10.0,,28.26,1.0,1.0,90951.92,20.61,3.09,101246.07,30.0,260.0,KGOO,3154,-121.003083,39.224028
1150,2018-08-16 23:20:00,102065.7,SSW,,KGOO 162320Z AUTO 21005KT 10SM CLR 30/05 A3014 RMK AO1,,5.0,,,5.1,10.0,,28.26,1.0,1.0,90951.92,20.61,2.57,101246.07,30.0,210.0,KGOO,3154,-121.003083,39.224028
1151,2018-08-16 23:40:00,102065.7,WSW,,KGOO 162340Z AUTO 25005KT 10SM CLR 31/05 A3014 RMK AO1,,5.0,,,5.11,10.0,,29.06,1.0,1.0,90951.92,19.46,2.57,101210.75,31.0,250.0,KGOO,3154,-121.003083,39.224028
1152,2018-08-17 00:00:00,102065.7,SW,,KGOO 170000Z AUTO 22004KT 10SM CLR 30/05 A3014 RMK AO1,,5.0,,,5.1,10.0,,28.26,1.0,1.0,90951.92,20.61,2.06,101246.07,30.0,220.0,KGOO,3154,-121.003083,39.224028
1153,2018-08-17 00:20:00,102065.7,W,,KGOO 170020Z AUTO 26005KT 10SM CLR 30/04 A3014 RMK AO1,,4.0,,,4.1,10.0,,28.22,1.0,1.0,90951.92,19.21,2.57,101246.11,30.0,260.0,KGOO,3154,-121.003083,39.224028
1154,2018-08-17 00:40:00,102065.7,WSW,,KGOO 170040Z AUTO 24004KT 10SM CLR 30/05 A3014 RMK AO1,,5.0,,,5.1,10.0,,28.26,1.0,1.0,90951.92,20.61,2.06,101246.07,30.0,240.0,KGOO,3154,-121.003083,39.224028
1155,2018-08-17 01:00:00,102031.84,WSW,,KGOO 170100Z AUTO 25003KT 10SM CLR 30/05 A3013 RMK AO1,,5.0,,,5.1,10.0,,28.26,1.0,1.0,90921.75,20.61,1.54,101212.49,30.0,250.0,KGOO,3154,-121.003083,39.224028
1156,2018-08-17 01:20:00,102031.84,N,,KGOO 170120Z AUTO 00000KT 10SM CLR 29/05 A3013 RMK AO1,,5.0,,,5.08,10.0,,27.51,1.0,1.0,90921.75,21.83,0.0,101248.04,29.0,0.0,KGOO,3154,-121.003083,39.224028
1157,2018-08-17 01:40:00,102031.84,SW,,KGOO 170140Z AUTO 23003KT 10SM CLR 29/05 A3013 RMK AO1,,5.0,,,5.08,10.0,,27.51,1.0,1.0,90921.75,21.83,1.54,101248.04,29.0,230.0,KGOO,3154,-121.003083,39.224028
1158,2018-08-17 02:00:00,102031.84,SW,,KGOO 170200Z AUTO 23004KT 10SM CLR 29/05 A3013 RMK AO1,,5.0,,,5.08,10.0,,27.51,1.0,1.0,90921.75,21.83,2.06,101248.04,29.0,230.0,KGOO,3154,-121.003083,39.224028
1159,2018-08-17 02:20:00,102031.84,SW,,KGOO 170220Z AUTO 22003KT 10SM CLR 28/05 A3013 RMK AO1,,5.0,,,5.06,10.0,,26.83,1.0,1.0,90921.75,23.13,1.54,101283.84,28.0,220.0,KGOO,3154,-121.003083,39.224028
1160,2018-08-17 02:40:00,102031.84,N,,KGOO 170240Z AUTO 00000KT 10SM CLR 28/07 A3013 RMK AO1,,7.0,,,7.05,10.0,,26.95,1.0,1.0,90921.75,26.56,0.0,101283.76,28.0,0.0,KGOO,3154,-121.003083,39.224028
1161,2018-08-17 03:00:00,102031.84,N,,KGOO 170300Z AUTO 00000KT 10SM CLR 27/07 A3013 RMK AO1,,7.0,,,7.03,10.0,,26.49,1.0,1.0,90921.75,28.15,0.0,101319.81,27.0,0.0,KGOO,3154,-121.003083,39.224028
1162,2018-08-17 03:20:00,102065.7,N,,KGOO 170320Z AUTO 00000KT 10SM CLR 25/08 A3014 RMK AO1,,8.0,,,8.0,10.0,,,1.0,1.0,90951.92,33.92,0.0,101426.27,25.0,0.0,KGOO,3154,-121.003083,39.224028
1163,2018-08-17 03:40:00,102065.7,N,,KGOO 170340Z AUTO 00000KT 10SM CLR 25/08 A3014 RMK AO1,,8.0,,,8.0,10.0,,,1.0,1.0,90951.92,33.92,0.0,101426.27,25.0,0.0,KGOO,3154,-121.003083,39.224028
1164,2018-08-17 04:00:00,102099.57,N,,KGOO 170400Z AUTO 00000KT 10SM CLR 25/08 A3015 RMK AO1,,8.0,,,8.0,10.0,,,1.0,1.0,90982.1,33.92,0.0,101459.92,25.0,0.0,KGOO,3154,-121.003083,39.224028
1165,2018-08-17 04:20:00,102099.57,N,,KGOO 170420Z AUTO 00000KT 10SM CLR 25/07 A3015 RMK AO1,,7.0,,,7.0,10.0,,,1.0,1.0,90982.1,31.68,0.0,101459.97,25.0,0.0,KGOO,3154,-121.003083,39.224028
1166,2018-08-17 04:40:00,102133.43,N,,KGOO 170440Z AUTO 00000KT 10SM CLR 24/07 A3016 RMK AO1,,7.0,,,6.99,10.0,,,1.0,1.0,91012.28,33.63,0.0,101530.47,24.0,0.0,KGOO,3154,-121.003083,39.224028
1167,2018-08-17 05:00:00,102133.43,ESE,,KGOO 170500Z AUTO 12003KT 10SM CLR 25/07 A3016 RMK AO1,,7.0,,,7.0,10.0,,,1.0,1.0,91012.28,31.68,1.54,101493.62,25.0,120.0,KGOO,3154,-121.003083,39.224028
1168,2018-08-17 05:20:00,102167.3,ESE,,KGOO 170520Z AUTO 12004KT 10SM CLR 25/06 A3017 RMK AO1,,6.0,,,6.0,10.0,,,1.0,1.0,91042.46,29.57,2.06,101527.32,25.0,120.0,KGOO,3154,-121.003083,39.224028
1169,2018-08-17 05:40:00,102167.3,ESE,,KGOO 170540Z AUTO 11004KT 10SM CLR 24/06 A3017 RMK AO1,,6.0,,,5.99,10.0,,,1.0,1.0,91042.46,31.39,2.06,101564.18,24.0,110.0,KGOO,3154,-121.003083,39.224028
1170,2018-08-17 06:00:00,102167.3,ESE,,KGOO 170600Z AUTO 11005KT 10SM CLR 25/06 A3017 RMK AO1,,6.0,,,6.0,10.0,,,1.0,1.0,91042.46,29.57,2.57,101527.32,25.0,110.0,KGOO,3154,-121.003083,39.224028
1171,2018-08-17 06:20:00,102167.3,ESE,,KGOO 170620Z AUTO 11004KT 10SM CLR 25/05 A3017 RMK AO1,,5.0,,,5.0,10.0,,,1.0,1.0,91042.46,27.59,2.06,101527.36,25.0,110.0,KGOO,3154,-121.003083,39.224028
1172,2018-08-17 06:40:00,102133.43,ESE,,KGOO 170640Z AUTO 11005KT 10SM CLR 25/05 A3016 RMK AO1,,5.0,,,5.0,10.0,,,1.0,1.0,91012.28,27.59,2.57,101493.7,25.0,110.0,KGOO,3154,-121.003083,39.224028
1173,2018-08-17 07:00:00,102133.43,ESE,,KGOO 170700Z AUTO 11005KT 10SM CLR 25/05 A3016 RMK AO1,,5.0,,,5.0,10.0,,,1.0,1.0,91012.28,27.59,2.57,101493.7,25.0,110.0,KGOO,3154,-121.003083,39.224028
1174,2018-08-17 07:20:00,102133.43,ESE,,KGOO 170720Z AUTO 11005KT 10SM CLR 25/05 A3016 RMK AO1,,5.0,,,5.0,10.0,,,1.0,1.0,91012.28,27.59,2.57,101493.7,25.0,110.0,KGOO,3154,-121.003083,39.224028
1175,2018-08-17 07:40:00,102133.43,E,,KGOO 170740Z AUTO 10005KT 10SM CLR 25/06 A3016 RMK AO1,,6.0,,,6.0,10.0,,,1.0,1.0,91012.28,29.57,2.57,101493.66,25.0,100.0,KGOO,3154,-121.003083,39.224028
1176,2018-08-17 08:00:00,102133.43,E,,KGOO 170800Z AUTO 10005KT 10SM CLR 24/06 A3016 RMK AO1,,6.0,,,5.99,10.0,,,1.0,1.0,91012.28,31.39,2.57,101530.51,24.0,100.0,KGOO,3154,-121.003083,39.224028
1177,2018-08-17 08:20:00,102133.43,E,,KGOO 170820Z AUTO 10005KT 10SM CLR 25/06 A3016 RMK AO1,,6.0,,,6.0,10.0,,,1.0,1.0,91012.28,29.57,2.57,101493.66,25.0,100.0,KGOO,3154,-121.003083,39.224028
1178,2018-08-17 08:40:00,102133.43,E,,KGOO 170840Z AUTO 10005KT 10SM CLR 25/06 A3016 RMK AO1,,6.0,,,6.0,10.0,,,1.0,1.0,91012.28,29.57,2.57,101493.66,25.0,100.0,KGOO,3154,-121.003083,39.224028
1179,2018-08-17 09:00:00,102133.43,N,,KGOO 170900Z AUTO 00000KT 10SM CLR 24/06 A3016 RMK AO1,,6.0,,,5.99,10.0,,,1.0,1.0,91012.28,31.39,0.0,101530.51,24.0,0.0,KGOO,3154,-121.003083,39.224028
1180,2018-08-17 09:20:00,102133.43,ESE,,KGOO 170920Z AUTO 11003KT 10SM CLR 24/06 A3016 RMK AO1,,6.0,,,5.99,10.0,,,1.0,1.0,91012.28,31.39,1.54,101530.51,24.0,110.0,KGOO,3154,-121.003083,39.224028
1181,2018-08-17 09:40:00,102133.43,N,,KGOO 170940Z AUTO 00000KT 10SM CLR 23/06 A3016 RMK AO1,,6.0,,,5.98,10.0,,,1.0,1.0,91012.28,33.34,0.0,101567.62,23.0,0.0,KGOO,3154,-121.003083,39.224028
1182,2018-08-17 10:00:00,102133.43,N,,KGOO 171000Z AUTO 00000KT 10SM CLR 23/06 A3016 RMK AO1,,6.0,,,5.98,10.0,,,1.0,1.0,91012.28,33.34,0.0,101567.62,23.0,0.0,KGOO,3154,-121.003083,39.224028
1183,2018-08-17 10:20:00,102133.43,N,,KGOO 171020Z AUTO 00000KT 10SM CLR 23/06 A3016 RMK AO1,,6.0,,,5.98,10.0,,,1.0,1.0,91012.28,33.34,0.0,101567.62,23.0,0.0,KGOO,3154,-121.003083,39.224028
1184,2018-08-17 10:40:00,102133.43,N,,KGOO 171040Z AUTO 00000KT 10SM CLR 23/06 A3016 RMK AO1,,6.0,,,5.98,10.0,,,1.0,1.0,91012.28,33.34,0.0,101567.62,23.0,0.0,KGOO,3154,-121.003083,39.224028
1185,2018-08-17 11:00:00,102133.43,N,,KGOO 171100Z AUTO 00000KT 10SM CLR 22/07 A3016 RMK AO1,,7.0,,,6.97,10.0,,,1.0,1.0,91012.28,37.95,0.0,101604.95,22.0,0.0,KGOO,3154,-121.003083,39.224028
1186,2018-08-17 11:20:00,102133.43,N,,KGOO 171120Z AUTO 00000KT 10SM CLR 22/06 A3016 RMK AO1,,6.0,,,5.96,10.0,,,1.0,1.0,91012.28,35.42,0.0,101604.99,22.0,0.0,KGOO,3154,-121.003083,39.224028
1187,2018-08-17 11:40:00,102133.43,N,,KGOO 171140Z AUTO 00000KT 10SM CLR 22/06 A3016 RMK AO1,,6.0,,,5.96,10.0,,,1.0,1.0,91012.28,35.42,0.0,101604.99,22.0,0.0,KGOO,3154,-121.003083,39.224028
1188,2018-08-17 12:00:00,102133.43,N,,KGOO 171200Z AUTO 00000KT 10SM CLR 22/06 A3016 RMK AO1,,6.0,,,5.96,10.0,,,1.0,1.0,91012.28,35.42,0.0,101604.99,22.0,0.0,KGOO,3154,-121.003083,39.224028
1189,2018-08-17 12:20:00,102133.43,N,,KGOO 171220Z AUTO 00000KT 10SM CLR 22/06 A3016 RMK AO1,,6.0,,,5.96,10.0,,,1.0,1.0,91012.28,35.42,0.0,101604.99,22.0,0.0,KGOO,3154,-121.003083,39.224028
1190,2018-08-17 12:40:00,102133.43,N,,KGOO 171240Z AUTO 00000KT 10SM CLR 22/07 A3016 RMK AO1,,7.0,,,6.97,10.0,,,1.0,1.0,91012.28,37.95,0.0,101604.95,22.0,0.0,KGOO,3154,-121.003083,39.224028
1191,2018-08-17 13:00:00,102167.3,N,,KGOO 171300Z AUTO 00000KT 10SM CLR 22/07 A3017 RMK AO1,,7.0,,,6.97,10.0,,,1.0,1.0,91042.46,37.95,0.0,101638.64,22.0,0.0,KGOO,3154,-121.003083,39.224028
1192,2018-08-17 13:20:00,102167.3,NNE,,KGOO 171320Z AUTO 03003KT 10SM CLR 22/07 A3017 RMK AO1,,7.0,,,6.97,10.0,,,1.0,1.0,91042.46,37.95,1.54,101638.64,22.0,30.0,KGOO,3154,-121.003083,39.224028
1193,2018-08-17 13:40:00,102167.3,ENE,,KGOO 171340Z AUTO 06003KT 10SM CLR 22/06 A3017 RMK AO1,,6.0,,,5.96,10.0,,,1.0,1.0,91042.46,35.42,1.54,101638.68,22.0,60.0,KGOO,3154,-121.003083,39.224028
1194,2018-08-17 14:00:00,102167.3,N,,KGOO 171400Z AUTO 00000KT 10SM CLR 23/07 A3017 RMK AO1,,7.0,,,6.98,10.0,,,1.0,1.0,91042.46,35.72,0.0,101601.26,23.0,0.0,KGOO,3154,-121.003083,39.224028
1195,2018-08-17 14:20:00,102167.3,ESE,,KGOO 171420Z AUTO 11003KT 10SM CLR 24/07 A3017 RMK AO1,,7.0,,,6.99,10.0,,,1.0,1.0,91042.46,33.63,1.54,101564.14,24.0,110.0,KGOO,3154,-121.003083,39.224028
1196,2018-08-17 14:40:00,102201.16,N,,KGOO 171440Z AUTO 00000KT 10SM CLR 24/07 A3018 RMK AO1,,7.0,,,6.99,10.0,,,1.0,1.0,91072.63,33.63,0.0,101597.8,24.0,0.0,KGOO,3154,-121.003083,39.224028
1197,2018-08-17 15:00:00,102201.16,E,,KGOO 171500Z AUTO 10003KT 10SM CLR 25/07 A3018 RMK AO1,,7.0,,,7.0,10.0,,,1.0,1.0,91072.63,31.68,1.54,101560.92,25.0,100.0,KGOO,3154,-121.003083,39.224028
1198,2018-08-17 15:20:00,102201.16,ESE,,KGOO 171520Z AUTO 12003KT 10SM CLR 25/09 A3018 RMK AO1,,9.0,,,9.0,10.0,,,1.0,1.0,91072.63,36.3,1.54,101560.83,25.0,120.0,KGOO,3154,-121.003083,39.224028
1199,2018-08-17 15:40:00,102201.16,ESE,,KGOO 171540Z AUTO 12003KT 10SM CLR 27/08 A3018 RMK AO1,,8.0,,,8.02,10.0,,26.54,1.0,1.0,91072.63,30.14,1.54,101487.9,27.0,120.0,KGOO,3154,-121.003083,39.224028
1200,2018-08-17 16:00:00,102201.16,SE,,KGOO 171600Z AUTO 14003KT 10SM CLR 26/09 A3018 RMK AO1,,9.0,,,9.01,10.0,,,1.0,1.0,91072.63,34.21,1.54,101524.22,26.0,140.0,KGOO,3154,-121.003083,39.224028
1201,2018-08-17 16:20:00,102235.02,SE,,KGOO 171620Z AUTO 13003KT 10SM CLR 27/09 A3019 RMK AO1,,9.0,,,9.02,10.0,,26.6,1.0,1.0,91102.8,32.25,1.54,101521.48,27.0,130.0,KGOO,3154,-121.003083,39.224028
1202,2018-08-17 16:40:00,102235.02,SSE,,KGOO 171640Z AUTO 16004KT 10SM CLR 27/10 A3019 RMK AO1,,10.0,,,10.02,10.0,,26.66,1.0,1.0,91102.8,34.5,2.06,101521.43,27.0,160.0,KGOO,3154,-121.003083,39.224028
1203,2018-08-17 17:00:00,102235.02,N,,KGOO 171700Z AUTO 00000KT 10SM CLR 28/09 A3019 RMK AO1,,9.0,,,9.04,10.0,,27.12,1.0,1.0,91102.8,30.43,0.0,101485.36,28.0,0.0,KGOO,3154,-121.003083,39.224028
1204,2018-08-17 17:20:00,102235.02,S,,KGOO 171720Z AUTO 19003KT 10SM CLR 29/08 A3019 RMK AO1,,8.0,,,8.06,10.0,,27.71,1.0,1.0,91102.8,26.83,1.54,101449.53,29.0,190.0,KGOO,3154,-121.003083,39.224028
1205,2018-08-17 17:40:00,102235.02,ESE,,KGOO 171740Z AUTO 12005KT 10SM CLR 29/09 A3019 RMK AO1,,9.0,,,9.05,10.0,,27.8,1.0,1.0,91102.8,28.71,2.57,101449.49,29.0,120.0,KGOO,3154,-121.003083,39.224028
1206,2018-08-17 18:00:00,102235.02,SSE,,KGOO 171800Z AUTO 15006KT 10SM CLR 30/10 A3019 RMK AO1,,10.0,,,10.07,10.0,,28.68,1.0,1.0,91102.8,28.99,3.09,101413.81,30.0,150.0,KGOO,3154,-121.003083,39.224028
1207,2018-08-17 18:20:00,102235.02,W,,KGOO 171820Z AUTO 26004KT 10SM CLR 30/09 A3019 RMK AO1,,9.0,,,9.07,10.0,,28.56,1.0,1.0,91102.8,27.11,2.06,101413.86,30.0,260.0,KGOO,3154,-121.003083,39.224028
1208,2018-08-17 18:40:00,102235.02,WSW,,KGOO 171840Z AUTO 24004KT 10SM CLR 30/09 A3019 RMK AO1,,9.0,,,9.07,10.0,,28.56,1.0,1.0,91102.8,27.11,2.06,101413.86,30.0,240.0,KGOO,3154,-121.003083,39.224028
1209,2018-08-17 19:00:00,102235.02,SW,,KGOO 171900Z AUTO 22005KT 10SM CLR 30/09 A3019 RMK AO1,,9.0,,,9.07,10.0,,28.56,1.0,1.0,91102.8,27.11,2.57,101413.86,30.0,220.0,KGOO,3154,-121.003083,39.224028
1210,2018-08-17 19:20:00,102235.02,SW,,KGOO 171920Z AUTO 23006KT 10SM CLR 31/09 A3019 RMK AO1,,9.0,,,9.1,10.0,,29.38,1.0,1.0,91102.8,25.61,3.09,101378.48,31.0,230.0,KGOO,3154,-121.003083,39.224028
1211,2018-08-17 19:40:00,102235.02,W,7.72,KGOO 171940Z AUTO 27006G15KT 10SM CLR 31/08 A3019 RMK AO1,,8.0,,,8.1,10.0,,29.27,1.0,1.0,91102.8,23.93,3.09,101378.53,31.0,270.0,KGOO,3154,-121.003083,39.224028
1212,2018-08-17 20:00:00,102235.02,WNW,,KGOO 172000Z AUTO 29010KT 260V320 10SM CLR 31/09 A3019 RMK AO1,,9.0,,,9.1,10.0,,29.38,1.0,1.0,91102.8,25.61,5.14,101378.48,31.0,290.0,KGOO,3154,-121.003083,39.224028
1213,2018-08-17 20:20:00,102235.02,WSW,,KGOO 172020Z AUTO 24007KT 10SM CLR 31/09 A3019 RMK AO1,,9.0,,,9.1,10.0,,29.38,1.0,1.0,91102.8,25.61,3.6,101378.48,31.0,240.0,KGOO,3154,-121.003083,39.224028
1214,2018-08-17 20:40:00,102235.02,SW,,KGOO 172040Z AUTO 23006KT 10SM CLR 32/09 A3019 RMK AO1,,9.0,,,9.12,10.0,,30.25,1.0,1.0,91102.8,24.2,3.09,101343.34,32.0,230.0,KGOO,3154,-121.003083,39.224028
1215,2018-08-17 21:00:00,102235.02,WSW,,KGOO 172100Z AUTO 25004KT 10SM CLR 31/09 A3019 RMK AO1,,9.0,,,9.1,10.0,,29.38,1.0,1.0,91102.8,25.61,2.06,101378.48,31.0,250.0,KGOO,3154,-121.003083,39.224028
1216,2018-08-17 21:20:00,102235.02,W,,KGOO 172120Z AUTO 26007KT 10SM CLR 31/09 A3019 RMK AO1,,9.0,,,9.1,10.0,,29.38,1.0,1.0,91102.8,25.61,3.6,101378.48,31.0,260.0,KGOO,3154,-121.003083,39.224028
1217,2018-08-17 21:40:00,102201.16,WSW,,KGOO 172140Z AUTO 24005KT 10SM CLR 31/08 A3018 RMK AO1,,8.0,,,8.1,10.0,,29.27,1.0,1.0,91072.63,23.93,2.57,101344.95,31.0,240.0,KGOO,3154,-121.003083,39.224028
1218,2018-08-17 22:00:00,102201.16,WSW,,KGOO 172200Z AUTO 24005KT 10SM CLR 32/09 A3018 RMK AO1,,9.0,,,9.12,10.0,,30.25,1.0,1.0,91072.63,24.2,2.57,101309.78,32.0,240.0,KGOO,3154,-121.003083,39.224028
1219,2018-08-17 22:20:00,102201.16,W,,KGOO 172220Z AUTO 28007KT 10SM CLR 32/08 A3018 RMK AO1,,8.0,,,8.12,10.0,,30.14,1.0,1.0,91072.63,22.61,3.6,101309.83,32.0,280.0,KGOO,3154,-121.003083,39.224028
1220,2018-08-17 22:40:00,102167.3,W,,KGOO 172240Z AUTO 26007KT 190V290 10SM CLR 32/08 A3017 RMK AO1,,8.0,,,8.12,10.0,,30.14,1.0,1.0,91042.46,22.61,3.6,101276.27,32.0,260.0,KGOO,3154,-121.003083,39.224028
1221,2018-08-17 23:00:00,102133.43,SW,,KGOO 172300Z AUTO 23004KT 10SM CLR 32/08 A3016 RMK AO1,,8.0,,,8.12,10.0,,30.14,1.0,1.0,91012.28,22.61,2.06,101242.69,32.0,230.0,KGOO,3154,-121.003083,39.224028
1222,2018-08-17 23:20:00,102133.43,W,,KGOO 172320Z AUTO 26008KT 10SM CLR 32/08 A3016 RMK AO1,,8.0,,,8.12,10.0,,30.14,1.0,1.0,91012.28,22.61,4.12,101242.69,32.0,260.0,KGOO,3154,-121.003083,39.224028
1223,2018-08-17 23:40:00,102133.43,WNW,,KGOO 172340Z AUTO 29006KT 260V330 10SM CLR 32/08 A3016 RMK AO1,,8.0,,,8.12,10.0,,30.14,1.0,1.0,91012.28,22.61,3.09,101242.69,32.0,290.0,KGOO,3154,-121.003083,39.224028
1224,2018-08-18 00:00:00,102099.57,WSW,,KGOO 180000Z AUTO 25006KT 10SM CLR 31/08 A3015 RMK AO1,,8.0,,,8.1,10.0,,29.27,1.0,1.0,90982.1,23.93,3.09,101244.21,31.0,250.0,KGOO,3154,-121.003083,39.224028
1225,2018-08-18 00:20:00,102099.57,SW,,KGOO 180020Z AUTO 22004KT 10SM CLR 31/08 A3015 RMK AO1,,8.0,,,8.1,10.0,,29.27,1.0,1.0,90982.1,23.93,2.06,101244.21,31.0,220.0,KGOO,3154,-121.003083,39.224028
1226,2018-08-18 00:40:00,102099.57,W,,KGOO 180040Z AUTO 26005KT 10SM CLR 30/08 A3015 RMK AO1,,8.0,,,8.08,10.0,,28.46,1.0,1.0,90982.1,25.33,2.57,101279.55,30.0,260.0,KGOO,3154,-121.003083,39.224028
1227,2018-08-18 01:00:00,102099.57,SW,,KGOO 180100Z AUTO 23004KT 10SM CLR 30/08 A3015 RMK AO1,,8.0,,,8.08,10.0,,28.46,1.0,1.0,90982.1,25.33,2.06,101279.55,30.0,230.0,KGOO,3154,-121.003083,39.224028
1228,2018-08-18 01:20:00,102099.57,W,,KGOO 180120Z AUTO 28005KT 10SM CLR 30/08 A3015 RMK AO1,,8.0,,,8.08,10.0,,28.46,1.0,1.0,90982.1,25.33,2.57,101279.55,30.0,280.0,KGOO,3154,-121.003083,39.224028
1229,2018-08-18 01:40:00,102099.57,WSW,,KGOO 180140Z AUTO 25003KT 10SM CLR 30/08 A3015 RMK AO1,,8.0,,,8.08,10.0,,28.46,1.0,1.0,90982.1,25.33,1.54,101279.55,30.0,250.0,KGOO,3154,-121.003083,39.224028
