,altimeter_set_1,wind_cardinal_direction_set_1d,cloud_layer_3_code_set_1,heat_index_set_1d,sea_level_pressure_set_1,sea_level_pressure_set_1d,cloud_layer_1_code_set_1,weather_condition_set_1d,air_temp_low_6_hour_set_1,air_temp_high_24_hour_set_1,precip_accum_one_hour_set_1,visibility_set_1,pressure_set_1d,pressure_tendency_set_1,metar_set_1,cloud_layer_2_code_set_1,relative_humidity_set_1,wind_speed_set_1,air_temp_set_1,air_temp_high_6_hour_set_1,date_time,dew_point_temperature_set_1d,ceiling_set_1,dew_point_temperature_set_1,air_temp_low_24_hour_set_1,precip_accum_six_hour_set_1,metar_origin_set_1,weather_cond_code_set_1,wind_direction_set_1,_meta_station_id,_meta_elevation,_meta_longitude,_meta_latitude
0,101727.07,N,,29.67,,100753.67,303.0,Haze,,,,2.0,89364.39,,KMHS 010014Z AUTO 00000KT 2SM HZ BKN030 OVC037 31/13 A3004 RMK AO2  T03060128,374.0,33.72,0.0,30.6,,2018-08-01 00:14:00,12.87,914.4,12.8,,,1.0,6.0,0.0,KMHS,3540,-122.31702,41.31494
1,101693.2,N,,28.37,101550.0,100767.62,334.0,Haze,,,,2.5,89334.64,,KMHS 010056Z AUTO 00000KT 2 1/2SM HZ OVC033 29/11 A3003 RMK AO2  SLP155 T02940111,,32.29,0.0,29.4,,2018-08-01 00:56:00,11.15,1005.84,11.1,,,1.0,6.0,0.0,KMHS,3540,-122.31702,41.31494
2,101693.2,N,,27.14,101530.0,100855.38,334.0,Haze,,,,2.5,89334.64,,KMHS 010156Z AUTO 00000KT 2 1/2SM HZ OVC033 27/13 A3003 RMK AO2  SLP153 T02720133,,42.39,0.0,27.2,,2018-08-01 01:56:00,13.32,1005.84,13.3,,,1.0,6.0,0.0,KMHS,3540,-122.31702,41.31494
3,101727.07,,,26.22,101560.0,100909.46,364.0,Haze,,,,2.5,89364.39,5003.0,KMHS 010256Z AUTO VRB04KT 2 1/2SM HZ OVC036 27/08 A3004 RMK AO2  SLP156 T02670078 55003,,30.26,2.06,26.7,,2018-08-01 02:56:00,7.82,1097.28,7.8,,,1.0,6.0,,KMHS,3540,-122.31702,41.31494
4,101760.93,N,,,,101012.18,434.0,Haze,,,,3.0,89394.14,,KMHS 010345Z AUTO 00000KT 3SM HZ OVC043 25/08 A3005 RMK AO2  T02500078,,33.92,0.0,25.0,,2018-08-01 03:45:00,8.0,1310.64,7.8,,,1.0,6.0,0.0,KMHS,3540,-122.31702,41.31494
5,101794.79,N,,,101600.0,101070.35,454.0,Haze,,,,4.0,89423.88,,KMHS 010356Z AUTO 00000KT 4SM HZ OVC045 24/09 A3006 RMK AO2 SLP160  T02440089,,37.37,0.0,24.4,,2018-08-01 03:56:00,8.89,1371.6,8.9,,,1.0,6.0,0.0,KMHS,3540,-122.31702,41.31494
6,101828.66,N,,,101650.0,101216.06,494.0,Haze,,,,4.0,89453.64,,KMHS 010456Z AUTO 00000KT 4SM HZ OVC049 22/09 A3007 RMK AO2 SLP165  T02170089,,43.98,0.0,21.7,,2018-08-01 04:56:00,8.86,1493.52,8.9,,,1.0,6.0,0.0,KMHS,3540,-122.31702,41.31494
7,101896.38,ENE,,,101720.0,101427.7,464.0,Haze,18.3,,,4.0,89513.13,1016.0,KMHS 010556Z AUTO 06003KT 4SM HZ OVC046 18/09 A3009 RMK AO2 SLP172  T01830089 10311 20183 51016,,54.27,1.54,18.3,31.1,2018-08-01 05:56:00,8.85,1402.08,8.9,,,1.0,6.0,60.0,KMHS,3540,-122.31702,41.31494
8,101896.38,ENE,,,101720.0,101449.25,494.0,Haze,,,,4.0,89513.13,,KMHS 010656Z AUTO 07003KT 4SM HZ OVC049 18/08 A3009 RMK AO2 SLP172  T01780083,,53.77,1.54,17.8,,2018-08-01 06:56:00,8.25,1493.52,8.3,,,1.0,6.0,70.0,KMHS,3540,-122.31702,41.31494
9,101930.25,N,,,101740.0,101530.64,474.0,Haze,,32.8,,4.0,89542.88,,KMHS 010756Z AUTO 00000KT 4SM HZ OVC047 17/08 A3010 RMK AO2 SLP174  T01670078 403280133,,55.71,0.0,16.7,,2018-08-01 07:56:00,7.74,1432.56,7.8,13.3,,1.0,6.0,0.0,KMHS,3540,-122.31702,41.31494
10,101896.38,N,,,101720.0,101571.2,434.0,Haze,,,,4.0,89513.13,1.0,KMHS 010856Z AUTO 00000KT 4SM HZ OVC043 15/09 A3009 RMK AO2 SLP172  T01500089 50001,,66.91,0.0,15.0,,2018-08-01 08:56:00,8.85,1310.64,8.9,,,1.0,6.0,0.0,KMHS,3540,-122.31702,41.31494
11,101896.38,,,,101710.0,101619.78,474.0,Haze,,,,3.0,89513.13,,KMHS 010956Z AUTO VRB03KT 3SM HZ OVC047 14/09 A3009 RMK AO2 SLP171  T01390094,,74.3,1.54,13.9,,2018-08-01 09:56:00,9.36,1432.56,9.4,,,1.0,6.0,,KMHS,3540,-122.31702,41.31494
12,101862.52,NE,,,101690.0,101586.01,484.0,Haze,,,,3.0,89483.38,,KMHS 011056Z AUTO 05003KT 3SM HZ OVC048 14/09 A3008 RMK AO2 SLP169  T01390094,,74.3,1.54,13.9,,2018-08-01 10:56:00,9.36,1463.04,9.4,,,1.0,6.0,50.0,KMHS,3540,-122.31702,41.31494
13,101862.52,N,,,101670.0,101586.01,434.0,Haze,13.3,,,3.0,89483.38,8004.0,KMHS 011156Z AUTO 00000KT 3SM HZ OVC043 14/09 A3008 RMK AO2 SLP167  T01390094 10189 20133 58004,,74.3,0.0,13.9,18.9,2018-08-01 11:56:00,9.36,1310.64,9.4,,,1.0,6.0,0.0,KMHS,3540,-122.31702,41.31494
14,101862.52,NE,,,101720.0,101661.93,414.0,Haze,,,,3.0,89483.38,,KMHS 011256Z AUTO 05003KT 3SM HZ OVC041 12/08 A3008 RMK AO2 SLP172  T01220083,,77.07,1.54,12.2,,2018-08-01 12:56:00,8.26,1249.68,8.3,,,1.0,6.0,50.0,KMHS,3540,-122.31702,41.31494
15,101896.38,N,,,,101695.73,394.0,Haze,,,,1.5,89513.13,,KMHS 011328Z AUTO 00000KT 1 1/2SM HZ OVC039 12/08 A3009 RMK AO2  T01220083,,77.07,0.0,12.2,,2018-08-01 13:28:00,8.26,1188.72,8.3,,,1.0,6.0,0.0,KMHS,3540,-122.31702,41.31494
16,101896.38,N,,,,101718.23,394.0,Haze,,,,1.25,89513.13,,KMHS 011343Z AUTO 00000KT 1 1/4SM HZ OVC039 12/08 A3009 RMK AO2  T01170083,,79.65,0.0,11.7,,2018-08-01 13:43:00,8.26,1188.72,8.3,,,1.0,6.0,0.0,KMHS,3540,-122.31702,41.31494
17,101896.38,N,,,101780.0,101718.23,404.0,Haze,,,,1.0,89513.13,,KMHS 011356Z AUTO 00000KT 1SM HZ OVC040 12/08 A3009 RMK AO2 SLP178  T01170083,,79.65,0.0,11.7,,2018-08-01 13:56:00,8.26,1219.2,8.3,,,1.0,6.0,0.0,KMHS,3540,-122.31702,41.31494
18,101896.38,N,,,101760.0,101544.76,384.0,Haze,,,,1.5,89513.13,3005.0,KMHS 011456Z AUTO 00000KT 1 1/2SM HZ OVC038 16/11 A3009 RMK AO2  SLP176 T01560106 53005,,72.16,0.0,15.6,,2018-08-01 14:56:00,10.56,1158.24,10.6,,,1.0,6.0,0.0,KMHS,3540,-122.31702,41.31494
19,101930.25,N,,,,101461.21,384.0,Haze,,,,2.0,89542.88,,KMHS 011524Z AUTO 00000KT 2SM HZ OVC038 18/12 A3010 RMK AO2  T01830122,,67.61,0.0,18.3,,2018-08-01 15:24:00,12.17,1158.24,12.2,,,1.0,6.0,0.0,KMHS,3540,-122.31702,41.31494
20,101930.25,NNW,,,101740.0,101342.13,346.0,Haze,,,,2.5,89542.88,,KMHS 011556Z AUTO 34003KT 2 1/2SM HZ FEW034 OVC042 21/11 A3010 RMK AO2 SLP174 T02110111,424.0,52.86,1.54,21.1,,2018-08-01 15:56:00,11.07,1280.16,11.1,,,1.0,6.0,340.0,KMHS,3540,-122.31702,41.31494
21,101930.25,,,,,101316.97,404.0,Haze,,,,3.0,89542.88,,KMHS 011605Z AUTO VRB03KT 3SM HZ OVC040 22/10 A3010 RMK AO2  T02170100,,47.36,1.54,21.7,,2018-08-01 16:05:00,9.97,1219.2,10.0,,,1.0,6.0,,KMHS,3540,-122.31702,41.31494
22,101862.52,,,,101680.0,101137.54,413.0,Haze,,,,3.0,89483.38,,KMHS 011656Z AUTO VRB03KT 3SM HZ BKN041 24/10 A3008 RMK AO2 SLP168  T02440100,,40.23,1.54,24.4,,2018-08-01 16:56:00,9.99,1249.68,10.0,,,1.0,6.0,,KMHS,3540,-122.31702,41.31494
23,101862.52,,,26.28,101690.0,101043.76,402.0,Haze,11.7,,,4.0,89483.38,8003.0,KMHS 011756Z AUTO VRB03KT 4SM HZ SCT040 27/09 A3008 RMK AO2 SLP169  T02670089 10272 20117 58003,,32.61,1.54,26.7,27.2,2018-08-01 17:56:00,8.92,,8.9,,,1.0,6.0,,KMHS,3540,-122.31702,41.31494
24,101828.66,N,,28.55,101640.0,100901.78,422.0,Haze,,,,3.0,89453.64,,KMHS 011856Z AUTO 00000KT 3SM HZ SCT042 29/12 A3007 RMK AO2 SLP164  T02940122,,34.72,0.0,29.4,,2018-08-01 18:56:00,12.25,,12.2,,,1.0,6.0,0.0,KMHS,3540,-122.31702,41.31494
25,101828.66,,,29.98,101620.0,100834.68,393.0,Haze,,,,3.0,89453.64,,KMHS 011956Z AUTO 3SM HZ BKN039 31/12 A3007 RMK AO2 SLP162  T03110122,,31.51,,31.1,,2018-08-01 19:56:00,12.28,1188.72,12.2,,,1.0,6.0,,KMHS,3540,-122.31702,41.31494
26,101794.79,,,29.98,101590.0,100801.14,344.0,Haze,,,,3.0,89423.88,8008.0,KMHS 012056Z AUTO VRB03KT 3SM HZ OVC034 31/12 A3006 RMK AO2 SLP159  T03110122 58008,,31.51,1.54,31.1,,2018-08-01 20:56:00,12.28,1036.32,12.2,,,1.0,6.0,,KMHS,3540,-122.31702,41.31494
27,101760.93,N,,29.98,101560.0,100767.61,324.0,Haze,,,,3.0,89394.14,,KMHS 012156Z AUTO 00000KT 3SM HZ OVC032 31/12 A3005 RMK AO2 SLP156  T03110122,,31.51,0.0,31.1,,2018-08-01 21:56:00,12.28,975.36,12.2,,,1.0,6.0,0.0,KMHS,3540,-122.31702,41.31494
28,101693.2,N,,29.55,101510.0,100720.17,333.0,Haze,,,,3.0,89334.64,,KMHS 012256Z AUTO 00000KT 3SM HZ BKN033 OVC044 31/12 A3003 RMK AO2  SLP151 T03060122,444.0,32.42,0.0,30.6,,2018-08-01 22:56:00,12.27,1005.84,12.2,,,1.0,6.0,0.0,KMHS,3540,-122.31702,41.31494
29,101659.34,N,,29.45,,100686.66,354.0,Haze,,,,2.5,89304.89,,SPECI KMHS 012312Z AUTO 00000KT 2 1/2SM HZ OVC035 31/12 A3002 RMK AO2 T03060117,,31.37,0.0,30.6,,2018-08-01 23:12:00,11.78,1066.8,11.7,,,1.0,6.0,0.0,KMHS,3540,-122.31702,41.31494
30,101659.34,,,28.94,,100710.29,354.0,Haze,,,,1.75,89304.89,,SPECI KMHS 012334Z AUTO VRB03KT 1 3/4SM HZ OVC035 30/12 A3002 RMK AO2 T03000117,,32.46,1.54,30.0,,2018-08-01 23:34:00,11.76,1066.8,11.7,,,1.0,6.0,,KMHS,3540,-122.31702,41.31494
31,101625.47,N,,29.04,101470.0,100676.71,323.0,Haze,26.7,,,1.75,89275.14,8012.0,KMHS 012356Z AUTO 00000KT 1 3/4SM HZ BKN032 OVC041 30/12 A3001 RMK AO2 SLP147 T03000122 10317 20267 58012,414.0,33.55,0.0,30.0,31.7,2018-08-01 23:56:00,12.26,975.36,12.2,,,1.0,6.0,0.0,KMHS,3540,-122.31702,41.31494
32,101625.47,,,28.67,,100700.4,303.0,Haze,,,,2.0,89275.14,,SPECI KMHS 020013Z AUTO VRB03KT 2SM HZ BKN030 OVC038 29/13 A3001 RMK AO2 T02940128,384.0,36.12,1.54,29.4,,2018-08-02 00:13:00,12.85,914.4,12.8,,,1.0,6.0,,KMHS,3540,-122.31702,41.31494
33,101591.61,N,,28.11,,100686.74,303.0,Haze,,,,1.75,89245.39,,KMHS 020048Z AUTO 00000KT 1 3/4SM HZ BKN030 OVC036 29/12 A3000 RMK AO2 T02890122,364.0,35.07,0.0,28.9,,2018-08-02 00:48:00,11.96,914.4,12.2,,,1.0,6.0,0.0,KMHS,3540,-122.31702,41.31494
34,101591.61,N,,28.16,101460.0,100686.72,303.0,Haze,,,,1.75,89245.39,,KMHS 020056Z AUTO 00000KT 1 3/4SM HZ BKN030 OVC036 29/12 A3000 RMK AO2 SLP146 T02890122,364.0,35.74,0.0,28.9,,2018-08-02 00:56:00,12.24,914.4,12.2,,,1.0,6.0,0.0,KMHS,3540,-122.31702,41.31494
35,101591.61,,,27.73,,100710.61,293.0,Haze,,,,1.5,89245.39,,KMHS 020112Z AUTO VRB03KT 1 1/2SM HZ BKN029 OVC036 28/12 A3000 RMK AO2 T02830122,364.0,37.16,1.54,28.3,,2018-08-02 01:12:00,12.3,883.92,12.2,,,1.0,6.0,,KMHS,3540,-122.31702,41.31494
36,101591.61,,,27.3,101480.0,100730.64,254.0,Haze,,,,1.75,89245.39,,KMHS 020156Z AUTO VRB04KT 1 3/4SM HZ OVC025 28/12 A3000 RMK AO2  SLP148 T02780117,,36.86,2.06,27.8,,2018-08-02 01:56:00,11.73,762.0,11.7,,,1.0,6.0,,KMHS,3540,-122.31702,41.31494
37,101625.47,,,26.79,,100788.37,254.0,Haze,,,,2.0,89275.14,,SPECI KMHS 020225Z AUTO VRB03KT 2SM HZ OVC025 27/11 A3001 RMK AO2 T02720106,,35.49,1.54,27.2,,2018-08-02 02:25:00,10.62,762.0,10.6,,,1.0,6.0,,KMHS,3540,-122.31702,41.31494
38,101625.47,N,,,101500.0,100853.08,274.0,Haze,,,,2.0,89275.14,5000.0,KMHS 020256Z AUTO 00000KT 2SM HZ OVC027 26/11 A3001 RMK AO2 SLP150  T02560111 55000,,40.31,0.0,25.6,,2018-08-02 02:56:00,11.1,822.96,11.1,,,1.0,6.0,0.0,KMHS,3540,-122.31702,41.31494
39,101659.34,N,,,,101001.73,314.0,Haze,,,,2.0,89304.89,,KMHS 020318Z AUTO 00000KT 2SM HZ OVC031 23/12 A3002 RMK AO2  T02280117,,49.97,0.0,22.8,,2018-08-02 03:18:00,11.79,944.88,11.7,,,1.0,6.0,0.0,KMHS,3540,-122.31702,41.31494
40,101659.34,N,,,,101047.55,394.0,Haze,,,,3.0,89304.89,,KMHS 020345Z AUTO 00000KT 3SM HZ OVC039 22/12 A3002 RMK AO2  T02170122,,54.79,0.0,21.7,,2018-08-02 03:45:00,12.17,1188.72,12.2,,,1.0,6.0,0.0,KMHS,3540,-122.31702,41.31494
41,101693.2,N,,,101530.0,101081.24,434.0,Haze,,,,3.0,89334.64,,KMHS 020356Z AUTO 00000KT 3SM HZ OVC043 22/12 A3003 RMK AO2 SLP153  T02170117,,53.02,0.0,21.7,,2018-08-02 03:56:00,11.67,1310.64,11.7,,,1.0,6.0,0.0,KMHS,3540,-122.31702,41.31494
42,101760.93,N,,,101590.0,101245.65,404.0,Haze,,,,3.0,89394.14,,KMHS 020456Z AUTO 00000KT 3SM HZ OVC040 19/12 A3005 RMK AO2 SLP159  T01940122,,63.13,0.0,19.4,,2018-08-02 04:56:00,12.17,1219.2,12.2,,,1.0,6.0,0.0,KMHS,3540,-122.31702,41.31494
43,101794.79,N,,,101620.0,101373.81,394.0,Haze,17.2,,,3.0,89423.88,1013.0,KMHS 020556Z AUTO 00000KT 3SM HZ OVC039 17/12 A3006 RMK AO2 SLP162  T01720117 10300 20172 51013,,70.11,0.0,17.2,30.0,2018-08-02 05:56:00,11.67,1188.72,11.7,,,1.0,6.0,0.0,KMHS,3540,-122.31702,41.31494
44,101828.66,N,,,101640.0,101477.27,384.0,Haze,,,,3.0,89453.64,,KMHS 020656Z AUTO 00000KT 3SM HZ OVC038 16/11 A3007 RMK AO2 SLP164  T01560106,,72.16,0.0,15.6,,2018-08-02 06:56:00,10.56,1158.24,10.6,,,1.0,6.0,0.0,KMHS,3540,-122.31702,41.31494
45,101828.66,N,,,101640.0,101530.14,404.0,Haze,,31.7,,4.0,89453.64,,KMHS 020756Z AUTO 00000KT 4SM HZ OVC040 14/09 A3007 RMK AO2 SLP164  T01440089 403170117,,69.55,0.0,14.4,,2018-08-02 07:56:00,8.85,1219.2,8.9,11.7,,1.0,6.0,0.0,KMHS,3540,-122.31702,41.31494
46,101794.79,N,,,101620.0,101496.37,464.0,Haze,,,,4.0,89423.88,1.0,KMHS 020856Z AUTO 00000KT 4SM HZ OVC046 14/09 A3006 RMK AO2 SLP162  T01440089 50001,,69.55,0.0,14.4,,2018-08-02 08:56:00,8.85,1402.08,8.9,,,1.0,6.0,0.0,KMHS,3540,-122.31702,41.31494
47,101828.66,N,,,101640.0,101601.27,424.0,Haze,,,,4.0,89453.64,,KMHS 020956Z AUTO 00000KT 4SM HZ OVC042 13/08 A3007 RMK AO2 SLP164  T01280083,,74.1,0.0,12.8,,2018-08-02 09:56:00,8.26,1280.16,8.3,,,1.0,6.0,0.0,KMHS,3540,-122.31702,41.31494
48,101794.79,N,,,,101567.49,284.0,Haze,,,,3.0,89423.88,,KMHS 021042Z AUTO 00000KT 3SM HZ OVC028 13/08 A3006 RMK AO2  T01280083,,71.66,0.0,12.8,,2018-08-02 10:42:00,7.76,853.44,8.3,,,1.0,6.0,0.0,KMHS,3540,-122.31702,41.31494
49,101794.79,N,,,101640.0,101567.49,284.0,Haze,,,,3.0,89423.88,,KMHS 021056Z AUTO 00000KT 3SM HZ OVC028 13/08 A3006 RMK AO2 SLP164  T01280078,,71.62,0.0,12.8,,2018-08-02 10:56:00,7.75,853.44,7.8,,,1.0,6.0,0.0,KMHS,3540,-122.31702,41.31494
50,101794.79,N,,,,101594.33,324.0,Haze,,,,3.0,89423.88,,SPECI KMHS 021111Z AUTO 00000KT 3SM HZ OVC032 12/08 A3006 RMK AO2 T01220083,,77.07,0.0,12.2,,2018-08-02 11:11:00,8.26,975.36,8.3,,,1.0,6.0,0.0,KMHS,3540,-122.31702,41.31494
51,101794.79,N,,,101650.0,101594.36,464.0,Haze,11.7,,,3.0,89423.88,8001.0,KMHS 021156Z AUTO 00000KT 3SM HZ OVC046 12/08 A3006 RMK AO2 SLP165  T01220078 10183 20117 58001,,74.5,0.0,12.2,18.3,2018-08-02 11:56:00,7.76,1402.08,7.8,,,1.0,6.0,0.0,KMHS,3540,-122.31702,41.31494
52,101794.79,N,,,101660.0,101594.36,374.0,Haze,,,,3.0,89423.88,,KMHS 021256Z AUTO 00000KT 3SM HZ OVC037 12/08 A3006 RMK AO2 SLP166  T01220078,,74.5,0.0,12.2,,2018-08-02 12:56:00,7.76,1127.76,7.8,,,1.0,6.0,0.0,KMHS,3540,-122.31702,41.31494
53,101794.79,N,,,,101594.34,334.0,Haze,,,,2.0,89423.88,,KMHS 021311Z AUTO 00000KT 2SM HZ OVC033 12/08 A3006 RMK AO2 T01220078,,76.52,0.0,12.2,,2018-08-02 13:11:00,8.15,1005.84,7.8,,,1.0,6.0,0.0,KMHS,3540,-122.31702,41.31494
54,101794.79,N,,,101690.0,101594.36,354.0,Haze,,,,2.0,89423.88,,KMHS 021356Z AUTO 00000KT 2SM HZ OVC035 12/08 A3006 RMK AO2 SLP169  T01220078,,74.5,0.0,12.2,,2018-08-02 13:56:00,7.76,1066.8,7.8,,,1.0,6.0,0.0,KMHS,3540,-122.31702,41.31494
55,101828.66,ENE,,,101700.0,101477.34,324.0,Haze,,,,2.0,89453.64,3003.0,KMHS 021456Z AUTO 06003KT 2SM HZ OVC032 16/09 A3007 RMK AO2 SLP170  T01560094 53003,,66.59,1.54,15.6,,2018-08-02 14:56:00,9.35,975.36,9.4,,,1.0,6.0,60.0,KMHS,3540,-122.31702,41.31494
56,101828.66,N,,,,101334.52,324.0,Haze,,,,3.0,89453.64,,SPECI KMHS 021524Z AUTO 00000KT 3SM HZ OVC032 19/10 A3007 RMK AO2 T01890100,,56.28,0.0,18.9,,2018-08-02 15:24:00,9.96,975.36,10.0,,,1.0,6.0,0.0,KMHS,3540,-122.31702,41.31494
57,101828.66,NW,,,101700.0,101262.34,324.0,Haze,,,,3.0,89453.64,,KMHS 021556Z AUTO 32004KT 3SM HZ OVC032 21/09 A3007 RMK AO2 SLP170  T02060089,,47.05,2.06,20.6,,2018-08-02 15:56:00,8.86,975.36,8.9,,,1.0,6.0,320.0,KMHS,3540,-122.31702,41.31494
58,101862.52,,,,101700.0,101182.99,304.0,Haze,,,,3.0,89483.38,,KMHS 021656Z AUTO VRB03KT 3SM HZ OVC030 23/09 A3008 RMK AO2 SLP170  T02330094,,41.28,1.54,23.3,,2018-08-02 16:56:00,9.38,914.4,9.4,,,1.0,6.0,,KMHS,3540,-122.31702,41.31494
59,101828.66,,,,101700.0,101103.98,303.0,Haze,11.7,,,3.0,89453.64,1.0,KMHS 021756Z AUTO VRB04KT 3SM HZ BKN030 OVC036 24/09 A3007 RMK AO2  SLP170 T02440089 10250 20117 50001,364.0,37.37,2.06,24.4,25.0,2018-08-02 17:56:00,8.89,914.4,8.9,,,1.0,6.0,,KMHS,3540,-122.31702,41.31494
60,101828.66,,,26.31,101690.0,101010.15,334.0,Haze,,,,3.0,89453.64,,KMHS 021856Z AUTO 3SM HZ OVC033 27/09 A3007 RMK AO2 SLP169  T02670094,,33.72,,26.7,,2018-08-02 18:56:00,9.42,1005.84,9.4,,,1.0,6.0,,KMHS,3540,-122.31702,41.31494
61,101828.66,,,26.28,,101010.18,314.0,Haze,,,,2.5,89453.64,,KMHS 021914Z AUTO VRB03KT 2 1/2SM HZ OVC031 27/09 A3007 RMK AO2  T02670089,,32.61,1.54,26.7,,2018-08-02 19:14:00,8.92,944.88,8.9,,,1.0,6.0,,KMHS,3540,-122.31702,41.31494
62,101794.79,,,26.56,,100956.42,293.0,Haze,,,,2.5,89423.88,,KMHS 021938Z AUTO 2 1/2SM HZ BKN029 OVC036 27/08 A3006 RMK AO2  T02720083,364.0,30.41,,27.2,,2018-08-02 19:38:00,8.33,883.92,8.3,,,1.0,6.0,,KMHS,3540,-122.31702,41.31494
63,101794.79,N,,27.3,101620.0,100912.23,314.0,Haze,,,,2.5,89423.88,,KMHS 021956Z AUTO 00000KT 2 1/2SM HZ OVC031 28/09 A3006 RMK AO2  SLP162 T02830089,,29.7,0.0,28.3,,2018-08-02 19:56:00,8.94,944.88,8.9,,,1.0,6.0,0.0,KMHS,3540,-122.31702,41.31494
64,101727.07,N,,28.61,101570.0,100777.52,304.0,Haze,,,,2.5,89364.39,8009.0,KMHS 022056Z AUTO 00000KT 2 1/2SM HZ OVC030 30/09 A3004 RMK AO2  SLP157 T03000094 58009,,27.85,0.0,30.0,,2018-08-02 20:56:00,9.47,914.4,9.4,,,1.0,6.0,0.0,KMHS,3540,-122.31702,41.31494
65,101659.34,,,28.92,101520.0,100686.87,303.0,Haze,,,,2.5,89304.89,,KMHS 022156Z AUTO 2 1/2SM HZ BKN030 OVC036 31/08 A3002 RMK AO2  SLP152 T03060078,364.0,24.15,,30.6,,2018-08-02 21:56:00,7.89,914.4,7.8,,,1.0,6.0,,KMHS,3540,-122.31702,41.31494
66,101659.34,N,,28.83,,100686.93,304.0,Haze,,,,3.0,89304.89,,SPECI KMHS 022238Z AUTO 00000KT 3SM HZ OVC030 31/07 A3002 RMK AO2 T03060067,,22.4,0.0,30.6,,2018-08-02 22:38:00,6.8,914.4,6.7,,,1.0,6.0,0.0,KMHS,3540,-122.31702,41.31494
67,101659.34,N,,29.34,101470.0,100667.25,324.0,Haze,,,,3.0,89304.89,,KMHS 022256Z AUTO 00000KT 3SM HZ OVC032 31/08 A3002 RMK AO2 SLP147  T03110078,,23.47,0.0,31.1,,2018-08-02 22:56:00,7.9,975.36,7.8,,,1.0,6.0,0.0,KMHS,3540,-122.31702,41.31494
68,101591.61,N,,28.32,101440.0,100643.49,354.0,Haze,24.4,,,3.0,89245.39,6014.0,KMHS 022356Z AUTO 00000KT 3SM HZ OVC035 30/06 A3000 RMK AO2 SLP144  T03000061 10311 20244 56014,,22.24,0.0,30.0,31.1,2018-08-02 23:56:00,6.19,1066.8,6.1,,,1.0,6.0,0.0,KMHS,3540,-122.31702,41.31494
69,101557.75,N,,27.54,101410.0,100653.46,396.0,Haze,,,,4.0,89215.65,,KMHS 030056Z AUTO 00000KT 4SM HZ FEW039 29/07 A2999 RMK AO2 SLP141  T02890067,,24.69,0.0,28.9,,2018-08-03 00:56:00,6.76,,6.7,,,1.0,6.0,0.0,KMHS,3540,-122.31702,41.31494
70,101557.75,ENE,,27.54,,100653.46,212.0,Haze,,,,1.75,89215.65,,SPECI KMHS 030104Z AUTO 07003KT 1 3/4SM HZ SCT021 29/07 A2999 RMK AO2 T02890067,,24.69,1.54,28.9,,2018-08-03 01:04:00,6.76,,6.7,,,1.0,6.0,70.0,KMHS,3540,-122.31702,41.31494
71,101557.75,N,,27.55,,100653.45,213.0,Haze,,,,1.25,89215.65,,KMHS 030109Z AUTO 00000KT 1 1/4SM HZ BKN021 29/07 A2999 RMK AO2  T02890072,,25.06,0.0,28.9,,2018-08-03 01:09:00,6.98,640.08,7.2,,,1.0,6.0,0.0,KMHS,3540,-122.31702,41.31494
72,101557.75,N,,,101440.0,100785.9,274.0,Haze,,,,1.25,89215.65,,KMHS 030156Z AUTO 00000KT 1 1/4SM HZ OVC027 26/11 A2999 RMK AO2  SLP144 T02560106,,38.99,0.0,25.6,,2018-08-03 01:56:00,10.6,822.96,10.6,,,1.0,6.0,0.0,KMHS,3540,-122.31702,41.31494
73,101557.75,,,,,100765.84,233.0,Haze,,,,2.0,89215.65,,SPECI KMHS 030222Z AUTO VRB06KT 2SM HZ BKN023 26/06 A2999 RMK AO2 T02610061,,27.9,3.09,26.1,,2018-08-03 02:22:00,6.12,701.04,6.1,,,1.0,6.0,,KMHS,3540,-122.31702,41.31494
74,101557.75,,,,,100765.86,232.0,Haze,,,,3.0,89215.65,,KMHS 030226Z AUTO VRB05KT 3SM HZ SCT023 26/06 A2999 RMK AO2  T02610056,,26.95,2.57,26.1,,2018-08-03 02:26:00,5.62,,5.6,,,1.0,6.0,,KMHS,3540,-122.31702,41.31494
75,101591.61,,,,101460.0,100819.8,1.0,Clear,,,,8.0,89245.39,3001.0,KMHS 030256Z AUTO VRB05KT 8SM CLR 26/04 A3000 RMK AO2 SLP146  T02560044 53001,,25.53,2.57,25.6,,2018-08-03 02:56:00,4.41,,4.4,,,1.0,,,KMHS,3540,-122.31702,41.31494
76,101693.2,,,,101510.0,100990.38,1.0,Clear,,,,10.0,89334.64,,KMHS 030356Z AUTO VRB06KT 10SM CLR 24/01 A3003 RMK AO2 SLP151  T02390011,,22.35,3.09,23.9,,2018-08-03 03:56:00,1.1,,1.1,,,1.0,,,KMHS,3540,-122.31702,41.31494
77,101794.79,,,,101600.0,101182.66,1.0,Clear,,,,9.0,89423.88,,KMHS 030456Z AUTO VRB05KT 9SM CLR 22/03 A3006 RMK AO2 SLP160  T02170028,,28.83,2.57,21.7,,2018-08-03 04:56:00,2.76,,2.8,,,1.0,,,KMHS,3540,-122.31702,41.31494
78,101828.66,,,,101650.0,101288.01,442.0,Partly Cloudy,20.0,,,9.0,89453.64,1019.0,KMHS 030556Z AUTO VRB04KT 9SM SCT044 20/03 A3007 RMK AO2 SLP165  T02000028 10300 20200 51019,,32.01,2.06,20.0,30.0,2018-08-03 05:56:00,2.75,,2.8,,,1.0,,,KMHS,3540,-122.31702,41.31494
79,101862.52,,,,101680.0,101347.18,504.0,Overcast,,,,10.0,89483.38,,KMHS 030656Z AUTO VRB04KT 10SM OVC050 19/03 A3008 RMK AO2 SLP168  T01940033,,34.42,2.06,19.4,,2018-08-03 06:56:00,3.24,1524.0,3.3,,,1.0,,,KMHS,3540,-122.31702,41.31494
80,101862.52,N,,,101670.0,101368.5,502.0,Partly Cloudy,,31.1,,10.0,89483.38,,KMHS 030756Z AUTO 00000KT 10SM SCT050 19/04 A3008 RMK AO2 SLP167  T01890039 403110117,,37.04,0.0,18.9,,2018-08-03 07:56:00,3.84,,3.9,11.7,,1.0,,0.0,KMHS,3540,-122.31702,41.31494
81,101862.52,N,,,101680.0,101415.72,502.0,Partly Cloudy,,,,10.0,89483.38,1005.0,KMHS 030856Z AUTO 00000KT 10SM SCT050 18/04 A3008 RMK AO2 SLP168  T01780044 51005,,41.1,0.0,17.8,,2018-08-03 08:56:00,4.33,,4.4,,,1.0,,0.0,KMHS,3540,-122.31702,41.31494
82,101896.38,,,,101690.0,101497.04,1.0,Clear,,,,10.0,89513.13,,KMHS 030956Z AUTO VRB03KT 10SM CLR 17/05 A3009 RMK AO2 SLP169  T01670050,,45.94,1.54,16.7,,2018-08-03 09:56:00,4.93,,5.0,,,1.0,,,KMHS,3540,-122.31702,41.31494
83,101896.38,N,,,101710.0,101545.05,1.0,Clear,,,,10.0,89513.13,,KMHS 031056Z AUTO 00000KT 10SM CLR 16/05 A3009 RMK AO2 SLP171  T01560050,,49.27,0.0,15.6,,2018-08-03 10:56:00,4.93,,5.0,,,1.0,,0.0,KMHS,3540,-122.31702,41.31494
84,101896.38,N,,,101740.0,101668.97,1.0,Clear,12.8,,,10.0,89513.13,1.0,KMHS 031156Z AUTO 00000KT 10SM CLR 13/06 A3009 RMK AO2 SLP174  T01280056 10200 20128 50001,,61.57,0.0,12.8,20.0,2018-08-03 11:56:00,5.53,,5.6,,,1.0,,0.0,KMHS,3540,-122.31702,41.31494
85,101930.25,N,,,101810.0,101779.27,1.0,Clear,,,,10.0,89542.88,,KMHS 031256Z AUTO 00000KT 10SM CLR 11/06 A3010 RMK AO2 SLP181  T01110061,,71.29,0.0,11.1,,2018-08-03 12:56:00,6.05,,6.1,,,1.0,,0.0,KMHS,3540,-122.31702,41.31494
86,101964.11,N,,,101870.0,101763.4,1.0,Clear,,,,8.0,89572.62,,KMHS 031356Z AUTO 00000KT 8SM CLR 12/07 A3011 RMK AO2 SLP187  T01220067,,69.1,0.0,12.2,,2018-08-03 13:56:00,6.65,,6.7,,,1.0,,0.0,KMHS,3540,-122.31702,41.31494
87,101997.98,N,,,101870.0,101672.51,1.0,Clear,,,,8.0,89602.38,1010.0,KMHS 031456Z AUTO 00000KT 8SM CLR 15/08 A3012 RMK AO2 SLP187  T01500083 51010,,64.25,0.0,15.0,,2018-08-03 14:56:00,8.25,,8.3,,,1.0,,0.0,KMHS,3540,-122.31702,41.31494
88,101997.98,,,,101850.0,101503.13,1.0,Clear,,,,7.0,89602.38,,KMHS 031556Z AUTO VRB03KT 7SM CLR 19/08 A3012 RMK AO2 SLP185  T01890078,,48.51,1.54,18.9,,2018-08-03 15:56:00,7.75,,7.8,,,1.0,,,KMHS,3540,-122.31702,41.31494
89,101997.98,,,,101840.0,101384.41,1.0,Haze,,,,5.0,89602.38,,KMHS 031656Z AUTO VRB03KT 5SM HZ CLR 22/08 A3012 RMK AO2 SLP184  T02170078,,40.82,1.54,21.7,,2018-08-03 16:56:00,7.76,,7.8,,,1.0,6.0,,KMHS,3540,-122.31702,41.31494
90,101964.11,,,,101830.0,101284.01,346.0,Haze,11.1,,,3.0,89572.62,8002.0,KMHS 031756Z AUTO VRB04KT 3SM HZ FEW034 23/07 A3011 RMK AO2 SLP183  T02330072 10233 20111 58002,,35.56,2.06,23.3,23.3,2018-08-03 17:56:00,7.18,,7.2,,,1.0,6.0,,KMHS,3540,-122.31702,41.31494
91,101930.25,WNW,,,101770.0,101155.88,342.0,Haze,,,,3.0,89542.88,,KMHS 031856Z AUTO 29006KT 3SM HZ SCT034 26/04 A3010 RMK AO2 SLP177  T02560044,,25.53,3.09,25.6,,2018-08-03 18:56:00,4.41,,4.4,,,1.0,6.0,290.0,KMHS,3540,-122.31702,41.31494
92,101896.38,,,26.49,101720.0,101057.44,1.0,Haze,,,,4.0,89513.13,,KMHS 031956Z AUTO VRB05KT 4SM HZ CLR 27/02 A3009 RMK AO2 SLP172  T02720022,,19.89,2.57,27.2,,2018-08-03 19:56:00,2.25,,2.2,,,1.0,6.0,,KMHS,3540,-122.31702,41.31494
93,101828.66,,,27.36,101650.0,100922.13,1.0,Haze,,,,6.0,89453.64,8013.0,KMHS 032056Z AUTO VRB04KT 6SM HZ CLR 29/03 A3007 RMK AO2 SLP165  T02890028 58013,,18.81,2.06,28.9,,2018-08-03 20:56:00,2.89,,2.8,,,1.0,6.0,,KMHS,3540,-122.31702,41.31494
94,101794.79,,,27.37,101630.0,100888.53,1.0,Haze,,,,6.0,89423.88,,KMHS 032156Z AUTO VRB04KT 6SM HZ CLR 29/03 A3006 RMK AO2 SLP163  T02890033,,19.48,2.06,28.9,,2018-08-03 21:56:00,3.38,,3.3,,,1.0,6.0,,KMHS,3540,-122.31702,41.31494
95,101727.07,,,27.83,101550.0,100801.46,1.0,Haze,,,,5.0,89364.39,,KMHS 032256Z AUTO VRB04KT 5SM HZ CLR 29/06 A3004 RMK AO2 SLP155  T02940056,,22.24,2.06,29.4,,2018-08-03 22:56:00,5.68,,5.6,,,1.0,6.0,,KMHS,3540,-122.31702,41.31494
96,101693.2,W,,26.96,101550.0,100811.77,1.0,Haze,23.3,,,6.0,89334.64,8014.0,KMHS 032356Z AUTO 28004KT 6SM HZ CLR 28/03 A3003 RMK AO2 SLP155  T02830033 10300 20233 58014,,20.17,2.06,28.3,30.0,2018-08-03 23:56:00,3.37,,3.3,,,1.0,6.0,280.0,KMHS,3540,-122.31702,41.31494
97,101659.34,,,26.63,101560.0,100798.21,1.0,Clear,,,,7.0,89304.89,,KMHS 040056Z AUTO VRB03KT 7SM CLR 28/03 A3002 RMK AO2 SLP156  T02780033,,20.77,1.54,27.8,,2018-08-04 00:56:00,3.36,,3.3,,,1.0,,,KMHS,3540,-122.31702,41.31494
98,101693.2,,,,101580.0,100900.35,1.0,Clear,,,,8.0,89334.64,,KMHS 040156Z AUTO VRB04KT 8SM CLR 26/03 A3003 RMK AO2 SLP158  T02610033,,22.94,2.06,26.1,,2018-08-04 01:56:00,3.32,,3.3,,,1.0,,,KMHS,3540,-122.31702,41.31494
99,101760.93,,,,101640.0,101057.57,1.0,Clear,,,,10.0,89394.14,3006.0,KMHS 040256Z AUTO VRB04KT 10SM CLR 24/03 A3005 RMK AO2 SLP164  T02390033 53006,,26.15,2.06,23.9,,2018-08-04 02:56:00,3.29,,3.3,,,1.0,,,KMHS,3540,-122.31702,41.31494
100,101794.79,,,,101670.0,101161.71,1.0,Clear,,,,10.0,89423.88,,KMHS 040356Z AUTO 10SM CLR 22/04 A3006 RMK AO2 SLP167  T02220039,,30.23,,22.2,,2018-08-04 03:56:00,3.87,,3.9,,,1.0,,,KMHS,3540,-122.31702,41.31494
101,101862.52,,,,101730.0,101296.19,1.0,Clear,,,,10.0,89483.38,,KMHS 040456Z AUTO VRB05KT 10SM CLR 21/05 A3008 RMK AO2 SLP173  T02060050,,36.01,2.57,20.6,,2018-08-04 04:56:00,4.95,,5.0,,,1.0,,,KMHS,3540,-122.31702,41.31494
102,101862.52,,,,101730.0,101347.16,1.0,Clear,19.4,,,10.0,89483.38,1011.0,KMHS 040556Z AUTO VRB05KT 10SM CLR 19/04 A3008 RMK AO2 SLP173  T01940039 10283 20194 51011,,35.9,2.57,19.4,28.3,2018-08-04 05:56:00,3.84,,3.9,,,1.0,,,KMHS,3540,-122.31702,41.31494
103,101862.52,,,,101700.0,101394.25,703.0,Mostly Cloudy,,,,10.0,89483.38,,KMHS 040656Z AUTO VRB03KT 10SM BKN070 18/03 A3008 RMK AO2 SLP170  T01830033,,36.86,1.54,18.3,,2018-08-04 06:56:00,3.23,2133.6,3.3,,,1.0,,,KMHS,3540,-122.31702,41.31494
104,101862.52,,,,101680.0,101415.76,656.0,Mostly Clear,,30.0,,10.0,89483.38,,KMHS 040756Z AUTO VRB03KT 10SM FEW065 18/03 A3008 RMK AO2 SLP168  T01780033 403000111,,38.04,1.54,17.8,,2018-08-04 07:56:00,3.23,,3.3,11.1,,1.0,,,KMHS,3540,-122.31702,41.31494
105,101862.52,,,,101680.0,101489.5,604.0,Overcast,,,,10.0,89483.38,6002.0,KMHS 040856Z AUTO VRB04KT 10SM OVC060 16/03 A3008 RMK AO2 SLP168  T01610033 56002,,42.36,2.06,16.1,,2018-08-04 08:56:00,3.22,1828.8,3.3,,,1.0,,,KMHS,3540,-122.31702,41.31494
106,101828.66,N,,,101690.0,101552.51,602.0,Partly Cloudy,,,,10.0,89453.64,,KMHS 040956Z AUTO 00000KT 10SM SCT060 14/04 A3007 RMK AO2 SLP169  T01390039,,50.9,0.0,13.9,,2018-08-04 09:56:00,3.82,,3.9,,,1.0,,0.0,KMHS,3540,-122.31702,41.31494
107,101828.66,N,,,101680.0,101628.31,552.0,Partly Cloudy,,,,10.0,89453.64,,KMHS 041056Z AUTO 00000KT 10SM SCT055 12/05 A3007 RMK AO2 SLP168  T01220050,,61.43,0.0,12.2,,2018-08-04 10:56:00,4.93,,5.0,,,1.0,,0.0,KMHS,3540,-122.31702,41.31494
108,101794.79,N,,,101690.0,101616.98,556.0,Mostly Clear,11.7,,,10.0,89423.88,7004.0,KMHS 041156Z AUTO 00000KT 10SM FEW055 12/05 A3006 RMK AO2 SLP169  T01170050 10194 20117 57004,,63.48,0.0,11.7,19.4,2018-08-04 11:56:00,4.93,,5.0,,,1.0,,0.0,KMHS,3540,-122.31702,41.31494
109,101794.79,N,,,101700.0,101694.06,1.0,Clear,,,,8.0,89423.88,,KMHS 041256Z AUTO 00000KT 8SM CLR 10/04 A3006 RMK AO2 SLP170  T01000044,,68.16,0.0,10.0,,2018-08-04 12:56:00,4.34,,4.4,,,1.0,,0.0,KMHS,3540,-122.31702,41.31494
110,101828.66,NE,,,101760.0,101727.88,1.0,Haze,,,,4.0,89453.64,,KMHS 041356Z AUTO 05003KT 4SM HZ CLR 10/05 A3007 RMK AO2 SLP176  T01000050,,71.08,1.54,10.0,,2018-08-04 13:56:00,4.95,,5.0,,,1.0,6.0,50.0,KMHS,3540,-122.31702,41.31494
111,101828.66,N,,,101730.0,101552.36,1.0,Haze,,,,6.0,89453.64,2.0,KMHS 041456Z AUTO 00000KT 6SM HZ CLR 14/07 A3007 RMK AO2 SLP173  T01390072 50002,,64.0,0.0,13.9,,2018-08-04 14:56:00,7.14,,7.2,,,1.0,6.0,0.0,KMHS,3540,-122.31702,41.31494
112,101794.79,N,,,101640.0,101279.59,1.0,Clear,,,,8.0,89423.88,,KMHS 041556Z AUTO 00000KT 8SM CLR 19/08 A3006 RMK AO2 SLP164  T01940078,,47.03,0.0,19.4,,2018-08-04 15:56:00,7.75,,7.8,,,1.0,,0.0,KMHS,3540,-122.31702,41.31494
113,101727.07,,,,101570.0,101094.29,453.0,Haze,,,,6.0,89364.39,,KMHS 041656Z AUTO VRB04KT 6SM HZ BKN045 22/07 A3004 RMK AO2 SLP157  T02220067,,36.73,2.06,22.2,,2018-08-04 16:56:00,6.67,1371.6,6.7,,,1.0,6.0,,KMHS,3540,-122.31702,41.31494
114,101727.07,WNW,,,101560.0,101023.84,476.0,Haze,10.0,,,6.0,89364.39,6010.0,KMHS 041756Z AUTO 30004KT 6SM HZ FEW047 24/06 A3004 RMK AO2 SLP156  T02390056 10239 20100 56010,,30.72,2.06,23.9,23.9,2018-08-04 17:56:00,5.59,,5.6,,,1.0,6.0,300.0,KMHS,3540,-122.31702,41.31494
115,101693.2,,,,101520.0,100945.06,426.0,Haze,,,,5.0,89334.64,,KMHS 041856Z AUTO 5SM HZ FEW042 25/06 A3003 RMK AO2 SLP152  T02500056,,28.77,,25.0,,2018-08-04 18:56:00,5.6,,5.6,,,1.0,6.0,,KMHS,3540,-122.31702,41.31494
116,101625.47,N,,,101450.0,100833.05,314.0,Haze,,,,3.0,89275.14,,KMHS 041956Z AUTO 00000KT 3SM HZ OVC031 26/06 A3001 RMK AO2 SLP145  T02610056,,26.95,0.0,26.1,,2018-08-04 19:56:00,5.62,944.88,5.6,,,1.0,6.0,0.0,KMHS,3540,-122.31702,41.31494
117,101625.47,,,,,100833.03,294.0,Haze,,,,2.5,89275.14,,KMHS 041959Z AUTO 2 1/2SM HZ OVC029 26/06 A3001 RMK AO2  T02610056,,27.87,,26.1,,2018-08-04 19:59:00,6.1,883.92,5.6,,,1.0,6.0,,KMHS,3540,-122.31702,41.31494
118,101591.61,,,26.1,,100775.18,293.0,Haze,,,,3.0,89245.39,,SPECI KMHS 042022Z AUTO VRB03KT 3SM HZ BKN029 BKN110 27/06 A3000 RMK AO2 T02670056,1103.0,26.02,1.54,26.7,,2018-08-04 20:22:00,5.63,883.92,5.6,,,1.0,6.0,,KMHS,3540,-122.31702,41.31494
119,101625.47,NNW,1103.0,,,100833.05,296.0,Haze,,,,4.0,89275.14,,KMHS 042036Z AUTO 34003KT 4SM HZ FEW029 SCT034 BKN110 26/06 A3001 RMK AO2 T02610056,342.0,26.95,1.54,26.1,,2018-08-04 20:36:00,5.62,3352.8,5.6,,,1.0,6.0,340.0,KMHS,3540,-122.31702,41.31494
120,101591.61,N,,,101450.0,100799.45,366.0,Haze,,,,4.0,89245.39,6010.0,KMHS 042056Z AUTO 00000KT 4SM HZ FEW036 SCT110 26/06 A3000 RMK AO2  SLP145 T02610056 56010,1102.0,26.95,0.0,26.1,,2018-08-04 20:56:00,5.62,,5.6,,,1.0,6.0,0.0,KMHS,3540,-122.31702,41.31494
121,101591.61,,,,101470.0,100844.26,386.0,Haze,,,,4.0,89245.39,,KMHS 042156Z AUTO VRB04KT 4SM HZ FEW038 25/04 A3000 RMK AO2 SLP147  T02500044,,26.46,2.06,25.0,,2018-08-04 21:56:00,4.41,,4.4,,,1.0,6.0,,KMHS,3540,-122.31702,41.31494
122,101557.75,N,,,101430.0,100765.84,323.0,Haze,,,,3.0,89215.65,,KMHS 042256Z AUTO 00000KT 3SM HZ BKN032 26/06 A2999 RMK AO2 SLP143  T02610061,,27.9,0.0,26.1,,2018-08-04 22:56:00,6.12,975.36,6.1,,,1.0,6.0,0.0,KMHS,3540,-122.31702,41.31494
123,101523.88,WNW,,,101430.0,100776.98,323.0,Haze,23.3,,,3.0,89185.89,8008.0,KMHS 042356Z AUTO 30004KT 3SM HZ BKN032 25/06 A2998 RMK AO2 SLP143  T02500056 10278 20233 58008,,28.77,2.06,25.0,27.8,2018-08-04 23:56:00,5.6,975.36,5.6,,,1.0,6.0,300.0,KMHS,3540,-122.31702,41.31494
124,101490.02,,,,,100788.46,314.0,Haze,,,,2.5,89156.15,,SPECI KMHS 050041Z AUTO VRB03KT 2 1/2SM HZ OVC031 24/05 A2997 RMK AO2 T02390050,,29.46,1.54,23.9,,2018-08-05 00:41:00,4.99,944.88,5.0,,,1.0,6.0,,KMHS,3540,-122.31702,41.31494
125,101523.88,,,,,100818.0,293.0,Haze,,,,2.5,89185.89,,KMHS 050051Z AUTO VRB03KT 2 1/2SM HZ BKN029 OVC038 24/04 A2998 RMK AO2,384.0,27.31,1.54,24.0,,2018-08-05 00:51:00,3.99,883.92,4.0,,,1.0,6.0,,KMHS,3540,-122.31702,41.31494
126,101490.02,,,,101440.0,100767.98,293.0,Haze,,,,2.5,89156.15,,KMHS 050056Z AUTO VRB03KT 2 1/2SM HZ BKN029 OVC036 24/04 A2997 RMK AO2 SLP144 T02440039,364.0,26.48,1.54,24.4,,2018-08-05 00:56:00,3.9,883.92,3.9,,,1.0,6.0,,KMHS,3540,-122.31702,41.31494
127,101490.02,,,,,100767.96,303.0,Haze,,,,2.5,89156.15,,KMHS 050111Z AUTO VRB03KT 2 1/2SM HZ BKN030 OVC037 24/04 A2997 RMK AO2 T02440039,374.0,27.31,1.54,24.4,,2018-08-05 01:11:00,4.34,914.4,3.9,,,1.0,6.0,,KMHS,3540,-122.31702,41.31494
128,101490.02,,,,,100767.98,323.0,Haze,,,,3.0,89156.15,,SPECI KMHS 050125Z AUTO VRB03KT 3SM HZ BKN032 OVC110 24/04 A2997 RMK AO2 T02440039,1104.0,26.48,1.54,24.4,,2018-08-05 01:25:00,3.9,975.36,3.9,,,1.0,6.0,,KMHS,3540,-122.31702,41.31494
129,101490.02,N,,,101430.0,100813.21,376.0,Haze,,,,4.0,89156.15,,KMHS 050156Z AUTO 00000KT 4SM HZ FEW037 BKN100 23/04 A2997 RMK AO2  SLP143 T02330044,1003.0,29.29,0.0,23.3,,2018-08-05 01:56:00,4.38,3048.0,4.4,,,1.0,6.0,0.0,KMHS,3540,-122.31702,41.31494
130,101523.88,,,,101450.0,100938.41,396.0,Haze,,,,3.0,89185.89,3002.0,KMHS 050256Z AUTO VRB03KT 3SM HZ FEW039 21/05 A2998 RMK AO2 SLP145  T02110050 53002,,34.92,1.54,21.1,,2018-08-05 02:56:00,4.96,,5.0,,,1.0,6.0,,KMHS,3540,-122.31702,41.31494
131,101591.61,,,,101460.0,101005.82,1.0,Haze,,,,5.0,89245.39,,KMHS 050356Z AUTO VRB03KT 5SM HZ CLR 21/03 A3000 RMK AO2 SLP146  T02110033,,30.99,1.54,21.1,,2018-08-05 03:56:00,3.26,,3.3,,,1.0,6.0,,KMHS,3540,-122.31702,41.31494
132,101659.34,NW,,,101500.0,101094.21,324.0,Haze,,,,3.0,89304.89,,KMHS 050456Z AUTO 32005KT 3SM HZ OVC032 21/03 A3002 RMK AO2 SLP150  T02060033,,31.96,2.57,20.6,,2018-08-05 04:56:00,3.25,975.36,3.3,,,1.0,6.0,320.0,KMHS,3540,-122.31702,41.31494
133,101693.2,,,,,101200.01,354.0,Haze,,,,2.5,89334.64,,KMHS 050539Z AUTO VRB03KT 2 1/2SM HZ OVC035 19/04 A3003 RMK AO2  T01890039,,37.04,1.54,18.9,,2018-08-05 05:39:00,3.84,1066.8,3.9,,,1.0,6.0,,KMHS,3540,-122.31702,41.31494
134,101693.2,,,,101550.0,101225.68,394.0,Haze,18.3,,,2.5,89334.64,1015.0,KMHS 050556Z AUTO VRB03KT 2 1/2SM HZ OVC039 18/04 A3003 RMK AO2  SLP155 T01830039 10250 20183 51015,,38.45,1.54,18.3,25.0,2018-08-05 05:56:00,3.83,1188.72,3.9,,,1.0,6.0,,KMHS,3540,-122.31702,41.31494
135,101727.07,,,,,101259.39,434.0,Haze,,,,3.0,89364.39,,SPECI KMHS 050613Z AUTO VRB03KT 3SM HZ OVC043 18/04 A3004 RMK AO2 T01830039,,38.45,1.54,18.3,,2018-08-05 06:13:00,3.83,1310.64,3.9,,,1.0,6.0,,KMHS,3540,-122.31702,41.31494
136,101727.07,,,,101580.0,101259.35,464.0,Haze,,,,3.0,89364.39,,KMHS 050656Z AUTO VRB04KT 3SM HZ OVC046 18/05 A3004 RMK AO2 SLP158  T01830050,,41.53,2.06,18.3,,2018-08-05 06:56:00,4.94,1402.08,5.0,,,1.0,6.0,,KMHS,3540,-122.31702,41.31494
137,101760.93,N,,,101620.0,101388.19,444.0,Haze,,27.8,,3.0,89394.14,,KMHS 050756Z AUTO 00000KT 3SM HZ OVC044 16/06 A3005 RMK AO2 SLP162  T01610056 402780100,,49.76,0.0,16.1,,2018-08-05 07:56:00,5.53,1341.12,5.6,10.0,,1.0,6.0,0.0,KMHS,3540,-122.31702,41.31494
138,101760.93,N,,,101640.0,101484.84,703.0,Haze,,,,4.0,89394.14,5.0,KMHS 050856Z AUTO 00000KT 4SM HZ BKN070 OVC085 14/07 A3005 RMK AO2  SLP164 T01390067 50005,854.0,61.84,0.0,13.9,,2018-08-05 08:56:00,6.64,2133.6,6.7,,,1.0,6.0,0.0,KMHS,3540,-122.31702,41.31494
139,101760.93,NE,,,101650.0,101511.48,604.0,Haze,,,,5.0,89394.14,,KMHS 050956Z AUTO 05003KT 5SM HZ OVC060 13/07 A3005 RMK AO2 SLP165  T01330067,,64.3,1.54,13.3,,2018-08-05 09:56:00,6.64,1828.8,6.7,,,1.0,6.0,50.0,KMHS,3540,-122.31702,41.31494
140,101760.93,N,,,101670.0,101610.21,603.0,Haze,,,,5.0,89394.14,,KMHS 051056Z AUTO 00000KT 5SM HZ BKN060 11/06 A3005 RMK AO2 SLP167  T01110061,,71.29,0.0,11.1,,2018-08-05 10:56:00,6.05,1828.8,6.1,,,1.0,6.0,0.0,KMHS,3540,-122.31702,41.31494
141,101760.93,N,,,101700.0,101632.91,504.0,Haze,10.6,,,5.0,89394.14,2000.0,KMHS 051156Z AUTO 00000KT 5SM HZ OVC050 11/05 A3005 RMK AO2 SLP170  T01060050 10189 20106 52000,,68.29,0.0,10.6,18.9,2018-08-05 11:56:00,4.94,1524.0,5.0,,,1.0,6.0,0.0,KMHS,3540,-122.31702,41.31494
142,101760.93,N,,,101710.0,101660.18,436.0,Haze,,,,5.0,89394.14,,KMHS 051256Z AUTO 00000KT 5SM HZ FEW043 10/06 A3005 RMK AO2 SLP171  T01000056,,74.1,0.0,10.0,,2018-08-05 12:56:00,5.55,,5.6,,,1.0,6.0,0.0,KMHS,3540,-122.31702,41.31494
143,101794.79,N,,,101750.0,101721.43,1.0,Haze,,,,3.0,89423.88,,KMHS 051356Z AUTO 00000KT 3SM HZ CLR 09/06 A3006 RMK AO2 SLP175  T00940056,,77.15,0.0,9.4,,2018-08-05 13:56:00,5.56,,5.6,,,1.0,6.0,0.0,KMHS,3540,-122.31702,41.31494
144,101828.66,N,,,101780.0,101601.33,444.0,Haze,,,,4.0,89453.64,3006.0,KMHS 051456Z AUTO 00000KT 4SM HZ OVC044 13/07 A3007 RMK AO2 SLP178  T01280072 53006,,68.75,0.0,12.8,,2018-08-05 14:56:00,7.15,1341.12,7.2,,,1.0,6.0,0.0,KMHS,3540,-122.31702,41.31494
145,101862.52,N,,,101740.0,101415.44,424.0,Haze,,,,4.0,89483.38,,KMHS 051556Z AUTO 00000KT 4SM HZ OVC042 18/10 A3008 RMK AO2 SLP174  T01780100,,60.29,0.0,17.8,,2018-08-05 15:56:00,9.95,1280.16,10.0,,,1.0,6.0,0.0,KMHS,3540,-122.31702,41.31494
146,101828.66,N,,,101690.0,101241.26,403.0,Haze,,,,4.0,89453.64,,KMHS 051656Z AUTO 00000KT 4SM HZ BKN040 21/09 A3007 RMK AO2 SLP169  T02110089,,45.63,0.0,21.1,,2018-08-05 16:56:00,8.86,1219.2,8.9,,,1.0,6.0,0.0,KMHS,3540,-122.31702,41.31494
147,101828.66,N,,,101670.0,101124.58,392.0,Haze,8.9,,,5.0,89453.64,8002.0,KMHS 051756Z AUTO 00000KT 5SM HZ SCT039 24/09 A3007 RMK AO2 SLP167  T02390089 10239 20089 58002,,38.5,0.0,23.9,23.9,2018-08-05 17:56:00,8.88,,8.9,,,1.0,6.0,0.0,KMHS,3540,-122.31702,41.31494
148,101794.79,,,26.64,101620.0,100956.55,1.0,Haze,,,,4.0,89423.88,,KMHS 051856Z AUTO VRB03KT 4SM HZ CLR 27/06 A3006 RMK AO2 SLP162  T02720056,,25.27,1.54,27.2,,2018-08-05 18:56:00,5.64,,5.6,,,1.0,6.0,,KMHS,3540,-122.31702,41.31494
149,101794.79,N,,26.96,101620.0,100912.48,1.0,Haze,,,,6.0,89423.88,,KMHS 051956Z AUTO 00000KT 6SM HZ CLR 28/03 A3006 RMK AO2 SLP162  T02830033,,20.17,0.0,28.3,,2018-08-05 19:56:00,3.37,,3.3,,,1.0,6.0,0.0,KMHS,3540,-122.31702,41.31494
150,101727.07,N,,27.83,101580.0,100801.46,402.0,Haze,,,,4.0,89364.39,8006.0,KMHS 052056Z AUTO 00000KT 4SM HZ SCT040 29/06 A3004 RMK AO2 SLP158  T02940056 58006,,22.24,0.0,29.4,,2018-08-05 20:56:00,5.68,,5.6,,,1.0,6.0,0.0,KMHS,3540,-122.31702,41.31494
151,101727.07,N,,27.03,101580.0,100845.28,344.0,Haze,,,,3.0,89364.39,,KMHS 052156Z AUTO 00000KT 3SM HZ OVC034 28/05 A3004 RMK AO2 SLP158  T02830050,,22.73,0.0,28.3,,2018-08-05 21:56:00,5.06,1036.32,5.0,,,1.0,6.0,0.0,KMHS,3540,-122.31702,41.31494
152,101727.07,N,,26.1,101630.0,100909.56,344.0,Haze,,,,4.0,89364.39,,KMHS 052256Z AUTO 00000KT 4SM HZ OVC034 27/06 A3004 RMK AO2 SLP163  T02670056,,26.02,0.0,26.7,,2018-08-05 22:56:00,5.63,1036.32,5.6,,,1.0,6.0,0.0,KMHS,3540,-122.31702,41.31494
153,101727.07,N,,26.16,101630.0,100909.51,323.0,Haze,23.9,,,4.0,89364.39,8001.0,KMHS 052356Z AUTO 00000KT 4SM HZ BKN032 27/07 A3004 RMK AO2 SLP163  T02670067 10294 20239 58001,,28.07,0.0,26.7,29.4,2018-08-05 23:56:00,6.73,975.36,6.7,,,1.0,6.0,0.0,KMHS,3540,-122.31702,41.31494
154,101727.07,N,,,101660.0,100954.16,306.0,Haze,,,,3.0,89364.39,,KMHS 060056Z AUTO 00000KT 3SM HZ FEW030 OVC036 26/06 A3004 RMK AO2  SLP166 T02560061,364.0,28.74,0.0,25.6,,2018-08-06 00:56:00,6.11,1097.28,6.1,,,1.0,6.0,0.0,KMHS,3540,-122.31702,41.31494
155,101760.93,N,,,101700.0,101036.89,494.0,Haze,,,,3.0,89394.14,,KMHS 060156Z AUTO 00000KT 3SM HZ OVC049 24/06 A3005 RMK AO2 SLP170  T02440056,,29.81,0.0,24.4,,2018-08-06 01:56:00,5.59,1493.52,5.6,,,1.0,6.0,0.0,KMHS,3540,-122.31702,41.31494
156,101794.79,N,,,101760.0,101228.79,484.0,Haze,,,,3.0,89423.88,3007.0,KMHS 060256Z AUTO 00000KT 3SM HZ OVC048 21/06 A3006 RMK AO2 SLP176  T02060061 53007,,38.86,0.0,20.6,,2018-08-06 02:56:00,6.05,1463.04,6.1,,,1.0,6.0,0.0,KMHS,3540,-122.31702,41.31494
157,101896.38,N,,,101830.0,101475.26,654.0,Haze,,,,5.0,89513.13,,KMHS 060356Z AUTO 00000KT 5SM HZ OVC065 17/07 A3009 RMK AO2 SLP183  T01720067,,50.06,0.0,17.2,,2018-08-06 03:56:00,6.64,1981.2,6.7,,,1.0,6.0,0.0,KMHS,3540,-122.31702,41.31494
158,101964.11,ENE,,,101870.0,101564.47,554.0,Haze,,,,4.0,89572.62,,KMHS 060456Z AUTO 06004KT 4SM HZ OVC055 17/06 A3011 RMK AO2 SLP187  T01670056,,47.9,2.06,16.7,,2018-08-06 04:56:00,5.53,1676.4,5.6,,,1.0,6.0,60.0,KMHS,3540,-122.31702,41.31494
159,101997.98,N,,,101880.0,101699.11,434.0,Haze,13.9,,,4.0,89602.38,1016.0,KMHS 060556Z AUTO 00000KT 4SM HZ OVC043 14/06 A3012 RMK AO2 SLP188  T01440061 10267 20139 51016,,57.45,0.0,14.4,26.7,2018-08-06 05:56:00,6.04,1310.64,6.1,,,1.0,6.0,0.0,KMHS,3540,-122.31702,41.31494
160,101997.98,ENE,,,101860.0,101672.67,314.0,Haze,,,,4.0,89602.38,,KMHS 060656Z AUTO 07005KT 4SM HZ OVC031 15/05 A3012 RMK AO2 SLP186  T01500050,,51.21,2.57,15.0,,2018-08-06 06:56:00,4.93,944.88,5.0,,,1.0,6.0,70.0,KMHS,3540,-122.31702,41.31494
161,101997.98,ENE,,,101860.0,101699.08,334.0,Haze,,29.4,,3.0,89602.38,,KMHS 060756Z AUTO 07003KT 3SM HZ OVC033 14/07 A3012 RMK AO2 SLP186  T01440067 402940089,,59.87,1.54,14.4,,2018-08-06 07:56:00,6.64,1005.84,6.7,8.9,,1.0,6.0,70.0,KMHS,3540,-122.31702,41.31494
162,101997.98,,,,,101747.92,314.0,Haze,,,,2.5,89602.38,,KMHS 060832Z AUTO VRB03KT 2 1/2SM HZ OVC031 13/07 A3012 RMK AO2  T01330072,,66.54,1.54,13.3,,2018-08-06 08:32:00,7.15,944.88,7.2,,,1.0,6.0,,KMHS,3540,-122.31702,41.31494
163,101997.98,N,,,,101770.27,324.0,Haze,,,,3.0,89602.38,,SPECI KMHS 060849Z AUTO 00000KT 3SM HZ OVC032 13/07 A3012 RMK AO2 T01280072,,68.75,0.0,12.8,,2018-08-06 08:49:00,7.15,975.36,7.2,,,1.0,6.0,0.0,KMHS,3540,-122.31702,41.31494
164,101997.98,ENE,,,101860.0,101747.92,344.0,Haze,,,,3.0,89602.38,2.0,KMHS 060856Z AUTO 07003KT 3SM HZ OVC034 13/07 A3012 RMK AO2 SLP186  T01330072 50002,,66.54,1.54,13.3,,2018-08-06 08:56:00,7.15,1036.32,7.2,,,1.0,6.0,70.0,KMHS,3540,-122.31702,41.31494
165,101997.98,NE,,,101880.0,101797.19,304.0,Haze,,,,3.0,89602.38,,KMHS 060956Z AUTO 05003KT 3SM HZ OVC030 12/07 A3012 RMK AO2 SLP188  T01220072,,71.51,1.54,12.2,,2018-08-06 09:56:00,7.15,914.4,7.2,,,1.0,6.0,50.0,KMHS,3540,-122.31702,41.31494
166,101997.98,ENE,,,,101797.21,284.0,Haze,,,,3.0,89602.38,,SPECI KMHS 061010Z AUTO 06003KT 3SM HZ OVC028 12/07 A3012 RMK AO2 T01220067,,69.1,1.54,12.2,,2018-08-06 10:10:00,6.65,853.44,6.7,,,1.0,6.0,60.0,KMHS,3540,-122.31702,41.31494
167,102031.84,N,,,,101831.0,304.0,Haze,,,,3.0,89632.12,,SPECI KMHS 061043Z AUTO 00000KT 3SM HZ OVC030 12/07 A3013 RMK AO2 T01220067,,69.1,0.0,12.2,,2018-08-06 10:43:00,6.65,914.4,6.7,,,1.0,6.0,0.0,KMHS,3540,-122.31702,41.31494
168,102031.84,ENE,,,101920.0,101831.0,344.0,Haze,,,,3.0,89632.12,,KMHS 061056Z AUTO 06003KT 3SM HZ OVC034 12/07 A3013 RMK AO2 SLP192  T01220067,,69.1,1.54,12.2,,2018-08-06 10:56:00,6.65,1036.32,6.7,,,1.0,6.0,60.0,KMHS,3540,-122.31702,41.31494
169,102031.84,ENE,,,101930.0,101853.53,374.0,Haze,11.7,,,3.0,89632.12,3002.0,KMHS 061156Z AUTO 07003KT 3SM HZ OVC037 12/07 A3013 RMK AO2 SLP193  T01170067 10156 20117 53002,,71.41,1.54,11.7,15.6,2018-08-06 11:56:00,6.65,1127.76,6.7,,,1.0,6.0,70.0,KMHS,3540,-122.31702,41.31494
170,102065.7,NE,,,101990.0,101914.5,374.0,Haze,,,,3.0,89661.87,,KMHS 061256Z AUTO 05003KT 3SM HZ OVC037 11/07 A3014 RMK AO2 SLP199  T01110067,,74.3,1.54,11.1,,2018-08-06 12:56:00,6.65,1127.76,6.7,,,1.0,6.0,50.0,KMHS,3540,-122.31702,41.31494
171,102099.57,N,,,,101948.31,354.0,Haze,,,,2.0,89691.62,,KMHS 061329Z AUTO 00000KT 2SM HZ OVC035 11/07 A3015 RMK AO2  T01110067,,74.3,0.0,11.1,,2018-08-06 13:29:00,6.65,1066.8,6.7,,,1.0,6.0,0.0,KMHS,3540,-122.31702,41.31494
172,102133.43,NE,,,102070.0,101982.13,294.0,Haze,,,,2.0,89721.37,,KMHS 061356Z AUTO 05003KT 2SM HZ OVC029 11/07 A3016 RMK AO2 SLP207  T01110067,,74.3,1.54,11.1,,2018-08-06 13:56:00,6.65,883.92,6.7,,,1.0,6.0,50.0,KMHS,3540,-122.31702,41.31494
173,102133.43,NE,,,,101905.38,264.0,Haze,,,,1.75,89721.37,,KMHS 061439Z AUTO 05003KT 1 3/4SM HZ OVC026 13/08 A3016 RMK AO2  T01280078,,71.62,1.54,12.8,,2018-08-06 14:39:00,7.75,792.48,7.8,,,1.0,6.0,50.0,KMHS,3540,-122.31702,41.31494
174,102167.3,ENE,,,102110.0,101889.99,264.0,Haze,,,,1.75,89751.12,1011.0,KMHS 061456Z AUTO 06003KT 1 3/4SM HZ OVC026 14/09 A3017 RMK AO2  SLP211 T01390089 51011,,71.83,1.54,13.9,,2018-08-06 14:56:00,8.86,792.48,8.9,,,1.0,6.0,60.0,KMHS,3540,-122.31702,41.31494
175,102167.3,N,,,,101697.3,254.0,Haze,,,,1.25,89751.12,,KMHS 061539Z AUTO 00000KT 1 1/4SM HZ OVC025 18/10 A3017 RMK AO2  T01830100,,58.43,0.0,18.3,,2018-08-06 15:39:00,9.95,762.0,10.0,,,1.0,6.0,0.0,KMHS,3540,-122.31702,41.31494
176,102167.3,,,,102100.0,101650.1,254.0,Haze,,,,1.25,89751.12,,KMHS 061556Z AUTO VRB03KT 1 1/4SM HZ OVC025 19/10 A3017 RMK AO2  SLP210 T01940100,,54.56,1.54,19.4,,2018-08-06 15:56:00,9.96,762.0,10.0,,,1.0,6.0,,KMHS,3540,-122.31702,41.31494
177,102167.3,,,,102060.0,101531.61,244.0,Haze,,,,1.25,89751.12,,KMHS 061656Z AUTO VRB04KT 1 1/4SM HZ OVC024 22/10 A3017 RMK AO2  SLP206 T02220100,,45.94,2.06,22.2,,2018-08-06 16:56:00,9.97,731.52,10.0,,,1.0,6.0,,KMHS,3540,-122.31702,41.31494
178,102133.43,WNW,,,102030.0,101427.18,233.0,Haze,11.1,,,1.25,89721.37,8002.0,KMHS 061756Z AUTO 30006KT 1 1/4SM HZ BKN023 OVC031 24/10 A3016 RMK AO2 SLP203 T02390100 10244 20111 58002,314.0,41.46,3.09,23.9,24.4,2018-08-06 17:56:00,9.99,701.04,10.0,,,1.0,6.0,300.0,KMHS,3540,-122.31702,41.31494
179,102133.43,,,,,101357.25,233.0,Haze,,,,1.5,89721.37,,SPECI KMHS 061837Z AUTO 1 1/2SM HZ BKN023 OVC032 26/10 A3016 RMK AO2 T02560100,324.0,37.46,,25.6,,2018-08-06 18:37:00,10.0,701.04,10.0,,,1.0,6.0,,KMHS,3540,-122.31702,41.31494
180,102133.43,,,,101990.0,101336.87,233.0,Haze,,,,1.5,89721.37,,KMHS 061856Z AUTO VRB04KT 1 1/2SM HZ BKN023 OVC028 26/09 A3016 RMK AO2 SLP199 T02610094,284.0,34.94,2.06,26.1,,2018-08-06 18:56:00,9.41,701.04,9.4,,,1.0,6.0,,KMHS,3540,-122.31702,41.31494
181,102065.7,,,27.3,101910.0,101180.79,254.0,Haze,,,,1.75,89661.87,,KMHS 061956Z AUTO VRB03KT 1 3/4SM HZ OVC025 28/09 A3014 RMK AO2  SLP191 T02830089,,29.7,1.54,28.3,,2018-08-06 19:56:00,8.94,762.0,8.9,,,1.0,6.0,,KMHS,3540,-122.31702,41.31494
182,102031.84,,,28.38,,101079.57,233.0,Haze,,,,2.0,89632.12,,KMHS 062041Z AUTO VRB04KT 2SM HZ BKN023 OVC033 30/07 A3013 RMK AO2 T03000072,334.0,23.66,2.06,30.0,,2018-08-06 20:41:00,7.08,701.04,7.2,,,1.0,6.0,,KMHS,3540,-122.31702,41.31494
183,101997.98,,,28.49,101860.0,101045.97,273.0,Haze,,,,2.0,89602.38,8012.0,METAR KMHS 062056Z AUTO 2SM HZ BKN027 OVC033 30/08 A3012 RMK AO2 SLP186 T03000083 58012,334.0,25.86,,30.0,,2018-08-06 20:56:00,8.38,822.96,8.3,,,1.0,6.0,,KMHS,3540,-122.31702,41.31494
184,101964.11,NNW,,28.92,101820.0,100988.73,234.0,Haze,,,,2.0,89572.62,,KMHS 062156Z AUTO 34005KT 2SM HZ OVC023 31/08 A3011 RMK AO2 SLP182  T03060078,,24.15,2.57,30.6,,2018-08-06 21:56:00,7.89,701.04,7.8,,,1.0,6.0,340.0,KMHS,3540,-122.31702,41.31494
185,101930.25,WNW,,28.32,101780.0,100978.97,264.0,Haze,,,,2.5,89542.88,,KMHS 062256Z AUTO 29005KT 2 1/2SM HZ OVC026 30/06 A3010 RMK AO2  SLP178 T03000061,,22.24,2.57,30.0,,2018-08-06 22:56:00,6.19,792.48,6.1,,,1.0,6.0,290.0,KMHS,3540,-122.31702,41.31494
186,101862.52,,,27.83,101740.0,100935.68,294.0,Haze,23.9,,,2.5,89483.38,8012.0,KMHS 062356Z AUTO VRB03KT 2 1/2SM HZ OVC029 29/06 A3008 RMK AO2  SLP174 T02940056 10306 20239 58012,,22.24,1.54,29.4,30.6,2018-08-06 23:56:00,5.68,883.92,5.6,,,1.0,6.0,,KMHS,3540,-122.31702,41.31494
187,101862.52,,,27.88,,100935.64,293.0,Haze,,,,3.0,89483.38,,KMHS 070018Z AUTO VRB03KT 3SM HZ BKN029 OVC038 29/06 A3008 RMK AO2  T02940056,384.0,23.4,1.54,29.4,,2018-08-07 00:18:00,6.41,883.92,5.6,,,1.0,6.0,,KMHS,3540,-122.31702,41.31494
188,101862.52,,,27.5,,100955.55,304.0,Haze,,,,3.0,89483.38,,SPECI KMHS 070043Z AUTO VRB03KT 3SM HZ OVC030 29/06 A3008 RMK AO2 T02890061,,23.69,1.54,28.9,,2018-08-07 00:43:00,6.16,914.4,6.1,,,1.0,6.0,,KMHS,3540,-122.31702,41.31494
189,101828.66,N,,27.5,101720.0,100921.99,304.0,Haze,,,,3.0,89453.64,,KMHS 070056Z AUTO 00000KT 3SM HZ OVC030 29/06 A3007 RMK AO2 SLP172  T02890061,,23.69,0.0,28.9,,2018-08-07 00:56:00,6.16,914.4,6.1,,,1.0,6.0,0.0,KMHS,3540,-122.31702,41.31494
190,101828.66,,,26.52,,100990.04,314.0,Haze,,,,2.5,89453.64,,SPECI KMHS 070144Z AUTO VRB03KT 2 1/2SM HZ OVC031 27/08 A3007 RMK AO2 T02720078,,29.39,1.54,27.2,,2018-08-07 01:44:00,7.83,944.88,7.8,,,1.0,6.0,,KMHS,3540,-122.31702,41.31494
191,101828.66,N,,26.52,101730.0,100990.04,314.0,Haze,,,,3.0,89453.64,,KMHS 070156Z AUTO 00000KT 3SM HZ OVC031 27/08 A3007 RMK AO2 SLP173  T02720078,,29.39,0.0,27.2,,2018-08-07 01:56:00,7.83,944.88,7.8,,,1.0,6.0,0.0,KMHS,3540,-122.31702,41.31494
192,101862.52,,,,101750.0,101113.06,314.0,Haze,,,,3.0,89483.38,5001.0,KMHS 070256Z AUTO VRB04KT 3SM HZ OVC031 25/07 A3008 RMK AO2 SLP175  T02500072 55001,,32.12,2.06,25.0,,2018-08-07 02:56:00,7.2,944.88,7.2,,,1.0,6.0,,KMHS,3540,-122.31702,41.31494
193,101862.52,NNW,,,,101088.56,314.0,Haze,,,,2.5,89483.38,,SPECI KMHS 070308Z AUTO 33003KT 2 1/2SM HZ OVC031 26/07 A3008 RMK AO2 T02560067,,29.95,1.54,25.6,,2018-08-07 03:08:00,6.71,944.88,6.7,,,1.0,6.0,330.0,KMHS,3540,-122.31702,41.31494
194,101896.38,N,,,,101191.88,324.0,Haze,,,,3.0,89513.13,,SPECI KMHS 070339Z AUTO 35004KT 3SM HZ OVC032 24/08 A3009 RMK AO2 T02390078,,35.73,2.06,23.9,,2018-08-07 03:39:00,7.78,975.36,7.8,,,1.0,6.0,350.0,KMHS,3540,-122.31702,41.31494
195,101930.25,,,,101770.0,101225.49,364.0,Haze,,,,3.0,89542.88,,KMHS 070356Z AUTO VRB04KT 3SM HZ OVC036 24/08 A3010 RMK AO2 SLP177  T02390083,,36.97,2.06,23.9,,2018-08-07 03:56:00,8.28,1097.28,8.3,,,1.0,6.0,,KMHS,3540,-122.31702,41.31494
196,101997.98,NNW,,,101820.0,101317.6,324.0,Haze,,,,3.0,89602.38,,KMHS 070456Z AUTO 34005KT 3SM HZ OVC032 23/08 A3012 RMK AO2 SLP182  T02330083,,38.33,2.57,23.3,,2018-08-07 04:56:00,8.28,975.36,8.3,,,1.0,6.0,340.0,KMHS,3540,-122.31702,41.31494
197,101964.11,N,,,101790.0,101304.76,344.0,Haze,22.8,,,3.0,89572.62,10.0,KMHS 070556Z AUTO 35003KT 3SM HZ OVC034 23/08 A3011 RMK AO2 SLP179  T02280078 10300 20228 50010,,38.18,1.54,22.8,30.0,2018-08-07 05:56:00,7.77,1036.32,7.8,,,1.0,6.0,350.0,KMHS,3540,-122.31702,41.31494
198,101964.11,,,,101760.0,101304.76,374.0,Haze,,,,3.0,89572.62,,KMHS 070656Z AUTO VRB05KT 3SM HZ OVC037 23/08 A3011 RMK AO2 SLP176  T02280078,,38.18,2.57,22.8,,2018-08-07 06:56:00,7.77,1127.76,7.8,,,1.0,6.0,,KMHS,3540,-122.31702,41.31494
199,101964.11,N,,,101770.0,101422.45,374.0,Haze,,30.6,,3.0,89572.62,,KMHS 070756Z AUTO 00000KT 3SM HZ OVC037 20/09 A3011 RMK AO2 SLP177  T02000089 403060111,,48.82,0.0,20.0,,2018-08-07 07:56:00,8.86,1127.76,8.9,11.1,,1.0,6.0,0.0,KMHS,3540,-122.31702,41.31494
200,101930.25,N,,,101740.0,101461.41,364.0,Haze,,,,3.0,89542.88,8003.0,KMHS 070856Z AUTO 00000KT 3SM HZ OVC036 18/09 A3010 RMK AO2 SLP174  T01830089 58003,,54.27,0.0,18.3,,2018-08-07 08:56:00,8.85,1097.28,8.9,,,1.0,6.0,0.0,KMHS,3540,-122.31702,41.31494
201,101930.25,N,,,101720.0,101508.88,354.0,Haze,,,,2.5,89542.88,,KMHS 070956Z AUTO 00000KT 2 1/2SM HZ OVC035 17/09 A3010 RMK AO2  SLP172 T01720089,,58.16,0.0,17.2,,2018-08-07 09:56:00,8.85,1066.8,8.9,,,1.0,6.0,0.0,KMHS,3540,-122.31702,41.31494
202,101896.38,N,,,101690.0,101475.15,354.0,Haze,,,,2.5,89513.13,,KMHS 071056Z AUTO 00000KT 2 1/2SM HZ OVC035 17/09 A3009 RMK AO2  SLP169 T01720089,,58.16,0.0,17.2,,2018-08-07 10:56:00,8.85,1066.8,8.9,,,1.0,6.0,0.0,KMHS,3540,-122.31702,41.31494
203,101862.52,N,,,,101463.11,344.0,Haze,,,,3.0,89483.38,,SPECI KMHS 071141Z AUTO 00000KT 3SM HZ OVC034 17/09 A3008 RMK AO2 T01670089,,60.03,0.0,16.7,,2018-08-07 11:41:00,8.85,1036.32,8.9,,,1.0,6.0,0.0,KMHS,3540,-122.31702,41.31494
204,101896.38,N,,,101700.0,101544.85,344.0,Haze,15.6,,,3.0,89513.13,6005.0,KMHS 071156Z AUTO 00000KT 3SM HZ OVC034 16/09 A3009 RMK AO2 SLP170  T01560089 10233 20156 56005,,64.38,0.0,15.6,23.3,2018-08-07 11:56:00,8.85,1036.32,8.9,,,1.0,6.0,0.0,KMHS,3540,-122.31702,41.31494
205,101862.52,N,,,,101511.12,344.0,Haze,,,,2.5,89483.38,,KMHS 071210Z AUTO 00000KT 2 1/2SM HZ OVC034 16/09 A3008 RMK AO2 T01560094,,63.18,0.0,15.6,,2018-08-07 12:10:00,8.57,1036.32,9.4,,,1.0,6.0,0.0,KMHS,3540,-122.31702,41.31494
206,101862.52,N,,,,101511.08,344.0,Haze,,,,3.0,89483.38,,KMHS 071230Z AUTO 00000KT 3SM HZ OVC034 16/09 A3008 RMK AO2  T01560094,,66.59,0.0,15.6,,2018-08-07 12:30:00,9.35,1036.32,9.4,,,1.0,6.0,0.0,KMHS,3540,-122.31702,41.31494
207,101896.38,N,,,101730.0,101597.67,344.0,Haze,,,,3.0,89513.13,,KMHS 071256Z AUTO 00000KT 3SM HZ OVC034 14/09 A3009 RMK AO2 SLP173  T01440089,,69.55,0.0,14.4,,2018-08-07 12:56:00,8.85,1036.32,8.9,,,1.0,6.0,0.0,KMHS,3540,-122.31702,41.31494
208,101862.52,N,,,,101586.03,334.0,Haze,,,,2.0,89483.38,,SPECI KMHS 071323Z AUTO 00000KT 2SM HZ OVC033 14/09 A3008 RMK AO2 T01390089,,71.83,0.0,13.9,,2018-08-07 13:23:00,8.86,1005.84,8.9,,,1.0,6.0,0.0,KMHS,3540,-122.31702,41.31494
209,101896.38,N,,,,101597.67,334.0,Haze,,,,1.75,89513.13,,SPECI KMHS 071331Z AUTO 00000KT 1 3/4SM HZ OVC033 14/09 A3009 RMK AO2 T01440089,,69.55,0.0,14.4,,2018-08-07 13:31:00,8.85,1005.84,8.9,,,1.0,6.0,0.0,KMHS,3540,-122.31702,41.31494
210,101896.38,N,,,101760.0,101522.96,324.0,Haze,,,,1.75,89513.13,,KMHS 071356Z AUTO 00000KT 1 3/4SM HZ OVC032 16/09 A3009 RMK AO2  SLP176 T01610094,,64.5,0.0,16.1,,2018-08-07 13:56:00,9.35,975.36,9.4,,,1.0,6.0,0.0,KMHS,3540,-122.31702,41.31494
211,101930.25,N,,,,101508.82,294.0,Haze,,,,1.75,89542.88,,KMHS 071430Z AUTO 00000KT 1 3/4SM HZ OVC029 17/10 A3010 RMK AO2  T01720100,,62.62,0.0,17.2,,2018-08-07 14:30:00,9.96,883.92,10.0,,,1.0,6.0,0.0,KMHS,3540,-122.31702,41.31494
212,101930.25,N,,,,101530.52,284.0,Haze,,,,2.0,89542.88,,SPECI KMHS 071440Z AUTO 00000KT 2SM HZ OVC028 17/10 A3010 RMK AO2 T01670100,,64.63,0.0,16.7,,2018-08-07 14:40:00,9.95,853.44,10.0,,,1.0,6.0,0.0,KMHS,3540,-122.31702,41.31494
213,101930.25,N,,,101760.0,101482.81,274.0,Haze,,,,2.0,89542.88,3003.0,KMHS 071456Z AUTO 00000KT 2SM HZ OVC027 18/11 A3010 RMK AO2 SLP176  T01780111 53003,,64.88,0.0,17.8,,2018-08-07 14:56:00,11.06,822.96,11.1,,,1.0,6.0,0.0,KMHS,3540,-122.31702,41.31494
214,101896.38,N,,,,101354.97,264.0,Haze,,,,1.75,89513.13,,SPECI KMHS 071528Z AUTO 00000KT 1 3/4SM HZ OVC026 20/11 A3009 RMK AO2 T02000111,,56.56,0.0,20.0,,2018-08-07 15:28:00,11.06,792.48,11.1,,,1.0,6.0,0.0,KMHS,3540,-122.31702,41.31494
215,101896.38,,,,101720.0,101308.49,254.0,Haze,,,,1.75,89513.13,,KMHS 071556Z AUTO VRB03KT 1 3/4SM HZ OVC025 21/11 A3009 RMK AO2  SLP172 T02110106,,51.13,1.54,21.1,,2018-08-07 15:56:00,10.56,762.0,10.6,,,1.0,6.0,,KMHS,3540,-122.31702,41.31494
216,101862.52,WNW,,,101670.0,101158.07,244.0,Haze,,,,1.75,89483.38,,KMHS 071656Z AUTO 30003KT 1 3/4SM HZ OVC024 24/11 A3008 RMK AO2  SLP167 T02390111,,44.61,1.54,23.9,,2018-08-07 16:56:00,11.09,731.52,11.1,,,1.0,6.0,300.0,KMHS,3540,-122.31702,41.31494
217,101828.66,,,,101630.0,101034.38,223.0,Haze,13.9,,,1.75,89453.64,8007.0,KMHS 071756Z AUTO VRB05KT 1 3/4SM HZ BKN022 OVC028 26/11 A3007 RMK AO2 SLP163 T02610111 10261 20139 58007,284.0,39.14,2.57,26.1,26.1,2018-08-07 17:56:00,11.11,670.56,11.1,,,1.0,6.0,,KMHS,3540,-122.31702,41.31494
218,101794.79,NW,,27.37,101560.0,100932.07,214.0,Haze,,,,1.75,89423.88,,KMHS 071856Z AUTO 32004KT 1 3/4SM HZ OVC021 28/12 A3006 RMK AO2  SLP156 T02780122,,38.09,2.06,27.8,,2018-08-07 18:56:00,12.23,640.08,12.2,,,1.0,6.0,320.0,KMHS,3540,-122.31702,41.31494
219,101760.93,,,27.64,,100878.51,224.0,Haze,,,,2.0,89394.14,,KMHS 071915Z AUTO VRB03KT 2SM HZ OVC022 28/12 A3005 RMK AO2  T02830117,,35.8,1.54,28.3,,2018-08-07 19:15:00,11.73,670.56,11.7,,,1.0,6.0,,KMHS,3540,-122.31702,41.31494
220,101693.2,N,,28.37,101460.0,100767.62,213.0,Haze,,,,2.0,89334.64,,KMHS 071956Z AUTO 00000KT 2SM HZ BKN021 OVC027 29/11 A3003 RMK AO2  SLP146 T02940111,274.0,32.29,0.0,29.4,,2018-08-07 19:56:00,11.15,640.08,11.1,,,1.0,6.0,0.0,KMHS,3540,-122.31702,41.31494
221,101625.47,,,30.42,101390.0,100610.06,224.0,Haze,,,,2.0,89275.14,8020.0,KMHS 072056Z AUTO VRB03KT 2SM HZ OVC022 32/12 A3001 RMK AO2 SLP139  T03170117 58020,,29.47,1.54,31.7,,2018-08-07 20:56:00,11.8,670.56,11.7,,,1.0,6.0,,KMHS,3540,-122.31702,41.31494
222,101557.75,N,,30.42,101340.0,100523.72,234.0,Haze,,,,2.5,89215.65,,KMHS 072156Z AUTO 00000KT 2 1/2SM HZ OVC023 32/09 A2999 RMK AO2  SLP134 T03220089,,23.76,0.0,32.2,,2018-08-07 21:56:00,9.02,701.04,8.9,,,1.0,6.0,0.0,KMHS,3540,-122.31702,41.31494
223,101557.75,N,,30.96,,100500.47,272.0,Haze,,,,3.0,89215.65,,KMHS 072230Z AUTO 00000KT 3SM HZ SCT027 33/09 A2999 RMK AO2 T03280094,,22.87,0.0,32.8,,2018-08-07 22:30:00,8.97,,9.4,,,1.0,6.0,0.0,KMHS,3540,-122.31702,41.31494
224,101523.88,N,,31.45,101270.0,100424.85,296.0,Haze,,,,6.0,89185.89,,KMHS 072256Z AUTO 00000KT 6SM HZ FEW029 34/02 A2998 RMK AO2 SLP127  T03390022,,13.57,0.0,33.9,,2018-08-07 22:56:00,2.41,,2.2,,,1.0,6.0,0.0,KMHS,3540,-122.31702,41.31494
225,101490.02,N,,30.99,101260.0,100414.36,1.0,Haze,25.6,,,5.0,89156.15,6013.0,KMHS 072356Z AUTO 00000KT 5SM HZ CLR 33/04 A2997 RMK AO2 SLP126  T03330039 10344 20256 56013,,15.83,0.0,33.3,34.4,2018-08-07 23:56:00,4.08,,3.9,,,1.0,6.0,0.0,KMHS,3540,-122.31702,41.31494
226,101456.15,N,,29.75,101240.0,100442.69,356.0,Haze,,,,4.0,89126.4,,KMHS 080056Z AUTO 00000KT 4SM HZ FEW035 32/07 A2996 RMK AO2 SLP124  T03170067,,21.04,0.0,31.7,,2018-08-08 00:56:00,6.82,,6.7,,,1.0,6.0,0.0,KMHS,3540,-122.31702,41.31494
227,101422.29,N,,27.98,101230.0,100499.35,1.0,Haze,,,,4.0,89096.65,,KMHS 080156Z AUTO 00000KT 4SM HZ CLR 29/08 A2995 RMK AO2 SLP123  T02940078,,25.87,0.0,29.4,,2018-08-08 01:56:00,7.87,,7.8,,,1.0,6.0,0.0,KMHS,3540,-122.31702,41.31494
228,101456.15,N,,,101310.0,100754.48,1.0,Haze,,,,4.0,89126.4,5002.0,KMHS 080256Z AUTO 00000KT 4SM HZ CLR 24/12 A2996 RMK AO2 SLP131  T02390117 55002,,46.41,0.0,23.9,,2018-08-08 02:56:00,11.68,,11.7,,,1.0,6.0,0.0,KMHS,3540,-122.31702,41.31494
229,101523.88,N,,,101380.0,100938.12,346.0,Haze,,,,5.0,89185.89,,KMHS 080356Z AUTO 00000KT 5SM HZ FEW034 21/11 A2998 RMK AO2 SLP138  T02110106,,51.13,0.0,21.1,,2018-08-08 03:56:00,10.56,,10.6,,,1.0,6.0,0.0,KMHS,3540,-122.31702,41.31494
230,101625.47,E,,,,101039.23,284.0,Haze,,,,4.0,89275.14,,SPECI KMHS 080438Z AUTO 09003KT 4SM HZ OVC028 21/09 A3001 RMK AO2 T02110089,,45.63,1.54,21.1,,2018-08-08 04:38:00,8.86,853.44,8.9,,,1.0,6.0,90.0,KMHS,3540,-122.31702,41.31494
231,101625.47,N,,,101480.0,101111.01,304.0,Haze,,,,4.0,89275.14,,KMHS 080456Z AUTO 00000KT 4SM HZ OVC030 19/10 A3001 RMK AO2 SLP148  T01940100,,54.56,0.0,19.4,,2018-08-08 04:56:00,9.96,914.4,10.0,,,1.0,6.0,0.0,KMHS,3540,-122.31702,41.31494
232,101659.34,N,,,101500.0,101213.32,354.0,Haze,17.8,,,5.0,89304.89,1019.0,KMHS 080556Z AUTO 00000KT 5SM HZ OVC035 18/07 A3002 RMK AO2 SLP150  T01780067 10333 20178 51019,,48.21,0.0,17.8,33.3,2018-08-08 05:56:00,6.64,1066.8,6.7,,,1.0,6.0,0.0,KMHS,3540,-122.31702,41.31494
233,101693.2,ENE,,,101530.0,101294.55,344.0,Haze,,,,5.0,89334.64,,KMHS 080656Z AUTO 06003KT 5SM HZ OVC034 17/07 A3003 RMK AO2 SLP153  T01670072,,53.48,1.54,16.7,,2018-08-08 06:56:00,7.14,1036.32,7.2,,,1.0,6.0,60.0,KMHS,3540,-122.31702,41.31494
234,101693.2,ENE,,,101520.0,101342.46,334.0,Haze,,34.4,,4.0,89334.64,,KMHS 080756Z AUTO 06003KT 4SM HZ OVC033 16/07 A3003 RMK AO2 SLP152  T01560072 403440139,,57.36,1.54,15.6,,2018-08-08 07:56:00,7.14,1005.84,7.2,13.9,,1.0,6.0,60.0,KMHS,3540,-122.31702,41.31494
235,101659.34,N,,,101480.0,101383.46,304.0,Haze,,,,4.0,89304.89,8001.0,KMHS 080856Z AUTO 00000KT 4SM HZ OVC030 14/08 A3002 RMK AO2 SLP148  T01390078 58001,,66.67,0.0,13.9,,2018-08-08 08:56:00,7.75,914.4,7.8,,,1.0,6.0,0.0,KMHS,3540,-122.31702,41.31494
236,101659.34,N,,,101460.0,101383.49,304.0,Haze,,,,4.0,89304.89,,KMHS 080956Z AUTO 00000KT 4SM HZ OVC030 14/07 A3002 RMK AO2 SLP146  T01390072,,64.0,0.0,13.9,,2018-08-08 09:56:00,7.14,914.4,7.2,,,1.0,6.0,0.0,KMHS,3540,-122.31702,41.31494
237,101659.34,N,,,101460.0,101432.38,304.0,Haze,,,,4.0,89304.89,,KMHS 081056Z AUTO 00000KT 4SM HZ OVC030 13/07 A3002 RMK AO2 SLP146  T01280072,,68.75,0.0,12.8,,2018-08-08 10:56:00,7.15,914.4,7.2,,,1.0,6.0,0.0,KMHS,3540,-122.31702,41.31494
238,101693.2,N,,,101490.0,101493.01,314.0,Haze,11.7,,,4.0,89334.64,3001.0,KMHS 081156Z AUTO 00000KT 4SM HZ OVC031 12/07 A3003 RMK AO2 SLP149  T01220072 10183 20117 53001,,71.51,0.0,12.2,18.3,2018-08-08 11:56:00,7.15,944.88,7.2,,,1.0,6.0,0.0,KMHS,3540,-122.31702,41.31494
239,101727.07,N,,,,101580.87,294.0,Haze,,,,5.0,89364.39,,KMHS 081254Z AUTO 00000KT 5SM HZ OVC029 11/07 A3004 RMK AO2,,76.35,0.0,11.0,,2018-08-08 12:54:00,6.96,883.92,7.0,,,1.0,6.0,0.0,KMHS,3540,-122.31702,41.31494
240,101727.07,N,,,101570.0,101576.36,294.0,Haze,,,,5.0,89364.39,,KMHS 081256Z AUTO 00000KT 5SM HZ OVC029 11/07 A3004 RMK AO2 SLP157  T01110067,,74.3,0.0,11.1,,2018-08-08 12:56:00,6.65,883.92,6.7,,,1.0,6.0,0.0,KMHS,3540,-122.31702,41.31494
241,101727.07,N,,,,101576.36,304.0,Haze,,,,5.0,89364.39,,SPECI KMHS 081314Z AUTO 00000KT 5SM HZ OVC030 11/07 A3004 RMK AO2 T01110067,,74.3,0.0,11.1,,2018-08-08 13:14:00,6.65,914.4,6.7,,,1.0,6.0,0.0,KMHS,3540,-122.31702,41.31494
242,101794.79,N,,,101640.0,101616.9,294.0,Haze,,,,4.0,89423.88,,KMHS 081356Z AUTO 00000KT 4SM HZ OVC029 12/07 A3006 RMK AO2 SLP164  T01170067,,71.41,0.0,11.7,,2018-08-08 13:56:00,6.65,883.92,6.7,,,1.0,6.0,0.0,KMHS,3540,-122.31702,41.31494
243,101794.79,N,,,101690.0,101443.54,264.0,Haze,,,,3.0,89423.88,3008.0,KMHS 081456Z AUTO 00000KT 3SM HZ OVC026 16/10 A3006 RMK AO2 SLP169  T01560100 53008,,69.32,0.0,15.6,,2018-08-08 14:56:00,9.96,792.48,10.0,,,1.0,6.0,0.0,KMHS,3540,-122.31702,41.31494
244,101828.66,N,,,101690.0,101241.02,304.0,Haze,,,,3.0,89453.64,,KMHS 081556Z AUTO 00000KT 3SM HZ OVC030 21/13 A3007 RMK AO2 SLP169  T02110128,,59.12,0.0,21.1,,2018-08-08 15:56:00,12.77,914.4,12.8,,,1.0,6.0,0.0,KMHS,3540,-122.31702,41.31494
245,101828.66,N,,,,101149.12,294.0,Haze,,,,3.0,89453.64,,KMHS 081636Z AUTO 00000KT 3SM HZ OVC029 23/13 A3007 RMK AO2 T02330128,,53.36,0.0,23.3,,2018-08-08 16:36:00,13.26,883.92,12.8,,,1.0,6.0,0.0,KMHS,3540,-122.31702,41.31494
246,101828.66,N,,,101650.0,101103.75,294.0,Haze,,,,3.0,89453.64,,KMHS 081656Z AUTO 00000KT 3SM HZ OVC029 24/13 A3007 RMK AO2 SLP165  T02440128,,48.42,0.0,24.4,,2018-08-08 16:56:00,12.79,883.92,12.8,,,1.0,6.0,0.0,KMHS,3540,-122.31702,41.31494
247,101794.79,N,,,,101020.97,304.0,Haze,,,,3.0,89423.88,,KMHS 081715Z AUTO 00000KT 3SM HZ OVC030 26/13 A3006 RMK AO2  T02560133,,46.58,0.0,25.6,,2018-08-08 17:15:00,13.3,914.4,13.3,,,1.0,6.0,0.0,KMHS,3540,-122.31702,41.31494
248,101794.79,N,,27.48,,100924.06,304.0,Haze,,,,2.5,89423.88,,SPECI KMHS 081752Z AUTO 00000KT 2 1/2SM HZ OVC030 28/12 A3006 RMK AO2,,37.16,0.0,28.0,,2018-08-08 17:52:00,12.03,914.4,12.0,,,1.0,6.0,0.0,KMHS,3540,-122.31702,41.31494
249,101794.79,N,,27.64,101610.0,100912.07,304.0,Haze,11.1,,,2.5,89423.88,6003.0,KMHS 081756Z AUTO 00000KT 2 1/2SM HZ OVC030 28/12 A3006 RMK AO2  SLP161 T02830117 10283 20111 56003,,35.8,0.0,28.3,28.3,2018-08-08 17:56:00,11.73,914.4,11.7,,,1.0,6.0,0.0,KMHS,3540,-122.31702,41.31494
250,101794.79,N,,27.56,,100912.11,294.0,Haze,,,,2.5,89423.88,,KMHS 081808Z AUTO 00000KT 2 1/2SM HZ OVC029 28/11 A3006 RMK AO2  T02830111,,34.41,0.0,28.3,,2018-08-08 18:08:00,11.14,883.92,11.1,,,1.0,6.0,0.0,KMHS,3540,-122.31702,41.31494
251,101760.93,N,,28.46,101580.0,100834.7,234.0,Haze,,,,2.5,89394.14,,KMHS 081856Z AUTO 00000KT 2 1/2SM HZ OVC023 29/12 A3005 RMK AO2  SLP158 T02940117,,33.6,0.0,29.4,,2018-08-08 18:56:00,11.75,701.04,11.7,,,1.0,6.0,0.0,KMHS,3540,-122.31702,41.31494
252,101760.93,,,29.98,101580.0,100767.61,244.0,Haze,,,,2.5,89394.14,,KMHS 081956Z AUTO VRB03KT 2 1/2SM HZ OVC024 31/12 A3005 RMK AO2  SLP158 T03110122,,31.51,1.54,31.1,,2018-08-08 19:56:00,12.28,731.52,12.2,,,1.0,6.0,,KMHS,3540,-122.31702,41.31494
253,101760.93,ESE,,30.89,101580.0,100724.67,253.0,Haze,,,,2.5,89394.14,5002.0,KMHS 082056Z AUTO 11004KT 2 1/2SM HZ BKN025 OVC031 32/12 A3005 RMK AO2 SLP158 T03220117 55002,314.0,28.65,2.06,32.2,,2018-08-08 20:56:00,11.81,762.0,11.7,,,1.0,6.0,110.0,KMHS,3540,-122.31702,41.31494
254,101794.79,,,30.77,,100758.22,324.0,Haze,,,,2.0,89423.88,,SPECI KMHS 082143Z AUTO VRB05KT 2SM HZ OVC032 32/11 A3006 RMK AO2 T03220111,,27.53,2.57,32.2,,2018-08-08 21:43:00,11.21,975.36,11.1,,,1.0,6.0,,KMHS,3540,-122.31702,41.31494
255,101794.79,,,30.58,101610.0,100758.28,293.0,Haze,,,,2.0,89423.88,,KMHS 082156Z AUTO VRB03KT 2SM HZ BKN029 OVC035 32/10 A3006 RMK AO2  SLP161 T03220100,354.0,25.59,1.54,32.2,,2018-08-08 21:56:00,10.12,883.92,10.0,,,1.0,6.0,,KMHS,3540,-122.31702,41.31494
256,101794.79,,,31.13,,100734.97,273.0,Haze,,,,1.75,89423.88,,SPECI KMHS 082204Z AUTO 1 3/4SM HZ BKN027 OVC035 33/10 A3006 RMK AO2 T03280100,354.0,24.74,,32.8,,2018-08-08 22:04:00,10.13,822.96,10.0,,,1.0,6.0,,KMHS,3540,-122.31702,41.31494
257,101760.93,N,,30.73,,100701.64,234.0,Haze,,,,2.0,89394.14,,KMHS 082242Z AUTO 00000KT 2SM HZ OVC023 33/07 A3005 RMK AO2  T03280067,,19.78,0.0,32.8,,2018-08-08 22:42:00,6.85,701.04,6.7,,,1.0,6.0,0.0,KMHS,3540,-122.31702,41.31494
258,101760.93,N,,30.77,101580.0,100701.61,254.0,Haze,,,,2.5,89394.14,,KMHS 082256Z AUTO 00000KT 2 1/2SM HZ OVC025 33/07 A3005 RMK AO2  SLP158 T03280072,,20.47,0.0,32.8,,2018-08-08 22:56:00,7.35,762.0,7.2,,,1.0,6.0,0.0,KMHS,3540,-122.31702,41.31494
259,101727.07,,,30.64,,100668.17,244.0,Haze,,,,3.0,89364.39,,SPECI KMHS 082322Z AUTO VRB03KT 3SM HZ OVC024 33/06 A3004 RMK AO2 T03280056,,18.33,1.54,32.8,,2018-08-08 23:22:00,5.76,731.52,5.6,,,1.0,6.0,,KMHS,3540,-122.31702,41.31494
260,101693.2,N,,30.08,101530.0,100657.97,254.0,Haze,28.3,,,3.0,89334.64,8006.0,KMHS 082356Z AUTO 00000KT 3SM HZ OVC025 32/05 A3003 RMK AO2 SLP153  T03220050 10333 20283 58006,,18.19,0.0,32.2,33.3,2018-08-08 23:56:00,5.15,762.0,5.0,,,1.0,6.0,0.0,KMHS,3540,-122.31702,41.31494
261,101693.2,N,,29.17,,100700.89,314.0,Haze,,,,4.0,89334.64,,SPECI KMHS 090029Z AUTO 00000KT 4SM HZ OVC031 31/06 A3003 RMK AO2 T03110056,,20.18,0.0,31.1,,2018-08-09 00:29:00,5.72,944.88,5.6,,,1.0,6.0,0.0,KMHS,3540,-122.31702,41.31494
262,101693.2,N,,28.79,101560.0,100720.49,324.0,Haze,,,,3.0,89334.64,,KMHS 090056Z AUTO 00000KT 3SM HZ OVC032 31/06 A3003 RMK AO2 SLP156  T03060061,,21.49,0.0,30.6,,2018-08-09 00:56:00,6.2,975.36,6.1,,,1.0,6.0,0.0,KMHS,3540,-122.31702,41.31494
263,101693.2,N,,28.36,,100744.11,314.0,Haze,,,,2.5,89334.64,,SPECI KMHS 090107Z AUTO 00000KT 2 1/2SM HZ OVC031 30/07 A3003 RMK AO2 T03000067,,23.18,0.0,30.0,,2018-08-09 01:07:00,6.79,944.88,6.7,,,1.0,6.0,0.0,KMHS,3540,-122.31702,41.31494
264,101693.2,E,,27.57,,100787.69,334.0,Haze,,,,3.0,89334.64,,SPECI KMHS 090146Z AUTO 10004KT 3SM HZ OVC033 29/07 A3003 RMK AO2 T02890072,,25.56,2.06,28.9,,2018-08-09 01:46:00,7.26,1005.84,7.2,,,1.0,6.0,100.0,KMHS,3540,-122.31702,41.31494
265,101727.07,,,27.16,101600.0,100845.18,354.0,Haze,,,,3.0,89364.39,,KMHS 090156Z AUTO VRB03KT 3SM HZ OVC035 28/07 A3004 RMK AO2 SLP160  T02830072,,26.46,1.54,28.3,,2018-08-09 01:56:00,7.25,1066.8,7.2,,,1.0,6.0,,KMHS,3540,-122.31702,41.31494
266,101760.93,N,,,101620.0,100967.39,394.0,Haze,,,,3.0,89394.14,3006.0,KMHS 090256Z AUTO 00000KT 3SM HZ OVC039 26/07 A3005 RMK AO2 SLP162  T02610072 53006,,30.09,0.0,26.1,,2018-08-09 02:56:00,7.21,1188.72,7.2,,,1.0,6.0,0.0,KMHS,3540,-122.31702,41.31494
267,101828.66,N,,,101690.0,101195.14,414.0,Haze,,,,4.0,89453.64,,KMHS 090356Z AUTO 00000KT 4SM HZ OVC041 22/09 A3007 RMK AO2 SLP169  T02220089,,42.66,0.0,22.2,,2018-08-09 03:56:00,8.87,1249.68,8.9,,,1.0,6.0,0.0,KMHS,3540,-122.31702,41.31494
268,101896.38,ENE,,,101740.0,101355.03,464.0,Haze,,,,4.0,89513.13,,KMHS 090456Z AUTO 07003KT 4SM HZ OVC046 20/10 A3009 RMK AO2 SLP174  T02000100,,52.57,1.54,20.0,,2018-08-09 04:56:00,9.96,1402.08,10.0,,,1.0,6.0,70.0,KMHS,3540,-122.31702,41.31494
269,101964.11,N,,,101760.0,101495.11,474.0,Haze,17.8,,,4.0,89572.62,1016.0,KMHS 090556Z AUTO 00000KT 4SM HZ OVC047 18/09 A3011 RMK AO2 SLP176  T01830089 10322 20178 51016,,54.27,0.0,18.3,32.2,2018-08-09 05:56:00,8.85,1432.56,8.9,,,1.0,6.0,0.0,KMHS,3540,-122.31702,41.31494
270,101964.11,N,,,101780.0,101590.46,414.0,Haze,,,,3.0,89572.62,,KMHS 090656Z AUTO 00000KT 3SM HZ OVC041 16/09 A3011 RMK AO2 SLP178  T01610089,,62.36,0.0,16.1,,2018-08-09 06:56:00,8.85,1249.68,8.9,,,1.0,6.0,0.0,KMHS,3540,-122.31702,41.31494
271,101964.11,N,,,101780.0,101612.37,384.0,Haze,,33.3,,3.0,89572.62,,KMHS 090756Z AUTO 00000KT 3SM HZ OVC038 16/08 A3011 RMK AO2 SLP178  T01560083 403330111,,61.82,0.0,15.6,,2018-08-09 07:56:00,8.25,1158.24,8.3,11.1,,1.0,6.0,0.0,KMHS,3540,-122.31702,41.31494
272,101964.11,N,,,101760.0,101665.22,374.0,Haze,,,,3.0,89572.62,0.0,KMHS 090856Z AUTO 00000KT 3SM HZ OVC037 14/08 A3011 RMK AO2 SLP176  T01440083 50000,,66.78,0.0,14.4,,2018-08-09 08:56:00,8.25,1127.76,8.3,,,1.0,6.0,0.0,KMHS,3540,-122.31702,41.31494
273,101930.25,N,,,101760.0,101680.3,374.0,Haze,,,,3.0,89542.88,,KMHS 090956Z AUTO 00000KT 3SM HZ OVC037 13/08 A3010 RMK AO2 SLP176  T01330083,,71.72,0.0,13.3,,2018-08-09 09:56:00,8.25,1127.76,8.3,,,1.0,6.0,0.0,KMHS,3540,-122.31702,41.31494
274,101930.25,N,,,101750.0,101653.58,364.0,Haze,,,,3.0,89542.88,,KMHS 091056Z AUTO 00000KT 3SM HZ OVC036 14/09 A3010 RMK AO2 SLP175  T01390089,,71.83,0.0,13.9,,2018-08-09 10:56:00,8.86,1097.28,8.9,,,1.0,6.0,0.0,KMHS,3540,-122.31702,41.31494
275,101930.25,N,,,101750.0,101680.27,384.0,Haze,12.2,,,2.5,89542.88,6002.0,KMHS 091156Z AUTO 00000KT 2 1/2SM HZ OVC038 13/09 A3010 RMK AO2  SLP175 T01330089 10183 20122 56002,,74.69,0.0,13.3,18.3,2018-08-09 11:56:00,8.86,1158.24,8.9,,,1.0,6.0,0.0,KMHS,3540,-122.31702,41.31494
276,101964.11,N,,,101820.0,101785.8,334.0,Haze,,,,2.5,89572.62,,KMHS 091256Z AUTO 00000KT 2 1/2SM HZ OVC033 12/09 A3011 RMK AO2  SLP182 T01170089,,82.95,0.0,11.7,,2018-08-09 12:56:00,8.87,1005.84,8.9,,,1.0,6.0,0.0,KMHS,3540,-122.31702,41.31494
277,101964.11,N,,,,101763.27,314.0,Haze,,,,1.75,89572.62,,KMHS 091335Z AUTO 00000KT 1 3/4SM HZ OVC031 12/09 A3011 RMK AO2  T01220089,,81.88,0.0,12.2,,2018-08-09 13:35:00,9.16,944.88,8.9,,,1.0,6.0,0.0,KMHS,3540,-122.31702,41.31494
278,101964.11,N,,,101840.0,101763.26,304.0,Haze,,,,1.5,89572.62,,KMHS 091356Z AUTO 00000KT 1 1/2SM HZ OVC030 12/09 A3011 RMK AO2  SLP184 T01220094,,83.02,0.0,12.2,,2018-08-09 13:56:00,9.37,914.4,9.4,,,1.0,6.0,0.0,KMHS,3540,-122.31702,41.31494
279,101964.11,N,,,,101714.01,294.0,Haze,,,,1.5,89572.62,,KMHS 091415Z AUTO 00000KT 1 1/2SM HZ OVC029 13/09 A3011 RMK AO2  T01330094,,77.25,0.0,13.3,,2018-08-09 14:15:00,9.36,883.92,9.4,,,1.0,6.0,0.0,KMHS,3540,-122.31702,41.31494
280,101964.11,N,,,101820.0,101612.21,284.0,Haze,,,,1.5,89572.62,3.0,KMHS 091456Z AUTO 00000KT 1 1/2SM HZ OVC028 16/11 A3011 RMK AO2  SLP182 T01560111 50003,,74.59,0.0,15.6,,2018-08-09 14:56:00,11.06,853.44,11.1,,,1.0,6.0,0.0,KMHS,3540,-122.31702,41.31494
281,101997.98,N,,,101840.0,101430.44,273.0,Haze,,,,1.75,89602.38,,KMHS 091556Z AUTO 00000KT 1 3/4SM HZ BKN027 OVC037 21/13 A3012 RMK AO2 SLP184 T02060133,374.0,62.99,0.0,20.6,,2018-08-09 15:56:00,13.27,822.96,13.3,,,1.0,6.0,0.0,KMHS,3540,-122.31702,41.31494
282,101930.25,N,,,101770.0,101204.54,253.0,Haze,,,,1.5,89542.88,,KMHS 091656Z AUTO 00000KT 1 1/2SM HZ BKN025 OVC032 24/14 A3010 RMK AO2 SLP177 T02440139,324.0,52.02,0.0,24.4,,2018-08-09 16:56:00,13.89,762.0,13.9,,,1.0,6.0,0.0,KMHS,3540,-122.31702,41.31494
283,101930.25,N,,27.91,101730.0,101046.25,233.0,Haze,11.7,,,1.5,89542.88,8004.0,KMHS 091756Z AUTO 00000KT 1 1/2SM HZ BKN023 OVC030 28/13 A3010 RMK AO2 SLP173 T02830133 10283 20117 58004,304.0,39.76,0.0,28.3,28.3,2018-08-09 17:56:00,13.33,701.04,13.3,,,1.0,6.0,0.0,KMHS,3540,-122.31702,41.31494
284,101896.38,N,,29.79,101690.0,100921.34,224.0,Haze,,,,1.5,89513.13,,KMHS 091856Z AUTO 00000KT 1 1/2SM HZ OVC022 31/13 A3009 RMK AO2  SLP169 T03060133,,34.84,0.0,30.6,,2018-08-09 18:56:00,13.37,670.56,13.3,,,1.0,6.0,0.0,KMHS,3540,-122.31702,41.31494
285,101828.66,N,,31.17,,100760.8,224.0,Haze,,,,2.0,89453.64,,KMHS 091951Z AUTO 00000KT 2SM HZ OVC022 33/09 A3007 RMK AO2,,22.87,0.0,33.0,,2018-08-09 19:51:00,9.14,670.56,9.0,,,1.0,6.0,0.0,KMHS,3540,-122.31702,41.31494
286,101828.66,N,,31.51,101630.0,100749.17,224.0,Haze,,,,2.0,89453.64,,KMHS 091956Z AUTO 00000KT 2SM HZ OVC022 33/09 A3007 RMK AO2 SLP163  T03330094,,23.11,0.0,33.3,,2018-08-09 19:56:00,9.54,670.56,9.4,,,1.0,6.0,0.0,KMHS,3540,-122.31702,41.31494
287,101794.79,N,,32.09,101580.0,100692.52,214.0,Haze,,,,2.5,89423.88,8008.0,KMHS 092056Z AUTO 00000KT 2 1/2SM HZ OVC021 34/09 A3006 RMK AO2  SLP158 T03390094 58008,,22.35,0.0,33.9,,2018-08-09 20:56:00,9.56,640.08,9.4,,,1.0,6.0,0.0,KMHS,3540,-122.31702,41.31494
288,101760.93,N,,32.09,101550.0,100659.03,213.0,Haze,,,,2.5,89394.14,,KMHS 092156Z AUTO 00000KT 2 1/2SM HZ BKN021 34/09 A3005 RMK AO2  SLP155 T03390094,,22.35,0.0,33.9,,2018-08-09 21:56:00,9.56,640.08,9.4,,,1.0,6.0,0.0,KMHS,3540,-122.31702,41.31494
289,101760.93,N,,32.78,,100617.01,204.0,Haze,,,,3.0,89394.14,,SPECI KMHS 092211Z AUTO 00000KT 3SM HZ OVC020 35/07 A3005 RMK AO2 T03500067,,17.5,0.0,35.0,,2018-08-09 22:11:00,6.91,609.6,6.7,,,1.0,6.0,0.0,KMHS,3540,-122.31702,41.31494
290,101760.93,N,,32.01,,100659.06,214.0,Haze,,,,2.5,89394.14,,KMHS 092222Z AUTO 00000KT 2 1/2SM HZ OVC021 34/09 A3005 RMK AO2  T03390094,,21.63,0.0,33.9,,2018-08-09 22:22:00,9.08,640.08,9.4,,,1.0,6.0,0.0,KMHS,3540,-122.31702,41.31494
291,101727.07,N,,31.23,101530.0,100648.76,214.0,Haze,,,,2.5,89364.39,,KMHS 092256Z AUTO 00000KT 2 1/2SM HZ OVC021 33/07 A3004 RMK AO2  SLP153 T03330072,,19.9,0.0,33.3,,2018-08-09 22:56:00,7.36,640.08,7.2,,,1.0,6.0,0.0,KMHS,3540,-122.31702,41.31494
292,101727.07,N,,30.08,,100691.48,253.0,Haze,,,,3.0,89364.39,,KMHS 092330Z AUTO 00000KT 3SM HZ BKN025 OVC033 32/05 A3004 RMK AO2  T03220050,334.0,18.39,0.0,32.2,,2018-08-09 23:30:00,5.31,762.0,5.0,,,1.0,6.0,0.0,KMHS,3540,-122.31702,41.31494
293,101727.07,N,,30.15,,100691.44,253.0,Haze,,,,2.5,89364.39,,SPECI KMHS 092341Z AUTO 00000KT 2 1/2SM HZ BKN025 OVC033 32/06 A3004 RMK AO2 T03220061,334.0,19.63,0.0,32.2,,2018-08-09 23:41:00,6.24,762.0,6.1,,,1.0,6.0,0.0,KMHS,3540,-122.31702,41.31494
294,101693.2,N,,29.8,101520.0,100677.35,253.0,Haze,28.3,,,2.0,89334.64,6008.0,KMHS 092356Z AUTO 00000KT 2SM HZ BKN025 OVC034 32/07 A3003 RMK AO2  SLP152 T03170072 10350 20283 56008,344.0,21.78,0.0,31.7,35.0,2018-08-09 23:56:00,7.32,762.0,7.2,,,1.0,6.0,0.0,KMHS,3540,-122.31702,41.31494
295,101693.2,N,,28.87,,100720.44,263.0,Haze,,,,1.75,89334.64,,SPECI KMHS 100026Z AUTO 00000KT 1 3/4SM HZ BKN026 OVC036 31/07 A3003 RMK AO2 T03060072,364.0,23.18,0.0,30.6,,2018-08-10 00:26:00,7.3,792.48,7.2,,,1.0,6.0,0.0,KMHS,3540,-122.31702,41.31494
296,101727.07,N,,28.39,101560.0,100777.64,253.0,Haze,,,,1.25,89364.39,,KMHS 100056Z AUTO 00000KT 1 1/4SM HZ BKN025 OVC032 30/07 A3004 RMK AO2 SLP156 T03000072,324.0,23.99,0.0,30.0,,2018-08-10 00:56:00,7.28,762.0,7.2,,,1.0,6.0,0.0,KMHS,3540,-122.31702,41.31494
297,101693.2,N,,27.24,,100811.56,314.0,Haze,,,,1.25,89334.64,,KMHS 100133Z AUTO 00000KT 1 1/4SM HZ OVC031 28/08 A3003 RMK AO2  T02830078,,28.43,0.0,28.3,,2018-08-10 01:33:00,8.3,944.88,7.8,,,1.0,6.0,0.0,KMHS,3540,-122.31702,41.31494
298,101693.2,,,27.16,101570.0,100811.61,303.0,Haze,,,,1.5,89334.64,,KMHS 100156Z AUTO VRB03KT 1 1/2SM HZ BKN030 OVC036 28/07 A3003 RMK AO2 SLP157 T02830072,364.0,26.46,1.54,28.3,,2018-08-10 01:56:00,7.25,914.4,7.2,,,1.0,6.0,,KMHS,3540,-122.31702,41.31494
299,101727.07,N,,26.76,,100865.25,294.0,Haze,,,,1.75,89364.39,,SPECI KMHS 100223Z AUTO 00000KT 1 3/4SM HZ OVC029 28/06 A3004 RMK AO2 T02780061,,25.25,0.0,27.8,,2018-08-10 02:23:00,6.14,883.92,6.1,,,1.0,6.0,0.0,KMHS,3540,-122.31702,41.31494
300,101760.93,N,,26.64,,100922.97,334.0,Haze,,,,1.75,89394.14,,SPECI KMHS 100243Z AUTO 00000KT 1 3/4SM HZ OVC033 27/06 A3005 RMK AO2 T02720056,,25.27,0.0,27.2,,2018-08-10 02:43:00,5.64,1005.84,5.6,,,1.0,6.0,0.0,KMHS,3540,-122.31702,41.31494
301,101760.93,N,,26.61,101610.0,100923.0,394.0,Haze,,,,1.75,89394.14,3005.0,KMHS 100256Z AUTO 00000KT 1 3/4SM HZ OVC039 27/05 A3005 RMK AO2  SLP161 T02720050 53005,,24.23,0.0,27.2,,2018-08-10 02:56:00,5.04,1188.72,5.0,,,1.0,6.0,0.0,KMHS,3540,-122.31702,41.31494
302,101794.79,N,,,,101070.43,454.0,Haze,,,,2.5,89423.88,,SPECI KMHS 100325Z AUTO 00000KT 2 1/2SM HZ OVC045 24/07 A3006 RMK AO2 T02440072,,33.29,0.0,24.4,,2018-08-10 03:25:00,7.19,1371.6,7.2,,,1.0,6.0,0.0,KMHS,3540,-122.31702,41.31494
303,101828.66,N,,,101690.0,101216.11,414.0,Haze,,,,2.5,89453.64,,KMHS 100356Z AUTO 00000KT 2 1/2SM HZ OVC041 22/08 A3007 RMK AO2  SLP169 T02170078,,40.82,0.0,21.7,,2018-08-10 03:56:00,7.76,1249.68,7.8,,,1.0,6.0,0.0,KMHS,3540,-122.31702,41.31494
304,101896.38,N,,,101740.0,101380.59,374.0,Haze,,,,2.5,89513.13,,KMHS 100456Z AUTO 00000KT 2 1/2SM HZ OVC037 19/09 A3009 RMK AO2  SLP174 T01940094,,52.41,0.0,19.4,,2018-08-10 04:56:00,9.36,1127.76,9.4,,,1.0,6.0,0.0,KMHS,3540,-122.31702,41.31494
305,101930.25,N,,,101750.0,101461.38,424.0,Haze,18.3,,,2.5,89542.88,1016.0,KMHS 100556Z AUTO 00000KT 2 1/2SM HZ OVC042 18/09 A3010 RMK AO2  SLP175 T01830094 10300 20183 51016,,56.13,0.0,18.3,30.0,2018-08-10 05:56:00,9.35,1280.16,9.4,,,1.0,6.0,0.0,KMHS,3540,-122.31702,41.31494
306,101964.11,N,,,101760.0,101564.24,364.0,Haze,,,,2.5,89572.62,,KMHS 100656Z AUTO 00000KT 2 1/2SM HZ OVC036 17/10 A3011 RMK AO2  SLP176 T01670100,,64.63,0.0,16.7,,2018-08-10 06:56:00,9.95,1097.28,10.0,,,1.0,6.0,0.0,KMHS,3540,-122.31702,41.31494
307,101964.11,N,,,101740.0,101590.39,464.0,Haze,,35.0,,2.5,89572.62,,KMHS 100756Z AUTO 00000KT 2 1/2SM HZ OVC046 16/10 A3011 RMK AO2  SLP174 T01610100 403500117,,67.15,0.0,16.1,,2018-08-10 07:56:00,9.96,1402.08,10.0,11.7,,1.0,6.0,0.0,KMHS,3540,-122.31702,41.31494
308,101964.11,N,,,,101564.27,474.0,Haze,,,,3.0,89572.62,,SPECI KMHS 100817Z AUTO 00000KT 3SM HZ OVC047 17/09 A3011 RMK AO2 T01670094,,62.08,0.0,16.7,,2018-08-10 08:17:00,9.35,1432.56,9.4,,,1.0,6.0,0.0,KMHS,3540,-122.31702,41.31494
309,101964.11,N,,,101730.0,101612.28,494.0,Haze,,,,2.5,89572.62,1.0,KMHS 100856Z AUTO 00000KT 2 1/2SM HZ OVC049 16/10 A3011 RMK AO2  SLP173 T01560100 50001,,69.32,0.0,15.6,,2018-08-10 08:56:00,9.96,1493.52,10.0,,,1.0,6.0,0.0,KMHS,3540,-122.31702,41.31494
310,101997.98,N,,,101790.0,101698.94,424.0,Haze,,,,1.75,89602.38,,KMHS 100956Z AUTO 00000KT 1 3/4SM HZ OVC042 14/09 A3012 RMK AO2  SLP179 T01440094,,71.93,0.0,14.4,,2018-08-10 09:56:00,9.36,1280.16,9.4,,,1.0,6.0,0.0,KMHS,3540,-122.31702,41.31494
311,101997.98,N,,,101820.0,101698.94,394.0,Haze,,,,1.75,89602.38,,KMHS 101056Z AUTO 00000KT 1 3/4SM HZ OVC039 14/09 A3012 RMK AO2  SLP182 T01440094,,71.93,0.0,14.4,,2018-08-10 10:56:00,9.36,1188.72,9.4,,,1.0,6.0,0.0,KMHS,3540,-122.31702,41.31494
312,101997.98,ENE,,,,101721.13,284.0,Haze,,,,2.5,89602.38,,KMHS 101148Z AUTO 06003KT 2 1/2SM HZ OVC028 14/09 A3012 RMK AO2  T01390089,,71.83,1.54,13.9,,2018-08-10 11:48:00,8.86,853.44,8.9,,,1.0,6.0,60.0,KMHS,3540,-122.31702,41.31494
313,101997.98,N,,,101830.0,101747.8,264.0,Haze,12.8,,,2.5,89602.38,5.0,KMHS 101156Z AUTO 00000KT 2 1/2SM HZ OVC026 13/09 A3012 RMK AO2  SLP183 T01330094 10183 20128 50005,,77.25,0.0,13.3,18.3,2018-08-10 11:56:00,9.36,792.48,9.4,,,1.0,6.0,0.0,KMHS,3540,-122.31702,41.31494
314,101997.98,N,,,,101747.83,304.0,Haze,,,,2.0,89602.38,,KMHS 101229Z AUTO 00000KT 2SM HZ OVC030 13/09 A3012 RMK AO2  T01330089,,74.69,0.0,13.3,,2018-08-10 12:29:00,8.86,914.4,8.9,,,1.0,6.0,0.0,KMHS,3540,-122.31702,41.31494
315,102031.84,N,,,101880.0,101830.88,324.0,Haze,,,,2.0,89632.12,,KMHS 101256Z AUTO 00000KT 2SM HZ OVC032 12/09 A3013 RMK AO2 SLP188  T01220089,,80.27,0.0,12.2,,2018-08-10 12:56:00,8.87,975.36,8.9,,,1.0,6.0,0.0,KMHS,3540,-122.31702,41.31494
316,102031.84,N,,,,101830.88,264.0,Haze,,,,2.0,89632.12,,SPECI KMHS 101308Z AUTO 00000KT 2SM HZ OVC026 12/09 A3013 RMK AO2 T01220089,,80.27,0.0,12.2,,2018-08-10 13:08:00,8.87,792.48,8.9,,,1.0,6.0,0.0,KMHS,3540,-122.31702,41.31494
317,102031.84,N,,,,101804.01,303.0,Haze,,,,1.75,89632.12,,KMHS 101327Z AUTO 00000KT 1 3/4SM HZ BKN030 OVC036 13/08 A3013 RMK AO2 T01280083,364.0,71.66,0.0,12.8,,2018-08-10 13:27:00,7.76,914.4,8.3,,,1.0,6.0,0.0,KMHS,3540,-122.31702,41.31494
318,102031.84,N,,,,101803.99,344.0,Haze,,,,1.0,89632.12,,SPECI KMHS 101340Z AUTO 00000KT 1SM HZ OVC034 13/08 A3013 RMK AO2 T01280083,,74.1,0.0,12.8,,2018-08-10 13:40:00,8.26,1036.32,8.3,,,1.0,6.0,0.0,KMHS,3540,-122.31702,41.31494
319,102031.84,N,,,101910.0,101830.92,324.0,Haze,,,,1.0,89632.12,,KMHS 101356Z AUTO 00000KT 1SM HZ OVC032 12/08 A3013 RMK AO2 SLP191  T01220083,,77.07,0.0,12.2,,2018-08-10 13:56:00,8.26,975.36,8.3,,,1.0,6.0,0.0,KMHS,3540,-122.31702,41.31494
320,102065.7,N,,,,101815.39,283.0,Haze,,,,1.0,89661.87,,SPECI KMHS 101434Z AUTO 00000KT 1SM HZ BKN028 OVC039 13/09 A3014 RMK AO2 T01330089,394.0,74.69,0.0,13.3,,2018-08-10 14:34:00,8.86,853.44,8.9,,,1.0,6.0,0.0,KMHS,3540,-122.31702,41.31494
321,102065.7,N,,,,101788.64,263.0,Haze,,,,0.75,89661.87,,SPECI KMHS 101449Z AUTO 00000KT 3/4SM HZ BKN026 OVC039 14/09 A3014 RMK AO2 T01390094,394.0,74.3,0.0,13.9,,2018-08-10 14:49:00,9.36,792.48,9.4,,,1.0,6.0,0.0,KMHS,3540,-122.31702,41.31494
322,102065.7,N,,,101950.0,101788.64,263.0,Haze,,,,0.75,89661.87,3007.0,KMHS 101456Z AUTO 00000KT 3/4SM HZ BKN026 OVC039 14/09 A3014 RMK AO2 SLP195 T01390094 53007,394.0,74.3,0.0,13.9,,2018-08-10 14:56:00,9.36,792.48,9.4,,,1.0,6.0,0.0,KMHS,3540,-122.31702,41.31494
323,102065.7,N,,,101940.0,101548.91,273.0,Haze,,,,0.75,89661.87,,KMHS 101556Z AUTO 00000KT 3/4SM HZ BKN027 OVC035 19/12 A3014 RMK AO2 SLP194 T01940117,354.0,61.08,0.0,19.4,,2018-08-10 15:56:00,11.66,822.96,11.7,,,1.0,6.0,0.0,KMHS,3540,-122.31702,41.31494
324,102065.7,N,,,,101476.69,303.0,Haze,,,,0.75,89661.87,,SPECI KMHS 101627Z AUTO 00000KT 3/4SM HZ BKN030 OVC036 21/13 A3014 RMK AO2 T02110128,364.0,59.12,0.0,21.1,,2018-08-10 16:27:00,12.77,914.4,12.8,,,1.0,6.0,0.0,KMHS,3540,-122.31702,41.31494
325,102065.7,N,,,,101430.44,303.0,Haze,,,,1.0,89661.87,,KMHS 101635Z AUTO 00000KT 1SM HZ BKN030 OVC036 22/13 A3014 RMK AO2 T02220128,364.0,56.7,0.0,22.2,,2018-08-10 16:35:00,13.16,914.4,12.8,,,1.0,6.0,0.0,KMHS,3540,-122.31702,41.31494
326,102065.7,N,,,,101430.51,263.0,Haze,,,,1.0,89661.87,,KMHS 101647Z AUTO 00000KT 1SM HZ BKN026 OVC036 22/12 A3014 RMK AO2 T02220117,364.0,53.1,0.0,22.2,,2018-08-10 16:47:00,12.16,792.48,11.7,,,1.0,6.0,0.0,KMHS,3540,-122.31702,41.31494
327,102065.7,N,364.0,,101910.0,101384.68,232.0,Haze,,,,1.0,89661.87,,KMHS 101656Z AUTO 00000KT 1SM HZ SCT023 BKN030 OVC036 23/12 A3014 RMK AO2 SLP191 T02330117,303.0,48.12,0.0,23.3,,2018-08-10 16:56:00,11.68,914.4,11.7,,,1.0,6.0,0.0,KMHS,3540,-122.31702,41.31494
328,102031.84,N,,,,101235.83,263.0,Haze,,,,1.5,89632.12,,KMHS 101744Z AUTO 00000KT 1 1/2SM HZ BKN026 OVC037 26/13 A3013 RMK AO2 T02610133,374.0,45.22,0.0,26.1,,2018-08-10 17:44:00,13.3,792.48,13.3,,,1.0,6.0,0.0,KMHS,3540,-122.31702,41.31494
329,102031.84,N,,27.64,101840.0,101147.06,263.0,Haze,11.7,,,1.5,89632.12,8005.0,KMHS 101756Z AUTO 00000KT 1 1/2SM HZ BKN026 OVC035 28/12 A3013 RMK AO2 SLP184 T02830117 10283 20117 58005,354.0,35.8,0.0,28.3,28.3,2018-08-10 17:56:00,11.73,792.48,11.7,,,1.0,6.0,0.0,KMHS,3540,-122.31702,41.31494
330,102031.84,N,,27.92,,101123.13,353.0,Haze,,,,1.75,89632.12,,SPECI KMHS 101816Z AUTO 00000KT 1 3/4SM HZ BKN035 OVC044 29/11 A3013 RMK AO2 T02890106,444.0,32.15,0.0,28.9,,2018-08-10 18:16:00,10.65,1066.8,10.6,,,1.0,6.0,0.0,KMHS,3540,-122.31702,41.31494
331,102031.84,N,,27.84,,101123.16,384.0,Haze,,,,2.0,89632.12,,KMHS 101829Z AUTO 00000KT 2SM HZ OVC038 29/10 A3013 RMK AO2  T02890100,,30.89,0.0,28.9,,2018-08-10 18:29:00,10.05,1158.24,10.0,,,1.0,6.0,0.0,KMHS,3540,-122.31702,41.31494
332,101997.98,N,,27.99,101820.0,101089.54,306.0,Haze,,,,2.5,89602.38,,KMHS 101856Z AUTO 00000KT 2 1/2SM HZ FEW030 OVC038 29/11 A3012 RMK AO2 SLP182 T02890111,384.0,33.23,0.0,28.9,,2018-08-10 18:56:00,11.14,1158.24,11.1,,,1.0,6.0,0.0,KMHS,3540,-122.31702,41.31494
333,101964.11,N,,29.69,101770.0,100968.9,344.0,Haze,,,,2.5,89572.62,,KMHS 101956Z AUTO 00000KT 2 1/2SM HZ OVC034 31/11 A3011 RMK AO2  SLP177 T03110106,,28.34,0.0,31.1,,2018-08-10 19:56:00,10.69,1036.32,10.6,,,1.0,6.0,0.0,KMHS,3540,-122.31702,41.31494
334,101930.25,,,30.12,,100911.89,283.0,Haze,,,,2.5,89542.88,,KMHS 102028Z AUTO VRB03KT 2 1/2SM HZ BKN028 OVC035 32/10 A3010 RMK AO2 T03170100,354.0,26.32,1.54,31.7,,2018-08-10 20:28:00,10.1,853.44,10.0,,,1.0,6.0,,KMHS,3540,-122.31702,41.31494
335,101930.25,N,,30.49,101730.0,100892.4,254.0,Haze,,,,2.0,89542.88,8009.0,KMHS 102056Z AUTO 00000KT 2SM HZ OVC025 32/09 A3010 RMK AO2 SLP173  T03220094 58009,,24.58,0.0,32.2,,2018-08-10 20:56:00,9.52,762.0,9.4,,,1.0,6.0,0.0,KMHS,3540,-122.31702,41.31494
336,101896.38,N,,30.6,,100858.84,273.0,Haze,,,,1.75,89513.13,,KMHS 102117Z AUTO 00000KT 1 3/4SM HZ BKN027 OVC035 32/10 A3009 RMK AO2 T03220100,354.0,25.88,0.0,32.2,,2018-08-10 21:17:00,10.28,822.96,10.0,,,1.0,6.0,0.0,KMHS,3540,-122.31702,41.31494
337,101862.52,,,30.35,101680.0,100825.41,263.0,Haze,,,,1.5,89483.38,,KMHS 102156Z AUTO VRB03KT 1 1/2SM HZ BKN026 OVC036 32/08 A3008 RMK AO2 SLP168 T03220083,364.0,22.82,1.54,32.2,,2018-08-10 21:56:00,8.43,792.48,8.3,,,1.0,6.0,,KMHS,3540,-122.31702,41.31494
338,101862.52,N,,30.42,,100825.38,253.0,Haze,,,,1.25,89483.38,,SPECI KMHS 102209Z AUTO 00000KT 1 1/4SM HZ BKN025 OVC034 32/09 A3008 RMK AO2 T03220089,344.0,23.76,0.0,32.2,,2018-08-10 22:09:00,9.02,762.0,8.9,,,1.0,6.0,0.0,KMHS,3540,-122.31702,41.31494
339,101828.66,N,,30.84,101640.0,100768.61,233.0,Haze,,,,1.25,89453.64,,KMHS 102256Z AUTO 00000KT 1 1/4SM HZ BKN023 OVC033 33/08 A3007 RMK AO2 SLP164 T03280078,334.0,21.32,0.0,32.8,,2018-08-10 22:56:00,7.94,701.04,7.8,,,1.0,6.0,0.0,KMHS,3540,-122.31702,41.31494
340,101828.66,,,29.85,,100811.43,234.0,Haze,,,,1.5,89453.64,,KMHS 102336Z AUTO VRB03KT 1 1/2SM HZ OVC023 32/08 A3007 RMK AO2  T03170078,,22.69,1.54,31.7,,2018-08-10 23:36:00,7.92,701.04,7.8,,,1.0,6.0,,KMHS,3540,-122.31702,41.31494
341,101828.66,,,29.85,101640.0,100811.43,244.0,Haze,28.3,,,1.5,89453.64,6009.0,KMHS 102356Z AUTO VRB03KT 1 1/2SM HZ OVC024 32/08 A3007 RMK AO2  SLP164 T03170078 10328 20283 56009,,22.69,1.54,31.7,32.8,2018-08-10 23:56:00,7.92,731.52,7.8,,,1.0,6.0,,KMHS,3540,-122.31702,41.31494
342,101794.79,N,,28.39,101670.0,100844.72,263.0,Haze,,,,2.0,89423.88,,KMHS 110056Z AUTO 00000KT 2SM HZ BKN026 OVC036 30/07 A3006 RMK AO2  SLP167 T03000072,364.0,23.99,0.0,30.0,,2018-08-11 00:56:00,7.28,792.48,7.2,,,1.0,6.0,0.0,KMHS,3540,-122.31702,41.31494
343,101794.79,,,27.98,,100868.46,324.0,Haze,,,,2.5,89423.88,,SPECI KMHS 110131Z AUTO VRB03KT 2 1/2SM HZ OVC032 29/08 A3006 RMK AO2 T02940078,,25.87,1.54,29.4,,2018-08-11 01:31:00,7.87,975.36,7.8,,,1.0,6.0,,KMHS,3540,-122.31702,41.31494
344,101828.66,N,,27.62,101680.0,100921.91,403.0,Haze,,,,2.5,89453.64,,KMHS 110156Z AUTO 00000KT 2 1/2SM HZ BKN040 OVC050 29/08 A3007 RMK AO2 SLP168 T02890078,504.0,26.62,0.0,28.9,,2018-08-11 01:56:00,7.86,1219.2,7.8,,,1.0,6.0,0.0,KMHS,3540,-122.31702,41.31494
345,101794.79,N,,,101690.0,101000.89,354.0,Haze,,,,2.5,89423.88,6001.0,KMHS 110256Z AUTO 00000KT 2 1/2SM HZ OVC035 26/09 A3006 RMK AO2  SLP169 T02610089 56001,,33.78,0.0,26.1,,2018-08-11 02:56:00,8.91,1066.8,8.9,,,1.0,6.0,0.0,KMHS,3540,-122.31702,41.31494
346,101828.66,N,,,,101124.55,374.0,Haze,,,,3.0,89453.64,,KMHS 110329Z AUTO 00000KT 3SM HZ OVC037 24/09 A3007 RMK AO2  T02390094,,39.82,0.0,23.9,,2018-08-11 03:29:00,9.38,1127.76,9.4,,,1.0,6.0,0.0,KMHS,3540,-122.31702,41.31494
347,101862.52,N,,,101700.0,101228.72,344.0,Haze,,,,3.0,89483.38,,KMHS 110356Z AUTO 00000KT 3SM HZ OVC034 22/10 A3008 RMK AO2 SLP170  T02220100,,45.94,0.0,22.2,,2018-08-11 03:56:00,9.97,1036.32,10.0,,,1.0,6.0,0.0,KMHS,3540,-122.31702,41.31494
348,101862.52,N,,,101700.0,101295.94,604.0,Haze,,,,3.0,89483.38,,KMHS 110456Z AUTO 00000KT 3SM HZ OVC060 21/10 A3008 RMK AO2 SLP170  T02060100,,50.66,0.0,20.6,,2018-08-11 04:56:00,9.96,1828.8,10.0,,,1.0,6.0,0.0,KMHS,3540,-122.31702,41.31494
349,101896.38,N,,,101700.0,101427.64,604.0,Haze,18.3,,,4.0,89513.13,1007.0,KMHS 110556Z AUTO 00000KT 4SM HZ OVC060 18/10 A3009 RMK AO2 SLP170  T01830100 10317 20183 51007,,58.43,0.0,18.3,31.7,2018-08-11 05:56:00,9.95,1828.8,10.0,,,1.0,6.0,0.0,KMHS,3540,-122.31702,41.31494
350,101862.52,N,,,101690.0,101441.43,404.0,Haze,,,,4.0,89483.38,,KMHS 110656Z AUTO 00000KT 4SM HZ OVC040 17/09 A3008 RMK AO2 SLP169  T01720089,,58.16,0.0,17.2,,2018-08-11 06:56:00,8.85,1219.2,8.9,,,1.0,6.0,0.0,KMHS,3540,-122.31702,41.31494
351,101828.66,N,,,101640.0,101477.37,454.0,Haze,,32.8,,4.0,89453.64,,KMHS 110756Z AUTO 00000KT 4SM HZ OVC045 16/09 A3007 RMK AO2 SLP164  T01560089 403280117,,64.38,0.0,15.6,,2018-08-11 07:56:00,8.85,1371.6,8.9,11.7,,1.0,6.0,0.0,KMHS,3540,-122.31702,41.31494
352,101828.66,N,,,101640.0,101530.18,444.0,Haze,,,,4.0,89453.64,5006.0,KMHS 110856Z AUTO 00000KT 4SM HZ OVC044 14/08 A3007 RMK AO2 SLP164  T01440083 55006,,66.78,0.0,14.4,,2018-08-11 08:56:00,8.25,1341.12,8.3,,,1.0,6.0,0.0,KMHS,3540,-122.31702,41.31494
353,101828.66,N,,,,101530.2,434.0,Haze,,,,2.5,89453.64,,SPECI KMHS 110935Z AUTO 00000KT 2 1/2SM HZ OVC043 14/08 A3007 RMK AO2 T01440078,,64.55,0.0,14.4,,2018-08-11 09:35:00,7.75,1310.64,7.8,,,1.0,6.0,0.0,KMHS,3540,-122.31702,41.31494
354,101828.66,N,,,101630.0,101578.99,394.0,Haze,,,,2.5,89453.64,,KMHS 110956Z AUTO 00000KT 2 1/2SM HZ OVC039 13/08 A3007 RMK AO2  SLP163 T01330078,,69.32,0.0,13.3,,2018-08-11 09:56:00,7.75,1188.72,7.8,,,1.0,6.0,0.0,KMHS,3540,-122.31702,41.31494
355,101828.66,N,,,,101578.99,374.0,Haze,,,,3.0,89453.64,,SPECI KMHS 111010Z AUTO 00000KT 3SM HZ OVC037 13/08 A3007 RMK AO2 T01330078,,69.32,0.0,13.3,,2018-08-11 10:10:00,7.75,1127.76,7.8,,,1.0,6.0,0.0,KMHS,3540,-122.31702,41.31494
356,101828.66,N,,,101650.0,101601.33,364.0,Haze,,,,3.0,89453.64,,KMHS 111056Z AUTO 00000KT 3SM HZ OVC036 13/07 A3007 RMK AO2 SLP165  T01280072,,68.75,0.0,12.8,,2018-08-11 10:56:00,7.15,1097.28,7.2,,,1.0,6.0,0.0,KMHS,3540,-122.31702,41.31494
357,101828.66,N,,,,101552.38,384.0,Haze,,,,2.5,89453.64,,SPECI KMHS 111123Z AUTO 00000KT 2 1/2SM HZ OVC038 14/07 A3007 RMK AO2 T01390067,,61.84,0.0,13.9,,2018-08-11 11:23:00,6.64,1158.24,6.7,,,1.0,6.0,0.0,KMHS,3540,-122.31702,41.31494
358,101828.66,N,,,101650.0,101530.29,334.0,Haze,12.2,,,2.0,89453.64,3001.0,KMHS 111156Z AUTO 00000KT 2SM HZ OVC033 14/06 A3007 RMK AO2 SLP165  T01440061 10183 20122 53001,,57.45,0.0,14.4,18.3,2018-08-11 11:56:00,6.04,1005.84,6.1,,,1.0,6.0,0.0,KMHS,3540,-122.31702,41.31494
359,101896.38,ENE,,,101730.0,101668.92,413.0,Haze,,,,2.0,89513.13,,KMHS 111256Z AUTO 06003KT 2SM HZ BKN041 OVC050 13/07 A3009 RMK AO2  SLP173 T01280067,504.0,66.43,1.54,12.8,,2018-08-11 12:56:00,6.64,1249.68,6.7,,,1.0,6.0,60.0,KMHS,3540,-122.31702,41.31494
360,101930.25,ENE,,,101790.0,101702.74,414.0,Haze,,,,1.25,89542.88,,KMHS 111356Z AUTO 06003KT 1 1/4SM HZ OVC041 13/06 A3010 RMK AO2  SLP179 T01280061,,63.74,1.54,12.8,,2018-08-11 13:56:00,6.04,1249.68,6.1,,,1.0,6.0,60.0,KMHS,3540,-122.31702,41.31494
361,101930.25,ENE,,,,101702.74,434.0,Haze,,,,1.5,89542.88,,SPECI KMHS 111413Z AUTO 06004KT 1 1/2SM HZ OVC043 13/06 A3010 RMK AO2 T01280061,,63.74,2.06,12.8,,2018-08-11 14:13:00,6.04,1310.64,6.1,,,1.0,6.0,60.0,KMHS,3540,-122.31702,41.31494
362,101964.11,ENE,,,101830.0,101665.28,394.0,Haze,,,,1.5,89572.62,2011.0,KMHS 111456Z AUTO 06003KT 1 1/2SM HZ OVC039 14/07 A3011 RMK AO2  SLP183 T01440072 52011,,61.96,1.54,14.4,,2018-08-11 14:56:00,7.14,1188.72,7.2,,,1.0,6.0,60.0,KMHS,3540,-122.31702,41.31494
363,101964.11,ENE,,,,101612.4,354.0,Haze,,,,2.0,89572.62,,KMHS 111514Z AUTO 06003KT 2SM HZ OVC035 16/08 A3011 RMK AO2  T01560078,,59.76,1.54,15.6,,2018-08-11 15:14:00,7.74,1066.8,7.8,,,1.0,6.0,60.0,KMHS,3540,-122.31702,41.31494
364,101964.11,N,,,,101495.09,294.0,Haze,,,,2.0,89572.62,,KMHS 111545Z AUTO 00000KT 2SM HZ OVC029 18/09 A3011 RMK AO2  T01830094,,55.67,0.0,18.3,,2018-08-11 15:45:00,9.23,883.92,9.4,,,1.0,6.0,0.0,KMHS,3540,-122.31702,41.31494
365,101964.11,N,,,101830.0,101422.43,274.0,Haze,,,,3.0,89572.62,,KMHS 111556Z AUTO 36003KT 3SM HZ OVC027 20/09 A3011 RMK AO2 SLP183  T02000094,,50.49,1.54,20.0,,2018-08-11 15:56:00,9.36,822.96,9.4,,,1.0,6.0,360.0,KMHS,3540,-122.31702,41.31494
366,101997.98,,,,101840.0,101363.49,264.0,Haze,,,,6.0,89602.38,,KMHS 111656Z AUTO VRB05KT 6SM HZ OVC026 22/07 A3012 RMK AO2 SLP184  T02220072,,38.01,2.57,22.2,,2018-08-11 16:56:00,7.17,792.48,7.2,,,1.0,6.0,,KMHS,3540,-122.31702,41.31494
367,101997.98,,,,101840.0,101272.15,224.0,Haze,12.2,,,4.0,89602.38,1002.0,KMHS 111756Z AUTO VRB03KT 4SM HZ OVC022 24/08 A3012 RMK AO2 SLP184  T02440078 10244 20122 51002,,34.68,1.54,24.4,24.4,2018-08-11 17:56:00,7.79,670.56,7.8,,,1.0,6.0,,KMHS,3540,-122.31702,41.31494
368,101964.11,W,,,,101189.32,254.0,Haze,,,,2.5,89572.62,,SPECI KMHS 111840Z AUTO 28003KT 2 1/2SM HZ OVC025 26/08 A3011 RMK AO2 T02560078,,32.29,1.54,25.6,,2018-08-11 18:40:00,7.81,762.0,7.8,,,1.0,6.0,280.0,KMHS,3540,-122.31702,41.31494
369,101964.11,N,,26.22,101780.0,101144.59,253.0,Haze,,,,1.75,89572.62,,KMHS 111856Z AUTO 00000KT 1 3/4SM HZ BKN025 OVC034 27/08 A3011 RMK AO2 SLP178 T02670078,344.0,30.26,0.0,26.7,,2018-08-11 18:56:00,7.82,762.0,7.8,,,1.0,6.0,0.0,KMHS,3540,-122.31702,41.31494
370,101930.25,N,,26.18,,101111.04,293.0,Haze,,,,1.25,89542.88,,SPECI KMHS 111911Z AUTO 00000KT 1 1/4SM HZ BKN029 OVC037 27/07 A3010 RMK AO2 T02670072,374.0,29.05,0.0,26.7,,2018-08-11 19:11:00,7.22,883.92,7.2,,,1.0,6.0,0.0,KMHS,3540,-122.31702,41.31494
371,101930.25,N,,26.64,,101090.9,273.0,Haze,,,,0.75,89542.88,,SPECI KMHS 111928Z AUTO 00000KT 3/4SM HZ BKN027 OVC037 27/06 A3010 RMK AO2 T02720056,374.0,25.27,0.0,27.2,,2018-08-11 19:28:00,5.64,822.96,5.6,,,1.0,6.0,0.0,KMHS,3540,-122.31702,41.31494
372,101896.38,N,,26.61,101750.0,101057.33,233.0,Haze,,,,1.0,89513.13,,KMHS 111956Z AUTO 00000KT 1SM HZ BKN023 OVC031 27/05 A3009 RMK AO2  SLP175 T02720050,314.0,24.23,0.0,27.2,,2018-08-11 19:56:00,5.04,701.04,5.0,,,1.0,6.0,0.0,KMHS,3540,-122.31702,41.31494
373,101862.52,ESE,374.0,26.96,,100979.62,243.0,Haze,,,,1.5,89483.38,,SPECI KMHS 112034Z AUTO 12003KT 1 1/2SM HZ BKN024 BKN030 OVC037 28/03 A3008 RMK AO2 T02830033,303.0,20.17,1.54,28.3,,2018-08-11 20:34:00,3.37,731.52,3.3,,,1.0,6.0,120.0,KMHS,3540,-122.31702,41.31494
374,101828.66,N,,27.41,101680.0,100922.06,263.0,Haze,,,,1.75,89453.64,8014.0,KMHS 112056Z AUTO 00000KT 1 3/4SM HZ BKN026 OVC035 29/04 A3007 RMK AO2 SLP168 T02890044 58014,354.0,21.05,0.0,28.9,,2018-08-11 20:56:00,4.47,792.48,4.4,,,1.0,6.0,0.0,KMHS,3540,-122.31702,41.31494
375,101794.79,N,,28.21,,100844.86,233.0,Haze,,,,2.0,89423.88,,SPECI KMHS 112140Z AUTO 00000KT 2SM HZ BKN023 OVC031 30/04 A3006 RMK AO2 T03000039,314.0,19.08,0.0,30.0,,2018-08-11 21:40:00,4.0,701.04,3.9,,,1.0,6.0,0.0,KMHS,3540,-122.31702,41.31494
376,101760.93,,,28.69,101590.0,100787.67,223.0,Haze,,,,2.0,89394.14,,KMHS 112156Z AUTO VRB03KT 2SM HZ BKN022 OVC036 31/04 A3005 RMK AO2  SLP159 T03060039,364.0,18.44,1.54,30.6,,2018-08-11 21:56:00,4.02,670.56,3.9,,,1.0,6.0,,KMHS,3540,-122.31702,41.31494
377,101693.2,,,28.18,101550.0,100744.27,273.0,Haze,,,,2.0,89334.64,,KMHS 112256Z AUTO VRB03KT 2SM HZ BKN027 OVC037 30/03 A3003 RMK AO2  SLP155 T03000028,374.0,17.65,1.54,30.0,,2018-08-11 22:56:00,2.91,822.96,2.8,,,1.0,6.0,,KMHS,3540,-122.31702,41.31494
378,101693.2,,,28.19,,100744.25,273.0,Haze,,,,1.75,89334.64,,SPECI KMHS 112313Z AUTO VRB03KT 1 3/4SM HZ BKN027 OVC035 30/03 A3003 RMK AO2 T03000033,354.0,18.29,1.54,30.0,,2018-08-11 23:13:00,3.41,822.96,3.3,,,1.0,6.0,,KMHS,3540,-122.31702,41.31494
379,101659.34,,,27.78,101490.0,100734.39,254.0,Haze,23.9,,,1.75,89304.89,6016.0,METAR KMHS 112356Z AUTO 1 3/4SM HZ OVC025 29/04 A3002 RMK AO2 SLP149 T02940044 10311 20239 56016,,20.45,,29.4,31.1,2018-08-11 23:56:00,4.48,762.0,4.4,,,1.0,6.0,,KMHS,3540,-122.31702,41.31494
380,101659.34,N,,27.8,,100734.37,244.0,Haze,,,,2.0,89304.89,,SPECI KMHS 120004Z AUTO 00000KT 2SM HZ OVC024 29/05 A3002 RMK AO2 T02940050,,21.33,0.0,29.4,,2018-08-12 00:04:00,5.08,731.52,5.0,,,1.0,6.0,0.0,KMHS,3540,-122.31702,41.31494
381,101659.34,N,,27.5,,100754.17,204.0,Haze,,,,3.0,89304.89,,KMHS 120041Z AUTO 00000KT 3SM HZ OVC020 29/06 A3002 RMK AO2  T02890061,,23.69,0.0,28.9,,2018-08-12 00:41:00,6.16,609.6,6.1,,,1.0,6.0,0.0,KMHS,3540,-122.31702,41.31494
382,101659.34,N,,27.5,101500.0,100754.17,204.0,Haze,,,,3.0,89304.89,,KMHS 120056Z AUTO 00000KT 3SM HZ OVC020 29/06 A3002 RMK AO2 SLP150  T02890061,,23.69,0.0,28.9,,2018-08-12 00:56:00,6.16,609.6,6.1,,,1.0,6.0,0.0,KMHS,3540,-122.31702,41.31494
383,101659.34,ENE,,,101530.0,100866.5,254.0,Haze,,,,5.0,89304.89,,KMHS 120156Z AUTO 06003KT 5SM HZ OVC025 26/09 A3002 RMK AO2 SLP153  T02610089,,33.78,1.54,26.1,,2018-08-12 01:56:00,8.91,762.0,8.9,,,1.0,6.0,60.0,KMHS,3540,-122.31702,41.31494
384,101727.07,NNW,,,101630.0,101003.29,302.0,Haze,,,,5.0,89364.39,3007.0,KMHS 120256Z AUTO 34008KT 300V010 5SM HZ SCT030 24/05 A3004 RMK AO2 SLP163 T02440050 53007,,28.6,4.12,24.4,,2018-08-12 02:56:00,5.0,,5.0,,,1.0,6.0,340.0,KMHS,3540,-122.31702,41.31494
385,101794.79,NW,,,,101136.64,213.0,Haze,,,,6.0,89423.88,,SPECI KMHS 120329Z AUTO 32005KT 6SM HZ BKN021 23/06 A3006 RMK AO2 T02280056,,32.82,2.57,22.8,,2018-08-12 03:29:00,5.57,640.08,5.6,,,1.0,6.0,320.0,KMHS,3540,-122.31702,41.31494
386,101828.66,NNW,,,101700.0,101216.22,214.0,Haze,,,,4.0,89453.64,,KMHS 120356Z AUTO 33005KT 4SM HZ OVC021 22/06 A3007 RMK AO2 SLP170  T02170056,,35.09,2.57,21.7,,2018-08-12 03:56:00,5.56,640.08,5.6,,,1.0,6.0,330.0,KMHS,3540,-122.31702,41.31494
387,101930.25,,,,101780.0,101363.55,244.0,Haze,,,,2.5,89542.88,,KMHS 120456Z AUTO VRB04KT 2 1/2SM HZ OVC024 21/05 A3010 RMK AO2  SLP178 T02060050,,36.01,2.06,20.6,,2018-08-12 04:56:00,4.95,731.52,5.0,,,1.0,6.0,,KMHS,3540,-122.31702,41.31494
388,101930.25,N,,,101770.0,101414.5,344.0,Haze,19.4,,,2.5,89542.88,1018.0,KMHS 120556Z AUTO 35003KT 2 1/2SM HZ OVC034 19/05 A3010 RMK AO2  SLP177 T01940050 10294 20194 51018,,38.78,1.54,19.4,29.4,2018-08-12 05:56:00,4.94,1036.32,5.0,,,1.0,6.0,350.0,KMHS,3540,-122.31702,41.31494
389,101930.25,N,,,,101509.02,554.0,Haze,,,,3.0,89542.88,,SPECI KMHS 120648Z AUTO 00000KT 3SM HZ OVC055 17/06 A3010 RMK AO2 T01720061,,48.04,0.0,17.2,,2018-08-12 06:48:00,6.04,1676.4,6.1,,,1.0,6.0,0.0,KMHS,3540,-122.31702,41.31494
390,101930.25,N,,,101780.0,101483.1,554.0,Haze,,,,3.0,89542.88,,KMHS 120656Z AUTO 00000KT 3SM HZ OVC055 18/06 A3010 RMK AO2 SLP178  T01780056,,44.68,0.0,17.8,,2018-08-12 06:56:00,5.54,1676.4,5.6,,,1.0,6.0,0.0,KMHS,3540,-122.31702,41.31494
391,101964.11,N,,,101790.0,101564.41,444.0,Haze,,31.1,,5.0,89572.62,,KMHS 120756Z AUTO 00000KT 5SM HZ OVC044 17/07 A3011 RMK AO2 SLP179  T01670067 403110122,,51.67,0.0,16.7,,2018-08-12 07:56:00,6.64,1341.12,6.7,12.2,,1.0,6.0,0.0,KMHS,3540,-122.31702,41.31494
392,101964.11,N,,,101780.0,101564.41,464.0,Overcast,,,,8.0,89572.62,1.0,KMHS 120856Z AUTO 00000KT 8SM OVC046 17/07 A3011 RMK AO2 SLP178  T01670067 50001,,51.67,0.0,16.7,,2018-08-12 08:56:00,6.64,1402.08,6.7,,,1.0,,0.0,KMHS,3540,-122.31702,41.31494
393,101964.11,N,,,101790.0,101665.28,444.0,Overcast,,,,9.0,89572.62,,KMHS 120956Z AUTO 00000KT 9SM OVC044 14/07 A3011 RMK AO2 SLP179  T01440072,,61.96,0.0,14.4,,2018-08-12 09:56:00,7.14,1341.12,7.2,,,1.0,,0.0,KMHS,3540,-122.31702,41.31494
394,101930.25,N,,,101800.0,101702.69,334.0,Overcast,,,,9.0,89542.88,,KMHS 121056Z AUTO 00000KT 9SM OVC033 13/07 A3010 RMK AO2 SLP180  T01280072,,68.75,0.0,12.8,,2018-08-12 10:56:00,7.15,1005.84,7.2,,,1.0,,0.0,KMHS,3540,-122.31702,41.31494
395,101964.11,N,,,101810.0,101763.38,364.0,Overcast,11.7,,,9.0,89572.62,0.0,KMHS 121156Z AUTO 00000KT 9SM OVC036 12/07 A3011 RMK AO2 SLP181  T01220072 10194 20117 50000,,71.51,0.0,12.2,19.4,2018-08-12 11:56:00,7.15,1097.28,7.2,,,1.0,,0.0,KMHS,3540,-122.31702,41.31494
396,101964.11,N,,,,101785.89,294.0,Overcast,,,,8.0,89572.62,,SPECI KMHS 121249Z AUTO 00000KT 8SM OVC029 12/07 A3011 RMK AO2 T01170072,,73.9,0.0,11.7,,2018-08-12 12:49:00,7.15,883.92,7.2,,,1.0,,0.0,KMHS,3540,-122.31702,41.31494
397,101964.11,N,,,101830.0,101785.89,294.0,Overcast,,,,8.0,89572.62,,KMHS 121256Z AUTO 00000KT 8SM OVC029 12/07 A3011 RMK AO2 SLP183  T01170072,,73.9,0.0,11.7,,2018-08-12 12:56:00,7.15,883.92,7.2,,,1.0,,0.0,KMHS,3540,-122.31702,41.31494
398,101997.98,ENE,,,101910.0,101869.58,284.0,Haze,,,,4.0,89602.38,,KMHS 121356Z AUTO 07003KT 4SM HZ OVC028 11/07 A3012 RMK AO2 SLP191  T01060067,,76.81,1.54,10.6,,2018-08-12 13:56:00,6.66,853.44,6.7,,,1.0,6.0,70.0,KMHS,3540,-122.31702,41.31494
399,101997.98,N,,,101900.0,101699.02,264.0,Haze,,,,4.0,89602.38,3005.0,KMHS 121456Z AUTO 00000KT 4SM HZ OVC026 14/08 A3012 RMK AO2 SLP190  T01440078 53005,,64.55,0.0,14.4,,2018-08-12 14:56:00,7.75,792.48,7.8,,,1.0,6.0,0.0,KMHS,3540,-122.31702,41.31494
400,101997.98,N,,,101860.0,101503.08,264.0,Haze,,,,6.0,89602.38,,KMHS 121556Z AUTO 00000KT 6SM HZ OVC026 19/09 A3012 RMK AO2 SLP186  T01890089,,52.27,0.0,18.9,,2018-08-12 15:56:00,8.85,792.48,8.9,,,1.0,6.0,0.0,KMHS,3540,-122.31702,41.31494
401,101964.11,,,,101820.0,101350.68,244.0,Haze,,,,4.0,89572.62,,KMHS 121656Z AUTO VRB03KT 4SM HZ OVC024 22/09 A3011 RMK AO2 SLP182  T02170089,,43.98,1.54,21.7,,2018-08-12 16:56:00,8.86,731.52,8.9,,,1.0,6.0,,KMHS,3540,-122.31702,41.31494
402,101896.38,N,,,101740.0,101171.25,203.0,Haze,10.6,,,4.0,89513.13,8008.0,KMHS 121756Z AUTO 00000KT 4SM HZ BKN020 24/08 A3009 RMK AO2 SLP174  T02440083 10244 20106 58008,,35.88,0.0,24.4,24.4,2018-08-12 17:56:00,8.29,609.6,8.3,,,1.0,6.0,0.0,KMHS,3540,-122.31702,41.31494
403,101896.38,N,,,,101122.09,192.0,Haze,,,,4.0,89513.13,,SPECI KMHS 121808Z AUTO 00000KT 4SM HZ SCT019 26/08 A3009 RMK AO2 T02560083,,33.41,0.0,25.6,,2018-08-12 18:08:00,8.31,,8.3,,,1.0,6.0,0.0,KMHS,3540,-122.31702,41.31494
404,101862.52,N,,26.61,101670.0,101023.56,176.0,Haze,,,,4.0,89483.38,,KMHS 121856Z AUTO 00000KT 4SM HZ FEW017 27/09 A3008 RMK AO2 SLP167  T02720089,,31.66,0.0,27.2,,2018-08-12 18:56:00,8.92,,8.9,,,1.0,6.0,0.0,KMHS,3540,-122.31702,41.31494
405,101760.93,N,,28.73,101570.0,100787.62,1.0,Clear,,,,8.0,89394.14,,KMHS 121956Z AUTO 00000KT 8SM CLR 31/05 A3005 RMK AO2 SLP157  T03060050,,19.91,0.0,30.6,,2018-08-12 19:56:00,5.11,,5.0,,,1.0,,0.0,KMHS,3540,-122.31702,41.31494
406,101693.2,N,,29.14,101490.0,100700.91,1.0,Haze,,,,5.0,89334.64,8020.0,KMHS 122056Z AUTO 00000KT 5SM HZ CLR 31/05 A3003 RMK AO2 SLP149  T03110050 58020,,19.35,0.0,31.1,,2018-08-12 20:56:00,5.12,,5.0,,,1.0,6.0,0.0,KMHS,3540,-122.31702,41.31494
407,101625.47,N,,29.62,101430.0,100610.42,1.0,Haze,,,,6.0,89275.14,,KMHS 122156Z AUTO 00000KT 6SM HZ CLR 32/04 A3001 RMK AO2 SLP143  T03170044,,17.94,0.0,31.7,,2018-08-12 21:56:00,4.54,,4.4,,,1.0,6.0,0.0,KMHS,3540,-122.31702,41.31494
408,101591.61,,,29.03,101400.0,100600.43,283.0,Haze,,,,3.0,89245.39,,KMHS 122256Z AUTO VRB03KT 3SM HZ BKN028 31/02 A3000 RMK AO2 SLP140  T03110017,,15.33,1.54,31.1,,2018-08-12 22:56:00,1.85,853.44,1.7,,,1.0,6.0,,KMHS,3540,-122.31702,41.31494
409,101557.75,N,,28.65,,100586.47,284.0,Haze,,,,2.5,89215.65,,SPECI KMHS 122328Z AUTO 00000KT 2 1/2SM HZ OVC028 31/03 A2999 RMK AO2 T03060028,,17.06,0.0,30.6,,2018-08-12 23:28:00,2.93,853.44,2.8,,,1.0,6.0,0.0,KMHS,3540,-122.31702,41.31494
410,101557.75,N,,27.51,,100649.57,303.0,Haze,,,,2.5,89215.65,,KMHS 122354Z AUTO 00000KT 2 1/2SM HZ BKN030 OVC037 29/05 A2999 RMK AO2,374.0,21.83,0.0,29.0,,2018-08-12 23:54:00,5.08,914.4,5.0,,,1.0,6.0,0.0,KMHS,3540,-122.31702,41.31494
411,101557.75,N,,27.44,101420.0,100653.54,303.0,Haze,24.4,,,2.5,89215.65,5005.0,KMHS 122356Z AUTO 00000KT 2 1/2SM HZ BKN030 OVC037 29/05 A2999 RMK AO2 SLP142 T02890050 10322 20244 55005,374.0,21.95,0.0,28.9,32.2,2018-08-12 23:56:00,5.07,914.4,5.0,,,1.0,6.0,0.0,KMHS,3540,-122.31702,41.31494
412,101557.75,N,,26.88,,100689.37,404.0,Haze,,,,3.0,89215.65,,KMHS 130051Z AUTO 00000KT 3SM HZ OVC040 28/06 A2999 RMK AO2,,24.79,0.0,28.0,,2018-08-13 00:51:00,6.05,1219.2,6.0,,,1.0,6.0,0.0,KMHS,3540,-122.31702,41.31494
413,101557.75,N,,26.73,101440.0,100697.39,404.0,Haze,,,,3.0,89215.65,,KMHS 130056Z AUTO 00000KT 3SM HZ OVC040 28/06 A2999 RMK AO2 SLP144  T02780056,,24.4,0.0,27.8,,2018-08-13 00:56:00,5.65,1219.2,5.6,,,1.0,6.0,0.0,KMHS,3540,-122.31702,41.31494
414,101591.61,N,,,101490.0,100799.48,463.0,Haze,,,,4.0,89245.39,,KMHS 130156Z AUTO 00000KT 4SM HZ BKN046 OVC055 26/05 A3000 RMK AO2  SLP149 T02610050,554.0,25.85,0.0,26.1,,2018-08-13 01:56:00,5.02,1402.08,5.0,,,1.0,6.0,0.0,KMHS,3540,-122.31702,41.31494
415,101625.47,E,,,101510.0,100947.68,494.0,Haze,,,,4.0,89275.14,3004.0,KMHS 130256Z AUTO 09003KT 4SM HZ OVC049 23/06 A3001 RMK AO2 SLP151  T02330061 53004,,32.97,1.54,23.3,,2018-08-13 02:56:00,6.08,1493.52,6.1,,,1.0,6.0,90.0,KMHS,3540,-122.31702,41.31494
416,101693.2,N,,,101580.0,101199.86,504.0,Haze,,,,5.0,89334.64,,KMHS 130356Z AUTO 00000KT 5SM HZ OVC050 19/07 A3003 RMK AO2 SLP158  T01890072,,46.57,0.0,18.9,,2018-08-13 03:56:00,7.15,1524.0,7.2,,,1.0,6.0,0.0,KMHS,3540,-122.31702,41.31494
417,101727.07,N,,,101610.0,101280.76,554.0,Haze,,,,4.0,89364.39,,KMHS 130456Z AUTO 00000KT 4SM HZ OVC055 18/07 A3004 RMK AO2 SLP161  T01780067,,48.21,0.0,17.8,,2018-08-13 04:56:00,6.64,1676.4,6.7,,,1.0,6.0,0.0,KMHS,3540,-122.31702,41.31494
418,101760.93,N,,,101660.0,101410.03,484.0,Haze,15.6,,,4.0,89394.14,1015.0,KMHS 130556Z AUTO 00000KT 4SM HZ OVC048 16/06 A3005 RMK AO2 SLP166  T01560056 10294 20156 51015,,51.37,0.0,15.6,29.4,2018-08-13 05:56:00,5.53,1463.04,5.6,,,1.0,6.0,0.0,KMHS,3540,-122.31702,41.31494
419,101794.79,N,,,101660.0,101496.56,503.0,Haze,,,,5.0,89423.88,,KMHS 130656Z AUTO 00000KT 5SM HZ BKN050 14/05 A3006 RMK AO2 SLP166  T01440050,,53.22,0.0,14.4,,2018-08-13 06:56:00,4.93,1524.0,5.0,,,1.0,6.0,0.0,KMHS,3540,-122.31702,41.31494
420,101828.66,N,,,101670.0,101601.46,503.0,Haze,,32.2,,5.0,89453.64,,KMHS 130756Z AUTO 00000KT 5SM HZ BKN050 13/04 A3007 RMK AO2 SLP167  T01280044 403220106,,56.63,0.0,12.8,,2018-08-13 07:56:00,4.33,1524.0,4.4,10.6,,1.0,6.0,0.0,KMHS,3540,-122.31702,41.31494
421,101828.66,N,,,101650.0,101601.48,1.0,Haze,,,,5.0,89453.64,1004.0,KMHS 130856Z AUTO 00000KT 5SM HZ CLR 13/04 A3007 RMK AO2 SLP165  T01280039 51004,,54.68,0.0,12.8,,2018-08-13 08:56:00,3.82,,3.9,,,1.0,6.0,0.0,KMHS,3540,-122.31702,41.31494
422,101794.79,N,,,101640.0,101666.75,1.0,Haze,,,,5.0,89423.88,,KMHS 130956Z AUTO 00000KT 5SM HZ CLR 11/04 A3006 RMK AO2 SLP164  T01060044,,65.48,0.0,10.6,,2018-08-13 09:56:00,4.33,,4.4,,,1.0,6.0,0.0,KMHS,3540,-122.31702,41.31494
423,101794.79,N,,,101660.0,101694.06,1.0,Haze,,,,5.0,89423.88,,KMHS 131056Z AUTO 00000KT 5SM HZ CLR 10/04 A3006 RMK AO2 SLP166  T01000044,,68.16,0.0,10.0,,2018-08-13 10:56:00,4.34,,4.4,,,1.0,6.0,0.0,KMHS,3540,-122.31702,41.31494
424,101794.79,N,,,101690.0,101666.8,1.0,Clear,9.4,,,7.0,89423.88,5002.0,KMHS 131156Z AUTO 00000KT 7SM CLR 11/03 A3006 RMK AO2 SLP169  T01060033 10150 20094 55002,,60.61,0.0,10.6,15.0,2018-08-13 11:56:00,3.23,,3.3,,,1.0,,0.0,KMHS,3540,-122.31702,41.31494
425,101828.66,N,,,101710.0,101727.95,654.0,Overcast,,,,7.0,89453.64,,KMHS 131256Z AUTO 00000KT 7SM OVC065 10/03 A3007 RMK AO2 SLP171  T01000033,,63.08,0.0,10.0,,2018-08-13 12:56:00,3.23,1981.2,3.3,,,1.0,,0.0,KMHS,3540,-122.31702,41.31494
426,101828.66,N,,,101760.0,101755.36,656.0,Haze,,,,6.0,89453.64,,KMHS 131356Z AUTO 00000KT 6SM HZ FEW065 09/04 A3007 RMK AO2 SLP176  T00940039,,68.51,0.0,9.4,,2018-08-13 13:56:00,3.84,,3.9,,,1.0,6.0,0.0,KMHS,3540,-122.31702,41.31494
427,101828.66,N,,,101740.0,101579.02,1.0,Haze,,,,4.0,89453.64,1.0,KMHS 131456Z AUTO 00000KT 4SM HZ CLR 13/07 A3007 RMK AO2 SLP174  T01330072 50001,,66.54,0.0,13.3,,2018-08-13 14:56:00,7.15,,7.2,,,1.0,6.0,0.0,KMHS,3540,-122.31702,41.31494
428,101794.79,N,,,101700.0,101279.44,1.0,Haze,,,,4.0,89423.88,,KMHS 131556Z AUTO 00000KT 4SM HZ CLR 19/11 A3006 RMK AO2 SLP170  T01940106,,56.79,0.0,19.4,,2018-08-13 15:56:00,10.56,,10.6,,,1.0,6.0,0.0,KMHS,3540,-122.31702,41.31494
429,101794.79,N,,,101650.0,101090.99,1.0,Haze,,,,4.0,89423.88,,KMHS 131656Z AUTO 00000KT 4SM HZ CLR 24/08 A3006 RMK AO2 SLP165  T02390078,,35.73,0.0,23.9,,2018-08-13 16:56:00,7.78,,7.8,,,1.0,6.0,0.0,KMHS,3540,-122.31702,41.31494
430,101794.79,N,,26.67,101660.0,100932.47,1.0,Clear,8.9,,,7.0,89423.88,5001.0,KMHS 131756Z AUTO 00000KT 7SM CLR 28/04 A3006 RMK AO2 SLP166  T02780044 10278 20089 55001,,22.44,0.0,27.8,27.8,2018-08-13 17:56:00,4.45,,4.4,,,1.0,,0.0,KMHS,3540,-122.31702,41.31494
431,101794.79,N,,27.7,101610.0,100868.71,1.0,Clear,,,,9.0,89423.88,,KMHS 131856Z AUTO 00000KT 9SM CLR 29/02 A3006 RMK AO2 SLP161  T02940017,,16.89,0.0,29.4,,2018-08-13 18:56:00,1.8,,1.7,,,1.0,,0.0,KMHS,3540,-122.31702,41.31494
432,101727.07,,,28.65,101580.0,100754.17,1.0,Clear,,,,9.0,89364.39,,METAR KMHS 131956Z AUTO 9SM CLR 31/03 A3004 RMK AO2 SLP158 T03060028,,17.06,,30.6,,2018-08-13 19:56:00,2.93,,2.8,,,1.0,,,KMHS,3540,-122.31702,41.31494
433,101693.2,N,,29.52,101510.0,100677.61,1.0,Clear,,,,9.0,89334.64,8011.0,KMHS 132056Z AUTO 00000KT 9SM CLR 32/01 A3003 RMK AO2 SLP151  T03170006 58011,,13.69,0.0,31.7,,2018-08-13 20:56:00,0.77,,0.6,,,1.0,,0.0,KMHS,3540,-122.31702,41.31494
434,101625.47,,,29.41,101490.0,100610.6,1.0,Haze,,,,4.0,89275.14,,KMHS 132156Z AUTO VRB03KT 4SM HZ CLR 32/M01 A3001 RMK AO2 SLP149  T03171011,,12.1,1.54,31.7,,2018-08-13 21:56:00,-0.91,,-1.1,,,1.0,6.0,,KMHS,3540,-122.31702,41.31494
435,101625.47,N,,29.46,,100610.59,314.0,Haze,,,,2.5,89275.14,,SPECI KMHS 132236Z AUTO 00000KT 2 1/2SM HZ OVC031 32/M01 A3001 RMK AO2 T03171006,,12.55,0.0,31.7,,2018-08-13 22:36:00,-0.41,944.88,-0.6,,,1.0,6.0,0.0,KMHS,3540,-122.31702,41.31494
436,101591.61,,,29.02,101450.0,100600.48,293.0,Haze,,,,2.0,89245.39,,KMHS 132256Z AUTO VRB03KT 2SM HZ BKN029 OVC038 31/00 A3000 RMK AO2  SLP145 T03110000,384.0,13.56,1.54,31.1,,2018-08-13 22:56:00,0.16,883.92,0.0,,,1.0,6.0,,KMHS,3540,-122.31702,41.31494
437,101557.75,N,,27.67,,100633.9,323.0,Haze,,,,3.0,89215.65,,KMHS 132338Z AUTO 00000KT 3SM HZ BKN032 OVC041 29/M01 A2999 RMK AO2 T02941006,414.0,14.22,0.0,29.4,,2018-08-13 23:38:00,-0.56,975.36,-0.6,,,1.0,6.0,0.0,KMHS,3540,-122.31702,41.31494
438,101557.75,N,,27.67,,100633.9,323.0,Haze,,,,2.5,89215.65,,KMHS 132348Z AUTO 00000KT 2 1/2SM HZ BKN032 OVC039 29/M01 A2999 RMK AO2 T02941006,394.0,14.22,0.0,29.4,,2018-08-13 23:48:00,-0.56,975.36,-0.6,,,1.0,6.0,0.0,KMHS,3540,-122.31702,41.31494
439,101557.75,N,,27.69,101430.0,100633.85,323.0,Haze,27.8,,,2.5,89215.65,6012.0,KMHS 132356Z AUTO 00000KT 2 1/2SM HZ BKN032 OVC044 29/01 A2999 RMK AO2 SLP143 T02940011 10322 20278 56012,444.0,16.18,0.0,29.4,32.2,2018-08-13 23:56:00,1.21,975.36,1.1,,,1.0,6.0,0.0,KMHS,3540,-122.31702,41.31494
440,101557.75,N,,27.33,,100653.66,343.0,Haze,,,,3.0,89215.65,,SPECI KMHS 140020Z AUTO 00000KT 3SM HZ BKN034 OVC044 29/02 A2999 RMK AO2 T02890017,444.0,17.39,0.0,28.9,,2018-08-14 00:20:00,1.79,1036.32,1.7,,,1.0,6.0,0.0,KMHS,3540,-122.31702,41.31494
441,101557.75,N,,26.63,101450.0,100697.48,383.0,Haze,,,,3.0,89215.65,,KMHS 140056Z AUTO 00000KT 3SM HZ BKN038 OVC049 28/03 A2999 RMK AO2  SLP145 T02780033,494.0,20.77,0.0,27.8,,2018-08-14 00:56:00,3.36,1158.24,3.3,,,1.0,6.0,0.0,KMHS,3540,-122.31702,41.31494
442,101557.75,N,,26.0,101450.0,100741.69,494.0,Haze,,,,4.0,89215.65,,KMHS 140156Z AUTO 00000KT 4SM HZ OVC049 27/03 A2999 RMK AO2 SLP145  T02670033,,22.15,0.0,26.7,,2018-08-14 01:56:00,3.34,1493.52,3.3,,,1.0,6.0,0.0,KMHS,3540,-122.31702,41.31494
443,101557.75,E,,,101460.0,100835.29,554.0,Haze,,,,6.0,89215.65,3001.0,KMHS 140256Z AUTO 09003KT 6SM HZ OVC055 24/02 A2999 RMK AO2 SLP146  T02440022 53001,,23.47,1.54,24.4,,2018-08-14 02:56:00,2.2,1676.4,2.2,,,1.0,6.0,90.0,KMHS,3540,-122.31702,41.31494
444,101591.61,N,,,101490.0,101077.57,554.0,Haze,,,,6.0,89245.39,,KMHS 140356Z AUTO 00000KT 6SM HZ OVC055 19/05 A3000 RMK AO2 SLP149  T01940050,,38.78,0.0,19.4,,2018-08-14 03:56:00,4.94,1676.4,5.0,,,1.0,6.0,0.0,KMHS,3540,-122.31702,41.31494
445,101659.34,N,,,101510.0,101239.25,604.0,Haze,,,,5.0,89304.89,,KMHS 140456Z AUTO 00000KT 5SM HZ OVC060 17/06 A3002 RMK AO2 SLP151  T01720056,,46.4,0.0,17.2,,2018-08-14 04:56:00,5.53,1828.8,5.6,,,1.0,6.0,0.0,KMHS,3540,-122.31702,41.31494
446,101693.2,ENE,,,101520.0,101368.95,654.0,Haze,15.0,,,4.0,89334.64,1010.0,KMHS 140556Z AUTO 06003KT 4SM HZ OVC065 15/03 A3003 RMK AO2 SLP152  T01500028 10294 20150 51010,,43.87,1.54,15.0,29.4,2018-08-14 05:56:00,2.72,1981.2,2.8,,,1.0,6.0,60.0,KMHS,3540,-122.31702,41.31494
447,101693.2,NE,,,101540.0,101417.59,604.0,Haze,,,,4.0,89334.64,,KMHS 140656Z AUTO 05003KT 4SM HZ OVC060 14/M01 A3003 RMK AO2  SLP154 T01391011,,35.55,1.54,13.9,,2018-08-14 06:56:00,-1.2,1828.8,-1.1,,,1.0,6.0,50.0,KMHS,3540,-122.31702,41.31494
448,101727.07,N,,,101550.0,101500.27,604.0,Haze,,32.2,,6.0,89364.39,,KMHS 140756Z AUTO 00000KT 6SM HZ OVC060 13/M01 A3004 RMK AO2  SLP155 T01281006 403220089,,39.61,0.0,12.8,,2018-08-14 07:56:00,-0.7,1828.8,-0.6,8.9,,1.0,6.0,0.0,KMHS,3540,-122.31702,41.31494
449,101693.2,ENE,,,101540.0,101542.83,504.0,Haze,,,,5.0,89334.64,2.0,KMHS 140856Z AUTO 06003KT 5SM HZ OVC050 11/M01 A3003 RMK AO2  SLP154 T01111006 50002,,44.3,1.54,11.1,,2018-08-14 08:56:00,-0.7,1524.0,-0.6,,,1.0,6.0,60.0,KMHS,3540,-122.31702,41.31494
450,101693.2,N,,,101540.0,101542.74,504.0,Haze,,,,5.0,89334.64,,KMHS 140956Z AUTO 00000KT 5SM HZ OVC050 11/02 A3003 RMK AO2 SLP154  T01110022,,54.22,0.0,11.1,,2018-08-14 09:56:00,2.11,1524.0,2.2,,,1.0,6.0,0.0,KMHS,3540,-122.31702,41.31494
451,101659.34,N,,,101520.0,101508.92,504.0,Haze,,,,6.0,89304.89,,KMHS 141056Z AUTO 00000KT 6SM HZ OVC050 11/02 A3002 RMK AO2 SLP152  T01110022,,54.22,0.0,11.1,,2018-08-14 10:56:00,2.11,1524.0,2.2,,,1.0,6.0,0.0,KMHS,3540,-122.31702,41.31494
452,101659.34,N,,,101530.0,101558.81,554.0,Overcast,10.0,,,7.0,89304.89,,KMHS 141156Z AUTO 00000KT 7SM OVC055 10/03 A3002 RMK AO2 SLP153  T01000028 10156 20100,,60.89,0.0,10.0,15.6,2018-08-14 11:56:00,2.72,1676.4,2.8,,,1.0,,0.0,KMHS,3540,-122.31702,41.31494
453,101659.34,N,,,101570.0,101609.1,656.0,Haze,,,,6.0,89304.89,,KMHS 141256Z AUTO 00000KT 6SM HZ FEW065 09/03 A3002 RMK AO2 SLP157  T00890033,,67.92,0.0,8.9,,2018-08-14 12:56:00,3.23,,3.3,,,1.0,6.0,0.0,KMHS,3540,-122.31702,41.31494
454,101659.34,N,,,101590.0,101609.08,504.0,Haze,,,,3.0,89304.89,,KMHS 141356Z AUTO 00000KT 3SM HZ OVC050 09/04 A3002 RMK AO2 SLP159  T00890039,,70.86,0.0,8.9,,2018-08-14 13:56:00,3.84,1524.0,3.9,,,1.0,6.0,0.0,KMHS,3540,-122.31702,41.31494
455,101693.2,N,,,101600.0,101515.49,484.0,Haze,,,,2.5,89334.64,3002.0,KMHS 141456Z AUTO 00000KT 2 1/2SM HZ OVC048 12/07 A3003 RMK AO2  SLP160 T01170067 53002,,71.41,0.0,11.7,,2018-08-14 14:56:00,6.65,1463.04,6.7,,,1.0,6.0,0.0,KMHS,3540,-122.31702,41.31494
456,101693.2,N,,,,101466.18,484.0,Haze,,,,3.0,89334.64,,KMHS 141503Z AUTO 00000KT 3SM HZ OVC048 13/07 A3003 RMK AO2  T01280067,,66.93,0.0,12.8,,2018-08-14 15:03:00,6.75,1463.04,6.7,,,1.0,6.0,0.0,KMHS,3540,-122.31702,41.31494
457,101693.2,N,,,101590.0,101246.83,432.0,Haze,,,,3.0,89334.64,,KMHS 141556Z AUTO 00000KT 3SM HZ SCT043 18/11 A3003 RMK AO2 SLP159  T01780106,,62.76,0.0,17.8,,2018-08-14 15:56:00,10.56,,10.6,,,1.0,6.0,0.0,KMHS,3540,-122.31702,41.31494
458,101659.34,N,,,,101073.04,1.0,Haze,,,,2.5,89304.89,,SPECI KMHS 141626Z AUTO 00000KT 2 1/2SM HZ CLR 21/06 A3002 RMK AO2 T02110061,,37.69,0.0,21.1,,2018-08-14 16:26:00,6.06,,6.1,,,1.0,6.0,0.0,KMHS,3540,-122.31702,41.31494
459,101659.34,N,,,101510.0,100956.55,1.0,Haze,,,,2.5,89304.89,,KMHS 141656Z AUTO 00000KT 2 1/2SM HZ CLR 24/06 A3002 RMK AO2  SLP151 T02390061,,31.8,0.0,23.9,,2018-08-14 16:56:00,6.09,,6.1,,,1.0,6.0,0.0,KMHS,3540,-122.31702,41.31494
460,101659.34,N,,,,100911.42,1.0,Haze,,,,3.0,89304.89,,SPECI KMHS 141708Z AUTO 00000KT 3SM HZ CLR 25/06 A3002 RMK AO2 T02500061,,29.78,0.0,25.0,,2018-08-14 17:08:00,6.1,,6.1,,,1.0,6.0,0.0,KMHS,3540,-122.31702,41.31494
461,101625.47,N,,26.91,101460.0,100744.68,1.0,Clear,8.9,,,8.0,89275.14,8004.0,KMHS 141756Z AUTO 00000KT 8SM CLR 28/02 A3001 RMK AO2 SLP146  T02830017 10283 20089 58004,,18.0,0.0,28.3,28.3,2018-08-14 17:56:00,1.78,,1.7,,,1.0,,0.0,KMHS,3540,-122.31702,41.31494
462,101625.47,N,,27.67,101460.0,100701.03,1.0,Clear,,,,10.0,89275.14,,KMHS 141856Z AUTO 00000KT 10SM CLR 29/M02 A3001 RMK AO2 SLP146  T02941017,,13.2,0.0,29.4,,2018-08-14 18:56:00,-1.56,,-1.7,,,1.0,,0.0,KMHS,3540,-122.31702,41.31494
463,101591.61,N,,29.02,101420.0,100600.48,1.0,Clear,,,,7.0,89245.39,,KMHS 141956Z AUTO 00000KT 7SM CLR 31/00 A3000 RMK AO2 SLP142  T03110000,,13.56,0.0,31.1,,2018-08-14 19:56:00,0.16,,0.0,,,1.0,,0.0,KMHS,3540,-122.31702,41.31494
464,101557.75,N,,29.83,101400.0,100524.09,1.0,Haze,,,,6.0,89215.65,8007.0,KMHS 142056Z AUTO 00000KT 6SM HZ CLR 32/M01 A2999 RMK AO2 SLP140  T03221006 58007,,12.2,0.0,32.2,,2018-08-14 20:56:00,-0.4,,-0.6,,,1.0,6.0,0.0,KMHS,3540,-122.31702,41.31494
465,101523.88,N,,29.46,101360.0,100510.01,334.0,Haze,,,,3.0,89185.89,,KMHS 142156Z AUTO 00000KT 3SM HZ OVC033 32/M01 A2998 RMK AO2  SLP136 T03171006,,12.55,0.0,31.7,,2018-08-14 21:56:00,-0.41,1005.84,-0.6,,,1.0,6.0,0.0,KMHS,3540,-122.31702,41.31494
466,101523.88,N,,29.46,,100510.01,334.0,Haze,,,,2.5,89185.89,,SPECI KMHS 142208Z AUTO 00000KT 2 1/2SM HZ OVC033 32/M01 A2998 RMK AO2 T03171006,,12.55,0.0,31.7,,2018-08-14 22:08:00,-0.41,1005.84,-0.6,,,1.0,6.0,0.0,KMHS,3540,-122.31702,41.31494
467,101490.02,N,,29.51,,100476.47,283.0,Haze,,,,2.0,89156.15,,SPECI KMHS 142235Z AUTO 00000KT 2SM HZ BKN028 OVC035 32/00 A2997 RMK AO2 T03170000,354.0,13.11,0.0,31.7,,2018-08-14 22:35:00,0.18,853.44,0.0,,,1.0,6.0,0.0,KMHS,3540,-122.31702,41.31494
468,101456.15,,,29.75,,100431.28,263.0,Haze,,,,1.75,89126.4,,SPECI KMHS 142253Z AUTO VRB03KT 1 3/4SM HZ BKN026 OVC033 32/00 A2996 RMK AO2,334.0,12.89,1.54,32.0,,2018-08-14 22:53:00,0.19,792.48,0.0,,,1.0,6.0,,KMHS,3540,-122.31702,41.31494
469,101456.15,,,28.96,101310.0,100466.39,263.0,Haze,,,,1.75,89126.4,,KMHS 142256Z AUTO VRB03KT 1 3/4SM HZ BKN026 OVC033 31/M01 A2996 RMK AO2 SLP131 T03111011,334.0,12.51,1.54,31.1,,2018-08-14 22:56:00,-0.93,792.48,-1.1,,,1.0,6.0,,KMHS,3540,-122.31702,41.31494
470,101422.29,,,28.54,,100452.44,263.0,Haze,,,,2.0,89096.65,,SPECI KMHS 142343Z AUTO VRB03KT 2SM HZ BKN026 OVC033 31/M02 A2995 RMK AO2 T03061017,334.0,12.32,1.54,30.6,,2018-08-14 23:43:00,-1.53,792.48,-1.7,,,1.0,6.0,,KMHS,3540,-122.31702,41.31494
471,101422.29,N,,28.54,101270.0,100452.44,284.0,Haze,27.8,,,2.5,89096.65,6009.0,KMHS 142356Z AUTO 00000KT 2 1/2SM HZ OVC028 31/M02 A2995 RMK AO2  SLP127 T03061017 10322 20278 56009,,12.32,0.0,30.6,32.2,2018-08-14 23:56:00,-1.53,853.44,-1.7,,,1.0,6.0,0.0,KMHS,3540,-122.31702,41.31494
472,101422.29,N,,28.49,,100452.46,324.0,Haze,,,,3.0,89096.65,,SPECI KMHS 150007Z AUTO 00000KT 3SM HZ OVC032 31/M02 A2995 RMK AO2 T03061022,,11.87,0.0,30.6,,2018-08-15 00:07:00,-2.03,975.36,-2.2,,,1.0,6.0,0.0,KMHS,3540,-122.31702,41.31494
473,101388.43,N,,27.55,101280.0,100466.19,474.0,Haze,,,,5.0,89066.91,,KMHS 150056Z AUTO 00000KT 5SM HZ OVC047 29/M03 A2994 RMK AO2  SLP128 T02941033,,11.72,0.0,29.4,,2018-08-15 00:56:00,-3.15,1432.56,-3.3,,,1.0,6.0,0.0,KMHS,3540,-122.31702,41.31494
474,101422.29,N,,26.37,101320.0,100587.37,464.0,Haze,,,,5.0,89096.65,,KMHS 150156Z AUTO 00000KT 5SM HZ OVC046 27/M02 A2995 RMK AO2  SLP132 T02721017,,14.99,0.0,27.2,,2018-08-15 01:56:00,-1.62,1402.08,-1.7,,,1.0,6.0,0.0,KMHS,3540,-122.31702,41.31494
475,101456.15,N,,,101340.0,100685.63,454.0,Haze,,,,6.0,89126.4,3003.0,KMHS 150256Z AUTO 00000KT 6SM HZ OVC045 26/M03 A2996 RMK AO2  SLP134 T02561033 53003,,14.63,0.0,25.6,,2018-08-15 02:56:00,-3.24,1371.6,-3.3,,,1.0,6.0,0.0,KMHS,3540,-122.31702,41.31494
476,101490.02,N,,,101380.0,100904.93,464.0,Overcast,,,,8.0,89156.15,,KMHS 150356Z AUTO 00000KT 8SM OVC046 21/00 A2997 RMK AO2 SLP138  T02110000,,24.46,0.0,21.1,,2018-08-15 03:56:00,-0.04,1402.08,0.0,,,1.0,,0.0,KMHS,3540,-122.31702,41.31494
477,101557.75,N,,,101390.0,101065.26,454.0,Overcast,,,,8.0,89215.65,,KMHS 150456Z AUTO 00000KT 8SM OVC045 19/03 A2999 RMK AO2 SLP139  T01890028,,34.27,0.0,18.9,,2018-08-15 04:56:00,2.74,1371.6,2.8,,,1.0,,0.0,KMHS,3540,-122.31702,41.31494
478,101591.61,N,,,101400.0,101124.6,446.0,Mostly Clear,17.2,,,8.0,89245.39,1013.0,KMHS 150556Z AUTO 00000KT 8SM FEW044 18/03 A3000 RMK AO2 SLP140  T01830028 10306 20172 51013,,35.58,0.0,18.3,30.6,2018-08-15 05:56:00,2.73,,2.8,,,1.0,,0.0,KMHS,3540,-122.31702,41.31494
479,101591.61,N,1102.0,,101380.0,101145.99,456.0,Partly Cloudy,,,,8.0,89245.39,,KMHS 150656Z AUTO 00000KT 8SM FEW045 FEW080 SCT110 18/04 A3000 RMK AO2 SLP138 T01780044,806.0,41.1,0.0,17.8,,2018-08-15 06:56:00,4.33,,4.4,,,1.0,,0.0,KMHS,3540,-122.31702,41.31494
480,101625.47,N,,,101410.0,101253.28,414.0,Haze,,32.2,,6.0,89275.14,,KMHS 150756Z AUTO 00000KT 6SM HZ OVC041 16/04 A3001 RMK AO2 SLP141  T01610044 403220089,,45.77,0.0,16.1,,2018-08-15 07:56:00,4.33,1249.68,4.4,8.9,,1.0,6.0,0.0,KMHS,3540,-122.31702,41.31494
481,101591.61,N,,,101390.0,101294.12,384.0,Haze,,,,4.0,89245.39,8001.0,KMHS 150856Z AUTO 00000KT 4SM HZ OVC038 14/01 A3000 RMK AO2 SLP139  T01440011 58001,,40.38,0.0,14.4,,2018-08-15 08:56:00,1.01,1158.24,1.1,,,1.0,6.0,0.0,KMHS,3540,-122.31702,41.31494
482,101591.61,N,,,,101316.2,284.0,Haze,,,,4.0,89245.39,,KMHS 150927Z AUTO 00000KT 4SM HZ OVC028 14/01 A3000 RMK AO2  T01390006,,41.14,0.0,13.9,,2018-08-15 09:27:00,0.82,853.44,0.6,,,1.0,6.0,0.0,KMHS,3540,-122.31702,41.31494
483,101625.47,N,,,101430.0,101350.01,293.0,Haze,,,,4.0,89275.14,,KMHS 150956Z AUTO 00000KT 4SM HZ BKN029 14/00 A3001 RMK AO2 SLP143  T01390000,,38.52,0.0,13.9,,2018-08-15 09:56:00,-0.1,883.92,0.0,,,1.0,6.0,0.0,KMHS,3540,-122.31702,41.31494
484,101625.47,N,,,101450.0,101425.62,172.0,Haze,,,,4.0,89275.14,,KMHS 151056Z AUTO 00000KT 4SM HZ SCT017 12/02 A3001 RMK AO2 SLP145  T01220022,,50.42,0.0,12.2,,2018-08-15 10:56:00,2.11,,2.2,,,1.0,6.0,0.0,KMHS,3540,-122.31702,41.31494
485,101591.61,N,,,101450.0,101391.68,1.0,Haze,12.2,,0.025,4.0,89245.39,2.0,KMHS 151156Z AUTO 00000KT 4SM HZ CLR 12/06 A3000 RMK AO2 RAB17E27  SLP145 P0000 60000 T01220056 10194 20122 50002,,64.04,0.0,12.2,19.4,2018-08-15 11:56:00,5.54,,5.6,,0.025,1.0,6.0,0.0,KMHS,3540,-122.31702,41.31494
486,101625.47,NE,403.0,,,101398.76,173.0,Haze,,,,4.0,89275.14,,SPECI KMHS 151247Z AUTO 05003KT 4SM HZ BKN017 BKN022 BKN040 13/03 A3001 RMK AO2 T01280033,223.0,52.42,1.54,12.8,,2018-08-15 12:47:00,3.22,518.16,3.3,,,1.0,6.0,50.0,KMHS,3540,-122.31702,41.31494
487,101625.47,N,,,101470.0,101425.58,173.0,Haze,,,,3.0,89275.14,,KMHS 151256Z AUTO 00000KT 3SM HZ BKN017 12/03 A3001 RMK AO2 SLP147  T01220033,,54.52,0.0,12.2,,2018-08-15 12:56:00,3.22,518.16,3.3,,,1.0,6.0,0.0,KMHS,3540,-122.31702,41.31494
488,101659.34,N,,,,101508.89,153.0,Haze,,,,2.5,89304.89,,KMHS 151347Z AUTO 00000KT 2 1/2SM HZ BKN015 OVC021 11/03 A3002 RMK AO2 T01110033,214.0,57.78,0.0,11.1,,2018-08-15 13:47:00,3.02,457.2,3.3,,,1.0,6.0,0.0,KMHS,3540,-122.31702,41.31494
489,101659.34,N,,,101560.0,101481.85,174.0,Haze,,,,2.5,89304.89,,KMHS 151356Z AUTO 00000KT 2 1/2SM HZ OVC017 12/03 A3002 RMK AO2  SLP156 T01170028,,54.38,0.0,11.7,,2018-08-15 13:56:00,2.72,518.16,2.8,,,1.0,6.0,0.0,KMHS,3540,-122.31702,41.31494
490,101693.2,N,,,,101493.18,174.0,Haze,,,,3.0,89334.64,,KMHS 151436Z AUTO 00000KT 3SM HZ OVC017 12/03 A3003 RMK AO2  T01220033,,54.52,0.0,12.2,,2018-08-15 14:36:00,3.22,518.16,3.3,,,1.0,6.0,0.0,KMHS,3540,-122.31702,41.31494
491,101693.2,N,,,101590.0,101443.99,194.0,Haze,,,,3.0,89334.64,3008.0,KMHS 151456Z AUTO 00000KT 3SM HZ OVC019 13/05 A3003 RMK AO2 SLP159  T01330050 53008,,57.16,0.0,13.3,,2018-08-15 14:56:00,4.93,579.12,5.0,,,1.0,6.0,0.0,KMHS,3540,-122.31702,41.31494
492,101727.07,N,,,,101428.99,184.0,Haze,,,,2.5,89364.39,,KMHS 151514Z AUTO 00000KT 2 1/2SM HZ OVC018 14/06 A3004 RMK AO2  T01440061,,57.45,0.0,14.4,,2018-08-15 15:14:00,6.04,548.64,6.1,,,1.0,6.0,0.0,KMHS,3540,-122.31702,41.31494
493,101727.07,N,,,101590.0,101259.16,184.0,Haze,,,,2.5,89364.39,,KMHS 151556Z AUTO 00000KT 2 1/2SM HZ OVC018 18/09 A3004 RMK AO2  SLP159 T01830089,,54.27,0.0,18.3,,2018-08-15 15:56:00,8.85,548.64,8.9,,,1.0,6.0,0.0,KMHS,3540,-122.31702,41.31494
494,101693.2,N,,,,101106.66,223.0,Haze,,,,1.75,89334.64,,SPECI KMHS 151637Z AUTO 00000KT 1 3/4SM HZ BKN022 21/07 A3003 RMK AO2 T02110072,,40.65,0.0,21.1,,2018-08-15 16:37:00,7.16,670.56,7.2,,,1.0,6.0,0.0,KMHS,3540,-122.31702,41.31494
495,101693.2,N,,,101560.0,101060.63,266.0,Haze,,,,1.75,89334.64,,KMHS 151656Z AUTO 00000KT 1 3/4SM HZ FEW026 22/07 A3003 RMK AO2  SLP156 T02220067,,36.73,0.0,22.2,,2018-08-15 16:56:00,6.67,,6.7,,,1.0,6.0,0.0,KMHS,3540,-122.31702,41.31494
496,101693.2,N,,,,100945.11,1.0,Haze,,,,2.0,89334.64,,SPECI KMHS 151726Z AUTO 00000KT 2SM HZ CLR 25/04 A3003 RMK AO2 T02500044,,26.46,0.0,25.0,,2018-08-15 17:26:00,4.41,,4.4,,,1.0,6.0,0.0,KMHS,3540,-122.31702,41.31494
497,101693.2,N,,26.0,,100876.06,1.0,Haze,,,,3.0,89334.64,,SPECI KMHS 151741Z AUTO 00000KT 3SM HZ CLR 27/03 A3003 RMK AO2 T02670033,,22.15,0.0,26.7,,2018-08-15 17:41:00,3.34,,3.3,,,1.0,6.0,0.0,KMHS,3540,-122.31702,41.31494
498,101693.2,N,,26.49,101520.0,100855.93,1.0,Haze,11.1,,,5.0,89334.64,1000.0,KMHS 151756Z AUTO 00000KT 5SM HZ CLR 27/02 A3003 RMK AO2 SLP152  T02720022 10272 20111 51000,,19.89,0.0,27.2,27.2,2018-08-15 17:56:00,2.25,,2.2,,,1.0,6.0,0.0,KMHS,3540,-122.31702,41.31494
499,101693.2,N,,27.44,,100787.78,293.0,Haze,,,,2.5,89334.64,,SPECI KMHS 151846Z AUTO 00000KT 2 1/2SM HZ BKN029 OVC037 29/05 A3003 RMK AO2 T02890050,374.0,21.95,0.0,28.9,,2018-08-15 18:46:00,5.07,883.92,5.0,,,1.0,6.0,0.0,KMHS,3540,-122.31702,41.31494
500,101693.2,N,,27.44,101510.0,100787.78,253.0,Haze,,,,1.5,89334.64,,KMHS 151856Z AUTO 00000KT 1 1/2SM HZ BKN025 OVC037 29/05 A3003 RMK AO2 SLP151 T02890050,374.0,21.95,0.0,28.9,,2018-08-15 18:56:00,5.07,762.0,5.0,,,1.0,6.0,0.0,KMHS,3540,-122.31702,41.31494
501,101693.2,,,27.8,101520.0,100767.92,243.0,Haze,,,,1.5,89334.64,,METAR KMHS 151956Z AUTO 1 1/2SM HZ BKN024 OVC035 29/05 A3003 RMK AO2 SLP152 T02940050,354.0,21.33,,29.4,,2018-08-15 19:56:00,5.08,731.52,5.0,,,1.0,6.0,,KMHS,3540,-122.31702,41.31494
502,101693.2,,364.0,27.8,,100767.92,186.0,Haze,,,,1.25,89334.64,,SPECI KMHS 152027Z AUTO VRB03KT 1 1/4SM HZ FEW018 BKN024 OVC036 29/05 A3003 RMK AO2 T02940050,243.0,21.33,1.54,29.4,,2018-08-15 20:27:00,5.08,731.52,5.0,,,1.0,6.0,,KMHS,3540,-122.31702,41.31494
503,101693.2,,,27.74,101500.0,100767.99,333.0,Haze,,,,1.25,89334.64,8002.0,KMHS 152056Z AUTO VRB03KT 1 1/4SM HZ BKN033 OVC043 29/03 A3003 RMK AO2 SLP150 T02940033 58002,434.0,18.93,1.54,29.4,,2018-08-15 20:56:00,3.39,1005.84,3.3,,,1.0,6.0,,KMHS,3540,-122.31702,41.31494
504,101659.34,,404.0,28.17,,100710.74,253.0,Haze,,,,1.25,89304.89,,SPECI KMHS 152110Z AUTO VRB04KT 1 1/4SM HZ BKN025 BKN032 OVC040 30/02 A3002 RMK AO2 T03000022,323.0,16.92,2.06,30.0,,2018-08-15 21:10:00,2.32,762.0,2.2,,,1.0,6.0,,KMHS,3540,-122.31702,41.31494
505,101625.47,,,29.02,101450.0,100634.0,183.0,,,,,1.25,89275.14,,KMHS 152156Z AUTO VRB03KT 1 1/4SM HZ BKN018 31/01 A3001 RMK AO2  SLP145 T03110006,,14.16,1.54,31.1,,2018-08-15 21:56:00,0.75,548.64,0.6,,,1.0,6.0,,KMHS,3540,-122.31702,41.31494
506,101625.47,,,29.02,,100634.02,203.0,,,,,1.75,89275.14,,KMHS 152203Z AUTO VRB03KT 1 3/4SM HZ BKN020 BKN029 31/00 A3001 RMK AO2 T03110000,293.0,13.64,1.54,31.1,,2018-08-15 22:03:00,0.24,609.6,0.0,,,1.0,6.0,,KMHS,3540,-122.31702,41.31494
507,101625.47,N,,29.02,,100634.02,243.0,,,,,2.0,89275.14,,SPECI KMHS 152225Z AUTO 00000KT 2SM HZ BKN024 31/00 A3001 RMK AO2 T03110000,,13.56,0.0,31.1,,2018-08-15 22:25:00,0.16,731.52,0.0,,,1.0,6.0,0.0,KMHS,3540,-122.31702,41.31494
508,101591.61,,,29.22,,100577.13,262.0,,,,,3.0,89245.39,,KMHS 152239Z AUTO VRB04KT 3SM HZ SCT026 32/M03 A3000 RMK AO2  T03171028,,10.33,2.06,31.7,,2018-08-15 22:39:00,-3.02,,-2.8,,,1.0,6.0,,KMHS,3540,-122.31702,41.31494
509,101591.61,,,29.3,,100577.1,263.0,,,,,2.5,89245.39,,SPECI KMHS 152243Z AUTO 2 1/2SM HZ BKN026 32/M02 A3000 RMK AO2 T03171022,,11.15,,31.7,,2018-08-15 22:43:00,-2.0,792.48,-2.2,,,1.0,6.0,,KMHS,3540,-122.31702,41.31494
510,101591.61,,,28.77,101420.0,100600.57,302.0,,,,,5.0,89245.39,,KMHS 152256Z AUTO VRB03KT 5SM HZ SCT030 31/M03 A3000 RMK AO2  SLP142 T03111033,,10.63,1.54,31.1,,2018-08-15 22:56:00,-3.11,,-3.3,,,1.0,6.0,,KMHS,3540,-122.31702,41.31494
511,101557.75,,,28.9,,100567.01,263.0,,,,,2.5,89215.65,,SPECI KMHS 152322Z AUTO VRB04KT 2 1/2SM HZ BKN026 31/M02 A2999 RMK AO2 T03111017,,11.97,2.06,31.1,,2018-08-15 23:22:00,-1.53,792.48,-1.7,,,1.0,6.0,,KMHS,3540,-122.31702,41.31494
512,101557.75,,,28.61,,100586.56,244.0,,,,,1.75,89215.65,,SPECI KMHS 152346Z AUTO VRB03KT 1 3/4SM HZ OVC024 31/00 A2999 RMK AO2 T03060000,,13.95,1.54,30.6,,2018-08-15 23:46:00,0.15,731.52,0.0,,,1.0,6.0,,KMHS,3540,-122.31702,41.31494
513,101523.88,N,,28.14,101390.0,100576.61,244.0,,28.9,,,1.75,89185.89,7013.0,KMHS 152356Z AUTO 00000KT 1 3/4SM HZ OVC024 30/00 A2998 RMK AO2  SLP139 T03000000 10317 20289 57013,,14.44,0.0,30.0,31.7,2018-08-15 23:56:00,0.13,731.52,0.0,,,1.0,6.0,0.0,KMHS,3540,-122.31702,41.31494
514,101523.88,,,27.67,,100600.33,264.0,,,,,2.5,89185.89,,KMHS 160004Z AUTO 2 1/2SM HZ OVC026 29/M01 A2998 RMK AO2  T02941011,,14.22,,29.4,,2018-08-16 00:04:00,-0.56,792.48,-1.1,,,1.0,6.0,,KMHS,3540,-122.31702,41.31494
515,101523.88,N,,27.68,,100600.29,333.0,,,,,2.5,89185.89,,SPECI KMHS 160019Z AUTO 00000KT 2 1/2SM HZ BKN033 29/01 A2998 RMK AO2 T02940006,,15.61,0.0,29.4,,2018-08-16 00:19:00,0.71,1005.84,0.6,,,1.0,6.0,0.0,KMHS,3540,-122.31702,41.31494
516,101557.75,N,,27.67,,100633.91,393.0,,,,,3.0,89215.65,,SPECI KMHS 160028Z AUTO 00000KT 3SM HZ BKN039 29/M01 A2999 RMK AO2 T02941011,,13.79,0.0,29.4,,2018-08-16 00:28:00,-0.97,1188.72,-1.1,,,1.0,6.0,0.0,KMHS,3540,-122.31702,41.31494
517,101523.88,N,,26.94,101400.0,100643.93,393.0,,,,,3.0,89185.89,,KMHS 160056Z AUTO 00000KT 3SM HZ BKN039 BKN047 28/03 A2998 RMK AO2  SLP140 T02830028,473.0,19.47,0.0,28.3,,2018-08-16 00:56:00,2.87,1188.72,2.8,,,1.0,6.0,0.0,KMHS,3540,-122.31702,41.31494
518,101557.75,N,,25.92,101440.0,100741.77,394.0,,,,,3.0,89215.65,,KMHS 160156Z AUTO 00000KT 3SM HZ OVC039 27/01 A2999 RMK AO2 SLP144  T02670011,,18.93,0.0,26.7,,2018-08-16 01:56:00,1.15,1188.72,1.1,,,1.0,6.0,0.0,KMHS,3540,-122.31702,41.31494
519,101591.61,E,,,101490.0,100868.96,434.0,,,,,7.0,89245.39,3005.0,KMHS 160256Z AUTO 08005KT 7SM OVC043 24/01 A3000 RMK AO2 SLP149  T02440006 53005,,20.93,2.57,24.4,,2018-08-16 02:56:00,0.61,1310.64,0.6,,,1.0,,80.0,KMHS,3540,-122.31702,41.31494
520,101693.2,N,,,101570.0,101127.86,434.0,,,,,7.0,89334.64,,KMHS 160356Z AUTO 00000KT 7SM OVC043 21/04 A3003 RMK AO2 SLP157  T02060039,,33.34,0.0,20.6,,2018-08-16 03:56:00,3.85,1310.64,3.9,,,1.0,,0.0,KMHS,3540,-122.31702,41.31494
521,101760.93,N,,,101640.0,101314.55,504.0,,,,,9.0,89394.14,,KMHS 160456Z AUTO 00000KT 9SM OVC050 18/05 A3005 RMK AO2 SLP164  T01780050,,42.86,0.0,17.8,,2018-08-16 04:56:00,4.94,1524.0,5.0,,,1.0,,0.0,KMHS,3540,-122.31702,41.31494
522,101794.79,N,,,101620.0,101395.81,554.0,,16.1,,,8.0,89423.88,1018.0,KMHS 160556Z AUTO 00000KT 8SM OVC055 17/06 A3006 RMK AO2 SLP162  T01670056 10300 20161 51018,,47.9,0.0,16.7,30.0,2018-08-16 05:56:00,5.53,1676.4,5.6,,,1.0,,0.0,KMHS,3540,-122.31702,41.31494
523,101828.66,N,,,101650.0,101503.86,504.0,,,,,7.0,89453.64,,KMHS 160656Z AUTO 00000KT 7SM OVC050 15/06 A3007 RMK AO2 SLP165  T01500056,,53.39,0.0,15.0,,2018-08-16 06:56:00,5.53,1524.0,5.6,,,1.0,,0.0,KMHS,3540,-122.31702,41.31494
524,101828.66,N,,,101670.0,101530.36,166.0,,,31.7,,6.0,89453.64,,KMHS 160756Z AUTO 00000KT 6SM HZ FEW016 OVC049 14/04 A3007 RMK AO2  SLP167 T01440044 403170111,494.0,51.04,0.0,14.4,,2018-08-16 07:56:00,4.32,1493.52,4.4,11.1,,1.0,6.0,0.0,KMHS,3540,-122.31702,41.31494
525,101862.52,N,,,101720.0,101662.18,1.0,,,,,9.0,89483.38,2006.0,KMHS 160856Z AUTO 00000KT 9SM CLR 12/03 A3008 RMK AO2 SLP172  T01220028 52006,,52.62,0.0,12.2,,2018-08-16 08:56:00,2.72,,2.8,,,1.0,,0.0,KMHS,3540,-122.31702,41.31494
526,101896.38,ENE,,,101740.0,101718.53,1.0,,,,,10.0,89513.13,,KMHS 160956Z AUTO 06003KT 10SM CLR 12/02 A3009 RMK AO2 SLP174  T01170017,,50.28,1.54,11.7,,2018-08-16 09:56:00,1.61,,1.7,,,1.0,,60.0,KMHS,3540,-122.31702,41.31494
527,101896.38,N,,,,101718.53,113.0,,,,,9.0,89513.13,,SPECI KMHS 161032Z AUTO 00000KT 9SM BKN011 12/02 A3009 RMK AO2 T01170017,,50.28,0.0,11.7,,2018-08-16 10:32:00,1.61,335.28,1.7,,,1.0,,0.0,KMHS,3540,-122.31702,41.31494
528,101896.38,N,,,101760.0,101768.33,103.0,,,,,8.0,89513.13,,KMHS 161056Z AUTO 00000KT 8SM BKN010 11/02 A3009 RMK AO2 SLP176  T01060017,,54.09,0.0,10.6,,2018-08-16 10:56:00,1.61,304.8,1.7,,,1.0,,0.0,KMHS,3540,-122.31702,41.31494
529,101896.38,N,,,,101718.55,102.0,,,,,8.0,89513.13,,KMHS 161109Z AUTO 00000KT 8SM SCT010 12/01 A3009 RMK AO2  T01170011,,48.16,0.0,11.7,,2018-08-16 11:09:00,1.01,,1.1,,,1.0,,0.0,KMHS,3540,-122.31702,41.31494
530,101896.38,N,,,,101795.65,123.0,,,,,8.0,89513.13,,KMHS 161135Z AUTO 00000KT 8SM BKN012 10/02 A3009 RMK AO2 T01000022,,57.52,0.0,10.0,,2018-08-16 11:35:00,1.92,365.76,2.2,,,1.0,,0.0,KMHS,3540,-122.31702,41.31494
531,101896.38,N,,,,101795.64,122.0,,,,,7.0,89513.13,,KMHS 161142Z AUTO 00000KT 7SM SCT012 10/02 A3009 RMK AO2  T01000022,,58.34,0.0,10.0,,2018-08-16 11:42:00,2.12,,2.2,,,1.0,,0.0,KMHS,3540,-122.31702,41.31494
532,101896.38,N,,,101760.0,101745.64,126.0,,10.0,,,7.0,89513.13,3.0,KMHS 161156Z AUTO 00000KT 7SM FEW012 11/02 A3009 RMK AO2 SLP176  T01110017 10167 20100 50003,,52.32,0.0,11.1,16.7,2018-08-16 11:56:00,1.61,,1.7,,,1.0,,0.0,KMHS,3540,-122.31702,41.31494
533,101896.38,N,,,101810.0,101823.08,1.0,,,,,9.0,89513.13,,KMHS 161256Z AUTO 00000KT 9SM CLR 09/03 A3009 RMK AO2 SLP181  T00940028,,63.39,0.0,9.4,,2018-08-16 12:56:00,2.73,,2.8,,,1.0,,0.0,KMHS,3540,-122.31702,41.31494
534,101964.11,N,,,101870.0,101890.73,1.0,,,,,5.0,89572.62,,KMHS 161356Z AUTO 00000KT 5SM HZ CLR 09/03 A3011 RMK AO2 SLP187  T00940033,,65.67,0.0,9.4,,2018-08-16 13:56:00,3.23,,3.3,,,1.0,6.0,0.0,KMHS,3540,-122.31702,41.31494
535,101997.98,N,,,101870.0,101672.62,1.0,,,,,7.0,89602.38,3008.0,KMHS 161456Z AUTO 00000KT 7SM CLR 15/06 A3012 RMK AO2 SLP187  T01500061 53008,,55.27,0.0,15.0,,2018-08-16 14:56:00,6.03,,6.1,,,1.0,,0.0,KMHS,3540,-122.31702,41.31494
536,101997.98,N,,,101900.0,101481.76,1.0,,,,,3.0,89602.38,,KMHS 161556Z AUTO 00000KT 3SM HZ CLR 19/08 A3012 RMK AO2 SLP190  T01940078,,47.03,0.0,19.4,,2018-08-16 15:56:00,7.75,,7.8,,,1.0,6.0,0.0,KMHS,3540,-122.31702,41.31494
537,102031.84,N,,,,101305.87,1.0,,,,,2.5,89632.12,,SPECI KMHS 161649Z AUTO 00000KT 2 1/2SM HZ CLR 24/06 A3013 RMK AO2 T02440056,,29.81,0.0,24.4,,2018-08-16 16:49:00,5.59,,5.6,,,1.0,6.0,0.0,KMHS,3540,-122.31702,41.31494
538,102031.84,N,,,101870.0,101281.18,1.0,,,,,2.5,89632.12,,KMHS 161656Z AUTO 00000KT 2 1/2SM HZ CLR 25/06 A3013 RMK AO2  SLP187 T02500061,,29.78,0.0,25.0,,2018-08-16 16:56:00,6.1,,6.1,,,1.0,6.0,0.0,KMHS,3540,-122.31702,41.31494
539,102031.84,N,,,,101236.25,1.0,,,,,3.0,89632.12,,SPECI KMHS 161713Z AUTO 00000KT 3SM HZ CLR 26/06 A3013 RMK AO2 T02610056,,26.95,0.0,26.1,,2018-08-16 17:13:00,5.62,,5.6,,,1.0,6.0,0.0,KMHS,3540,-122.31702,41.31494
540,102031.84,N,,26.63,101870.0,101167.55,432.0,,8.9,,,10.0,89632.12,1005.0,KMHS 161756Z AUTO 00000KT 10SM SCT043 28/03 A3013 RMK AO2 SLP187  T02780033 10283 20089 51005,,20.77,0.0,27.8,28.3,2018-08-16 17:56:00,3.36,,3.3,,,1.0,,0.0,KMHS,3540,-122.31702,41.31494
541,102031.84,N,,27.74,101880.0,101103.54,402.0,,,,,8.0,89632.12,,KMHS 161856Z AUTO 00000KT 8SM SCT040 29/03 A3013 RMK AO2 SLP188  T02940033,,18.93,0.0,29.4,,2018-08-16 18:56:00,3.39,,3.3,,,1.0,,0.0,KMHS,3540,-122.31702,41.31494
542,102031.84,N,,28.19,101860.0,101079.72,432.0,,,,,4.0,89632.12,,KMHS 161956Z AUTO 00000KT 4SM HZ SCT043 30/03 A3013 RMK AO2 SLP186  T03000033,,18.29,0.0,30.0,,2018-08-16 19:56:00,3.41,,3.3,,,1.0,6.0,0.0,KMHS,3540,-122.31702,41.31494
543,102031.84,N,,28.21,,101079.7,293.0,,,,,2.5,89632.12,,SPECI KMHS 162015Z AUTO 00000KT 2 1/2SM HZ BKN029 30/04 A3013 RMK AO2 T03000039,,19.08,0.0,30.0,,2018-08-16 20:15:00,4.0,883.92,3.9,,,1.0,6.0,0.0,KMHS,3540,-122.31702,41.31494
544,102031.84,N,,28.16,,101079.77,273.0,,,,,1.75,89632.12,,KMHS 162030Z AUTO 00000KT 1 3/4SM HZ BKN027 BKN036 30/02 A3013 RMK AO2 T03000022,363.0,16.68,0.0,30.0,,2018-08-16 20:30:00,2.12,822.96,2.2,,,1.0,6.0,0.0,KMHS,3540,-122.31702,41.31494
545,102031.84,N,,28.67,101880.0,101056.0,273.0,,,,,1.25,89632.12,8001.0,KMHS 162056Z AUTO 00000KT 1 1/4SM HZ BKN027 OVC038 31/03 A3013 RMK AO2 SLP188 T03060033 58001,384.0,17.67,0.0,30.6,,2018-08-16 20:56:00,3.42,822.96,3.3,,,1.0,6.0,0.0,KMHS,3540,-122.31702,41.31494
546,102031.84,N,,28.11,,101079.88,324.0,,,,,1.75,89632.12,,KMHS 162115Z AUTO 00000KT 1 3/4SM HZ OVC032 30/M02 A3013 RMK AO2  T03001017,,12.75,0.0,30.0,,2018-08-16 21:15:00,-1.55,975.36,-1.7,,,1.0,6.0,0.0,KMHS,3540,-122.31702,41.31494
547,102031.84,,,28.61,,101056.13,283.0,,,,,1.75,89632.12,,SPECI KMHS 162131Z AUTO VRB03KT 1 3/4SM HZ BKN028 OVC037 31/M01 A3013 RMK AO2 T03061006,374.0,13.35,1.54,30.6,,2018-08-16 21:31:00,-0.45,853.44,-0.6,,,1.0,6.0,,KMHS,3540,-122.31702,41.31494
548,101997.98,N,,27.69,101880.0,101070.07,263.0,,,,,1.5,89602.38,,KMHS 162156Z AUTO 00000KT 1 1/2SM HZ BKN026 OVC035 29/01 A3012 RMK AO2 SLP188 T02940011,354.0,16.18,0.0,29.4,,2018-08-16 21:56:00,1.21,792.48,1.1,,,1.0,6.0,0.0,KMHS,3540,-122.31702,41.31494
549,101997.98,N,,28.13,,101046.31,253.0,,,,,2.0,89602.38,,SPECI KMHS 162240Z AUTO 00000KT 2SM HZ BKN025 OVC037 30/M01 A3012 RMK AO2 T03001006,374.0,13.82,0.0,30.0,,2018-08-16 22:40:00,-0.46,762.0,-0.6,,,1.0,6.0,0.0,KMHS,3540,-122.31702,41.31494
550,101997.98,N,,28.13,101850.0,101046.31,323.0,,,,,2.0,89602.38,,KMHS 162256Z AUTO 00000KT 2SM HZ BKN032 OVC041 30/M01 A3012 RMK AO2 SLP185 T03001006,414.0,13.82,0.0,30.0,,2018-08-16 22:56:00,-0.46,975.36,-0.6,,,1.0,6.0,0.0,KMHS,3540,-122.31702,41.31494
551,101964.11,N,,27.32,101850.0,101056.42,353.0,,28.9,,,2.0,89572.62,7005.0,KMHS 162356Z AUTO 00000KT 2SM HZ BKN035 OVC043 29/01 A3011 RMK AO2  SLP185 T02890011 10311 20289 57005,434.0,16.65,0.0,28.9,31.1,2018-08-16 23:56:00,1.19,1066.8,1.1,,,1.0,6.0,0.0,KMHS,3540,-122.31702,41.31494
552,101964.11,N,,26.92,,101080.37,334.0,,,,,1.75,89572.62,,KMHS 170011Z AUTO 00000KT 1 3/4SM HZ OVC033 28/02 A3011 RMK AO2 T02830017,,18.72,0.0,28.3,,2018-08-17 00:11:00,2.32,1005.84,1.7,,,1.0,6.0,0.0,KMHS,3540,-122.31702,41.31494
553,101964.11,N,,26.49,101880.0,101124.6,324.0,,,,,1.75,89572.62,,KMHS 170056Z AUTO 00000KT 1 3/4SM HZ OVC032 27/02 A3011 RMK AO2  SLP188 T02720022,,19.89,0.0,27.2,,2018-08-17 00:56:00,2.25,975.36,2.2,,,1.0,6.0,0.0,KMHS,3540,-122.31702,41.31494
554,101964.11,N,,26.48,,101124.62,324.0,,,,,2.0,89572.62,,SPECI KMHS 170104Z AUTO 00000KT 2SM HZ OVC032 27/02 A3011 RMK AO2 T02720017,,19.19,0.0,27.2,,2018-08-17 01:04:00,1.75,975.36,1.7,,,1.0,6.0,0.0,KMHS,3540,-122.31702,41.31494
555,101997.98,N,,,,101202.81,283.0,,,,,2.0,89602.38,,SPECI KMHS 170142Z AUTO 00000KT 2SM HZ BKN028 OVC036 26/02 A3012 RMK AO2 T02610017,364.0,20.47,0.0,26.1,,2018-08-17 01:42:00,1.73,853.44,1.7,,,1.0,6.0,0.0,KMHS,3540,-122.31702,41.31494
556,101997.98,E,,,,101206.87,324.0,,,,,2.5,89602.38,,KMHS 170154Z AUTO 08004KT 2 1/2SM HZ OVC032 26/02 A3012 RMK AO2,,21.04,2.06,26.0,,2018-08-17 01:54:00,2.03,975.36,2.0,,,1.0,6.0,80.0,KMHS,3540,-122.31702,41.31494
557,101997.98,E,,,101920.0,101202.79,324.0,,,,,2.5,89602.38,,KMHS 170156Z AUTO 09004KT 2 1/2SM HZ OVC032 26/02 A3012 RMK AO2  SLP192 T02610022,,21.22,2.06,26.1,,2018-08-17 01:56:00,2.23,975.36,2.2,,,1.0,6.0,90.0,KMHS,3540,-122.31702,41.31494
558,101997.98,N,,,,101223.18,324.0,,,,,3.0,89602.38,,SPECI KMHS 170216Z AUTO 00000KT 3SM HZ OVC032 26/02 A3012 RMK AO2 T02560022,,21.86,0.0,25.6,,2018-08-17 02:16:00,2.23,975.36,2.2,,,1.0,6.0,0.0,KMHS,3540,-122.31702,41.31494
559,102031.84,E,,,101930.0,101326.62,344.0,,,,,4.0,89632.12,3007.0,KMHS 170256Z AUTO 08003KT 4SM HZ OVC034 24/03 A3013 RMK AO2 SLP193  T02390028 53007,,25.24,1.54,23.9,,2018-08-17 02:56:00,2.79,1036.32,2.8,,,1.0,6.0,80.0,KMHS,3540,-122.31702,41.31494
560,102099.57,N,,,101990.0,101583.01,354.0,,,,,5.0,89691.62,,KMHS 170356Z AUTO 00000KT 5SM HZ OVC035 19/04 A3015 RMK AO2 SLP199  T01940039,,35.9,0.0,19.4,,2018-08-17 03:56:00,3.84,1066.8,3.9,,,1.0,6.0,0.0,KMHS,3540,-122.31702,41.31494
561,102167.3,N,,,102020.0,101697.56,334.0,,,,,3.0,89751.12,,KMHS 170456Z AUTO 00000KT 3SM HZ OVC033 18/05 A3017 RMK AO2 SLP202  T01830050,,41.53,0.0,18.3,,2018-08-17 04:56:00,4.94,1005.84,5.0,,,1.0,6.0,0.0,KMHS,3540,-122.31702,41.31494
562,102201.16,NE,,,,101752.88,344.0,,,,,2.5,89780.87,,SPECI KMHS 170510Z AUTO 05003KT 2 1/2SM HZ OVC034 18/04 A3018 RMK AO2 T01780044,,41.1,1.54,17.8,,2018-08-17 05:10:00,4.33,1036.32,4.4,,,1.0,6.0,50.0,KMHS,3540,-122.31702,41.31494
563,102235.02,N,,,102090.0,101909.0,424.0,,15.0,,,2.5,89810.61,3018.0,KMHS 170556Z AUTO 00000KT 2 1/2SM HZ OVC042 15/04 A3019 RMK AO2  SLP209 T01500039 10289 20150 53018,,47.41,0.0,15.0,28.9,2018-08-17 05:56:00,3.82,1280.16,3.9,,,1.0,6.0,0.0,KMHS,3540,-122.31702,41.31494
564,102235.02,N,,,102110.0,101957.81,454.0,,,,,2.5,89810.61,,KMHS 170656Z AUTO 00000KT 2 1/2SM HZ OVC045 14/03 A3019 RMK AO2  SLP211 T01390028,,47.09,0.0,13.9,,2018-08-17 06:56:00,2.71,1371.6,2.8,,,1.0,6.0,0.0,KMHS,3540,-122.31702,41.31494
565,102268.89,N,,,102130.0,102018.36,374.0,,,31.1,,2.5,89840.36,,KMHS 170756Z AUTO 00000KT 2 1/2SM HZ OVC037 13/03 A3020 RMK AO2  SLP213 T01330028 403110089,,48.97,0.0,13.3,,2018-08-17 07:56:00,2.72,1127.76,2.8,8.9,,1.0,6.0,0.0,KMHS,3540,-122.31702,41.31494
566,102302.75,N,,,102140.0,102101.49,374.0,,,,,2.5,89870.11,1005.0,KMHS 170856Z AUTO 00000KT 2 1/2SM HZ OVC037 12/04 A3021 RMK AO2  SLP214 T01220044 51005,,58.91,0.0,12.2,,2018-08-17 08:56:00,4.33,1127.76,4.4,,,1.0,6.0,0.0,KMHS,3540,-122.31702,41.31494
567,102268.89,NE,,,102160.0,102090.25,374.0,,,,,2.5,89840.36,,KMHS 170956Z AUTO 05004KT 2 1/2SM HZ OVC037 12/05 A3020 RMK AO2  SLP216 T01170050,,63.48,2.06,11.7,,2018-08-17 09:56:00,4.93,1127.76,5.0,,,1.0,6.0,50.0,KMHS,3540,-122.31702,41.31494
568,102268.89,N,,,102150.0,102140.2,344.0,,,,,2.5,89840.36,,KMHS 171056Z AUTO 00000KT 2 1/2SM HZ OVC034 11/06 A3020 RMK AO2  SLP215 T01060056,,71.19,0.0,10.6,,2018-08-17 10:56:00,5.55,1036.32,5.6,,,1.0,6.0,0.0,KMHS,3540,-122.31702,41.31494
569,102268.89,N,,,102180.0,102140.2,294.0,,10.0,,,2.5,89840.36,5000.0,KMHS 171156Z AUTO 00000KT 2 1/2SM HZ OVC029 11/06 A3020 RMK AO2  SLP218 T01060056 10156 20100 55000,,71.19,0.0,10.6,15.6,2018-08-17 11:56:00,5.55,883.92,5.6,,,1.0,6.0,0.0,KMHS,3540,-122.31702,41.31494
570,102302.75,N,,,102220.0,102229.06,284.0,,,,,2.5,89870.11,,KMHS 171256Z AUTO 00000KT 2 1/2SM HZ OVC028 09/05 A3021 RMK AO2  SLP222 T00940050,,73.99,0.0,9.4,,2018-08-17 12:56:00,4.95,853.44,5.0,,,1.0,6.0,0.0,KMHS,3540,-122.31702,41.31494
571,102302.75,N,,,,102229.06,294.0,,,,,1.25,89870.11,,KMHS 171332Z AUTO 00000KT 1 1/4SM HZ OVC029 09/05 A3021 RMK AO2  T00940050,,73.99,0.0,9.4,,2018-08-17 13:32:00,4.95,883.92,5.0,,,1.0,6.0,0.0,KMHS,3540,-122.31702,41.31494
572,102302.75,N,,,102250.0,102229.06,284.0,,,,,1.25,89870.11,,KMHS 171356Z AUTO 00000KT 1 1/4SM HZ OVC028 09/05 A3021 RMK AO2  SLP225 T00940050,,73.99,0.0,9.4,,2018-08-17 13:56:00,4.95,853.44,5.0,,,1.0,6.0,0.0,KMHS,3540,-122.31702,41.31494
573,102302.75,N,,,,102201.49,274.0,,,,,1.5,89870.11,,KMHS 171409Z AUTO 00000KT 1 1/2SM HZ OVC027 10/05 A3021 RMK AO2  T01000050,,71.08,0.0,10.0,,2018-08-17 14:09:00,4.95,822.96,5.0,,,1.0,6.0,0.0,KMHS,3540,-122.31702,41.31494
574,102336.62,N,,,,102185.06,273.0,,,,,2.0,89899.86,,SPECI KMHS 171431Z AUTO 00000KT 2SM HZ BKN027 11/06 A3022 RMK AO2 T01110056,,68.87,0.0,11.1,,2018-08-17 14:31:00,5.54,822.96,5.6,,,1.0,6.0,0.0,KMHS,3540,-122.31702,41.31494
575,102302.75,N,,,,102124.0,282.0,,,,,2.5,89870.11,,SPECI KMHS 171443Z AUTO 00000KT 2 1/2SM HZ SCT028 12/06 A3021 RMK AO2 T01170061,,68.52,0.0,11.7,,2018-08-17 14:43:00,6.04,,6.1,,,1.0,6.0,0.0,KMHS,3540,-122.31702,41.31494
576,102336.62,N,,,102260.0,102108.11,1.0,,,,,2.5,89899.86,3004.0,KMHS 171456Z AUTO 00000KT 2 1/2SM HZ CLR 13/08 A3022 RMK AO2  SLP226 T01280078 53004,,71.62,0.0,12.8,,2018-08-17 14:56:00,7.75,,7.8,,,1.0,6.0,0.0,KMHS,3540,-122.31702,41.31494
577,102336.62,N,,,,101983.6,1.0,,,,,3.0,89899.86,,SPECI KMHS 171519Z AUTO 00000KT 3SM HZ CLR 16/08 A3022 RMK AO2 T01560083,,61.82,0.0,15.6,,2018-08-17 15:19:00,8.25,,8.3,,,1.0,6.0,0.0,KMHS,3540,-122.31702,41.31494
578,102336.62,N,,,102250.0,101865.81,1.0,,,,,3.0,89899.86,,KMHS 171556Z AUTO 00000KT 3SM HZ CLR 18/11 A3022 RMK AO2 SLP225  T01830106,,60.82,0.0,18.3,,2018-08-17 15:56:00,10.56,,10.6,,,1.0,6.0,0.0,KMHS,3540,-122.31702,41.31494
579,102302.75,N,,,102190.0,101641.0,1.0,,,,,3.0,89870.11,,KMHS 171656Z AUTO 00000KT 3SM HZ CLR 23/12 A3021 RMK AO2 SLP219  T02280117,,49.59,0.0,22.8,,2018-08-17 16:56:00,11.68,,11.7,,,1.0,6.0,0.0,KMHS,3540,-122.31702,41.31494
580,102336.62,N,,,102210.0,101558.89,374.0,,8.9,,,3.0,89899.86,3000.0,KMHS 171756Z AUTO 00000KT 3SM HZ OVC037 26/10 A3022 RMK AO2 SLP221  T02560100 10256 20089 53000,,37.46,0.0,25.6,25.6,2018-08-17 17:56:00,10.0,1127.76,10.0,,,1.0,6.0,0.0,KMHS,3540,-122.31702,41.31494
581,102336.62,N,,,102220.0,101538.47,334.0,,,,,2.5,89899.86,,KMHS 171856Z AUTO 00000KT 2 1/2SM HZ OVC033 26/09 A3022 RMK AO2  SLP222 T02610094,,34.94,0.0,26.1,,2018-08-17 18:56:00,9.41,1005.84,9.4,,,1.0,6.0,0.0,KMHS,3540,-122.31702,41.31494
582,102268.89,N,,27.86,102110.0,101338.32,303.0,,,,,2.0,89840.36,,KMHS 171956Z AUTO 00000KT 2SM HZ BKN030 OVC034 29/06 A3020 RMK AO2  SLP211 T02940061,344.0,23.02,0.0,29.4,,2018-08-17 19:56:00,6.18,914.4,6.1,,,1.0,6.0,0.0,KMHS,3540,-122.31702,41.31494
583,102235.02,N,,27.83,,101304.79,283.0,,,,,1.75,89810.61,,SPECI KMHS 172003Z AUTO 00000KT 1 3/4SM HZ BKN028 OVC034 29/06 A3019 RMK AO2 T02940056,344.0,22.24,0.0,29.4,,2018-08-17 20:03:00,5.68,853.44,5.6,,,1.0,6.0,0.0,KMHS,3540,-122.31702,41.31494
584,102235.02,N,,27.8,,101304.81,263.0,,,,,2.0,89810.61,,SPECI KMHS 172016Z AUTO 00000KT 2SM HZ BKN026 OVC033 29/05 A3019 RMK AO2 T02940050,334.0,21.33,0.0,29.4,,2018-08-17 20:16:00,5.08,792.48,5.0,,,1.0,6.0,0.0,KMHS,3540,-122.31702,41.31494
585,102201.16,,,28.21,102080.0,101247.45,324.0,,,,,2.5,89780.87,8010.0,KMHS 172056Z AUTO VRB04KT 2 1/2SM HZ OVC032 30/04 A3018 RMK AO2  SLP208 T03000039 58010,,19.08,2.06,30.0,,2018-08-17 20:56:00,4.0,975.36,3.9,,,1.0,6.0,,KMHS,3540,-122.31702,41.31494
586,102201.16,N,,28.23,,101247.43,283.0,,,,,1.5,89780.87,,KMHS 172126Z AUTO 00000KT 1 1/2SM HZ BKN028 OVC036 30/04 A3018 RMK AO2 T03000044,364.0,19.76,0.0,30.0,,2018-08-17 21:26:00,4.5,853.44,4.4,,,1.0,6.0,0.0,KMHS,3540,-122.31702,41.31494
587,102167.3,N,,28.26,102040.0,101213.86,283.0,,,,,1.25,89751.12,,KMHS 172156Z AUTO 00000KT 1 1/4SM HZ BKN028 OVC034 30/05 A3017 RMK AO2 SLP204 T03000050,344.0,20.61,0.0,30.0,,2018-08-17 21:56:00,5.1,853.44,5.0,,,1.0,6.0,0.0,KMHS,3540,-122.31702,41.31494
588,102133.43,N,,27.86,,101204.1,283.0,,,,,0.75,89721.37,,SPECI KMHS 172231Z AUTO 00000KT 3/4SM HZ BKN028 OVC035 29/06 A3016 RMK AO2 T02940061,354.0,23.02,0.0,29.4,,2018-08-17 22:31:00,6.18,853.44,6.1,,,1.0,6.0,0.0,KMHS,3540,-122.31702,41.31494
589,102133.43,N,,27.8,102010.0,101204.15,293.0,,,,,0.75,89721.37,,KMHS 172256Z AUTO 00000KT 3/4SM HZ BKN029 OVC036 29/05 A3016 RMK AO2 SLP201 T02940050,364.0,21.33,0.0,29.4,,2018-08-17 22:56:00,5.08,883.92,5.0,,,1.0,6.0,0.0,KMHS,3540,-122.31702,41.31494
590,102099.57,,,27.41,,101190.56,303.0,,,,,0.75,89691.62,,SPECI KMHS 172319Z AUTO VRB03KT 3/4SM HZ BKN030 OVC037 29/04 A3015 RMK AO2 T02890044,374.0,21.05,1.54,28.9,,2018-08-17 23:19:00,4.47,914.4,4.4,,,1.0,6.0,,KMHS,3540,-122.31702,41.31494
591,102099.57,N,,27.47,,101190.51,283.0,,,,,0.75,89691.62,,SPECI KMHS 172338Z AUTO 00000KT 3/4SM HZ BKN028 OVC037 29/06 A3015 RMK AO2 T02890056,374.0,22.89,0.0,28.9,,2018-08-17 23:38:00,5.67,853.44,5.6,,,1.0,6.0,0.0,KMHS,3540,-122.31702,41.31494
592,102099.57,N,,27.1,,101214.5,283.0,,,,,1.0,89691.62,,KMHS 172348Z AUTO 00000KT 1SM HZ BKN028 OVC035 28/06 A3015 RMK AO2 T02830056,354.0,24.79,0.0,28.3,,2018-08-17 23:48:00,6.31,853.44,5.6,,,1.0,6.0,0.0,KMHS,3540,-122.31702,41.31494
593,102099.57,N,,27.03,102000.0,101214.55,283.0,,25.0,,,1.0,89691.62,6010.0,KMHS 172356Z AUTO 00000KT 1SM HZ BKN028 OVC035 28/05 A3015 RMK AO2  SLP200 T02830050 10306 20250 56010,354.0,22.73,0.0,28.3,30.6,2018-08-17 23:56:00,5.06,853.44,5.0,,,1.0,6.0,0.0,KMHS,3540,-122.31702,41.31494
594,102099.57,,,26.76,,101234.59,313.0,,,,,1.0,89691.62,,KMHS 180045Z AUTO VRB03KT 1SM HZ BKN031 OVC037 28/06 A3015 RMK AO2  T02780061,374.0,25.25,1.54,27.8,,2018-08-18 00:45:00,6.14,944.88,6.1,,,1.0,6.0,,KMHS,3540,-122.31702,41.31494
595,102099.57,N,,26.73,102000.0,101234.62,314.0,,,,,1.25,89691.62,,KMHS 180056Z AUTO 00000KT 1 1/4SM HZ OVC031 28/06 A3015 RMK AO2  SLP200 T02780056,,24.4,0.0,27.8,,2018-08-18 00:56:00,5.65,944.88,5.6,,,1.0,6.0,0.0,KMHS,3540,-122.31702,41.31494
596,102099.57,N,,,102030.0,101323.88,343.0,,,,,1.25,89691.62,,KMHS 180156Z AUTO 00000KT 1 1/4SM HZ BKN034 OVC043 26/05 A3015 RMK AO2 SLP203 T02560050,434.0,26.63,0.0,25.6,,2018-08-18 01:56:00,5.01,1036.32,5.0,,,1.0,6.0,0.0,KMHS,3540,-122.31702,41.31494
597,102133.43,N,,,102080.0,101544.32,394.0,,,,,1.25,89721.37,3002.0,KMHS 180256Z AUTO 00000KT 1 1/4SM HZ OVC039 21/08 A3016 RMK AO2  SLP208 T02110078 53002,,42.35,0.0,21.1,,2018-08-18 02:56:00,7.76,1188.72,7.8,,,1.0,6.0,0.0,KMHS,3540,-122.31702,41.31494
598,102167.3,N,,,,101599.12,434.0,,,,,2.0,89751.12,,SPECI KMHS 180311Z AUTO 00000KT 2SM HZ OVC043 21/08 A3017 RMK AO2 T02060083,,45.18,0.0,20.6,,2018-08-18 03:11:00,8.26,1310.64,8.3,,,1.0,6.0,0.0,KMHS,3540,-122.31702,41.31494
599,102235.02,ENE,,,102140.0,101739.05,504.0,,,,,2.5,89810.61,,KMHS 180356Z AUTO 07003KT 2 1/2SM HZ OVC050 19/07 A3019 RMK AO2  SLP214 T01890072,,46.57,1.54,18.9,,2018-08-18 03:56:00,7.15,1524.0,7.2,,,1.0,6.0,70.0,KMHS,3540,-122.31702,41.31494
600,102302.75,ENE,,,102190.0,101901.73,554.0,,,,,2.5,89870.11,,KMHS 180456Z AUTO 06003KT 2 1/2SM HZ OVC055 17/07 A3021 RMK AO2  SLP219 T01670067,,51.67,1.54,16.7,,2018-08-18 04:56:00,6.64,1676.4,6.7,,,1.0,6.0,60.0,KMHS,3540,-122.31702,41.31494
601,102302.75,N,,,102190.0,101949.96,504.0,,15.0,,,2.5,89870.11,1016.0,KMHS 180556Z AUTO 00000KT 2 1/2SM HZ OVC050 16/06 A3021 RMK AO2  SLP219 T01560061 10283 20150 51016,,53.18,0.0,15.6,28.3,2018-08-18 05:56:00,6.03,1524.0,6.1,,,1.0,6.0,0.0,KMHS,3540,-122.31702,41.31494
602,102302.75,ENE,,,,102020.77,394.0,,,,,3.0,89870.11,,KMHS 180653Z AUTO 06003KT 3SM HZ OVC039 14/06 A3021 RMK AO2,,58.55,1.54,14.0,,2018-08-18 06:53:00,5.94,1188.72,6.0,,,1.0,6.0,60.0,KMHS,3540,-122.31702,41.31494
603,102302.75,ENE,,,102190.0,102003.01,394.0,,,,,3.0,89870.11,,KMHS 180656Z AUTO 07003KT 3SM HZ OVC039 14/06 A3021 RMK AO2 SLP219  T01440056,,55.49,1.54,14.4,,2018-08-18 06:56:00,5.53,1188.72,5.6,,,1.0,6.0,70.0,KMHS,3540,-122.31702,41.31494
604,102336.62,ENE,,,102200.0,102135.23,394.0,,,30.6,,3.0,89899.86,,KMHS 180756Z AUTO 06003KT 3SM HZ OVC039 12/06 A3022 RMK AO2 SLP220  T01220056 403060089,,64.04,1.54,12.2,,2018-08-18 07:56:00,5.54,1188.72,5.6,8.9,,1.0,6.0,60.0,KMHS,3540,-122.31702,41.31494
605,102336.62,N,,,,102185.06,404.0,,,,,2.5,89899.86,,SPECI KMHS 180840Z AUTO 00000KT 2 1/2SM HZ OVC040 11/06 A3022 RMK AO2 T01110056,,68.87,0.0,11.1,,2018-08-18 08:40:00,5.54,1219.2,5.6,,,1.0,6.0,0.0,KMHS,3540,-122.31702,41.31494
606,102336.62,N,,,102200.0,102157.83,404.0,,,,,3.0,89899.86,2.0,KMHS 180856Z AUTO 00000KT 3SM HZ OVC040 12/06 A3022 RMK AO2 SLP220  T01170056 50002,,66.19,0.0,11.7,,2018-08-18 08:56:00,5.54,1219.2,5.6,,,1.0,6.0,0.0,KMHS,3540,-122.31702,41.31494
607,102336.62,N,,,102200.0,102207.87,1.0,,,,,3.0,89899.86,,KMHS 180956Z AUTO 00000KT 3SM HZ CLR 11/05 A3022 RMK AO2 SLP220  T01060050,,68.29,0.0,10.6,,2018-08-18 09:56:00,4.94,,5.0,,,1.0,6.0,0.0,KMHS,3540,-122.31702,41.31494
608,102336.62,N,,,102220.0,102207.87,1.0,,,,,3.0,89899.86,,KMHS 181056Z AUTO 00000KT 3SM HZ CLR 11/05 A3022 RMK AO2 SLP222  T01060050,,68.29,0.0,10.6,,2018-08-18 10:56:00,4.94,,5.0,,,1.0,6.0,0.0,KMHS,3540,-122.31702,41.31494
609,102302.75,N,,,102230.0,102229.03,1.0,,9.4,,,3.0,89870.11,6002.0,KMHS 181156Z AUTO 00000KT 3SM HZ CLR 09/06 A3021 RMK AO2 SLP223  T00940056 10156 20094 56002,,77.15,0.0,9.4,15.6,2018-08-18 11:56:00,5.56,,5.6,,,1.0,6.0,0.0,KMHS,3540,-122.31702,41.31494
610,102336.62,N,,,102260.0,102285.95,1.0,,,,,4.0,89899.86,,KMHS 181256Z AUTO 00000KT 4SM HZ CLR 09/06 A3022 RMK AO2 SLP226  T00890056,,79.79,0.0,8.9,,2018-08-18 12:56:00,5.56,,5.6,,,1.0,6.0,0.0,KMHS,3540,-122.31702,41.31494
611,102370.48,N,,,102300.0,102296.74,1.0,,,,,4.0,89929.61,,KMHS 181356Z AUTO 00000KT 4SM HZ CLR 09/05 A3023 RMK AO2 SLP230  T00940050,,73.99,0.0,9.4,,2018-08-18 13:56:00,4.95,,5.0,,,1.0,6.0,0.0,KMHS,3540,-122.31702,41.31494
612,102370.48,N,,,102350.0,102168.98,1.0,,,,,4.0,89929.61,3006.0,KMHS 181456Z AUTO 00000KT 4SM HZ CLR 12/07 A3023 RMK AO2 SLP235  T01220067 53006,,69.1,0.0,12.2,,2018-08-18 14:56:00,6.65,,6.7,,,1.0,6.0,0.0,KMHS,3540,-122.31702,41.31494
613,102370.48,N,,,102270.0,101899.52,1.0,,,,,4.0,89929.61,,KMHS 181556Z AUTO 00000KT 4SM HZ CLR 18/11 A3023 RMK AO2 SLP227  T01830106,,60.82,0.0,18.3,,2018-08-18 15:56:00,10.56,,10.6,,,1.0,6.0,0.0,KMHS,3540,-122.31702,41.31494
614,102336.62,N,,,102230.0,101674.68,1.0,,,,,4.0,89899.86,,KMHS 181656Z AUTO 00000KT 4SM HZ CLR 23/11 A3022 RMK AO2 SLP223  T02280111,,47.66,0.0,22.8,,2018-08-18 16:56:00,11.08,,11.1,,,1.0,6.0,0.0,KMHS,3540,-122.31702,41.31494
615,102302.75,N,,26.34,102170.0,101480.4,1.0,,8.9,,,4.0,89870.11,8007.0,KMHS 181756Z AUTO 00000KT 4SM HZ CLR 27/10 A3021 RMK AO2 SLP217  T02670100 10267 20089 58007,,35.11,0.0,26.7,26.7,2018-08-18 17:56:00,10.02,,10.0,,,1.0,6.0,0.0,KMHS,3540,-122.31702,41.31494
616,102268.89,,,28.09,102120.0,101338.19,1.0,,,,,8.0,89840.36,,KMHS 181856Z AUTO VRB03KT 8SM CLR 29/09 A3020 RMK AO2 SLP212  T02940089,,27.87,1.54,29.4,,2018-08-18 18:56:00,8.96,,8.9,,,1.0,,,KMHS,3540,-122.31702,41.31494
617,102235.02,N,,28.49,102090.0,101280.79,1.0,,,,,4.0,89810.61,,KMHS 181956Z AUTO 00000KT 4SM HZ CLR 30/08 A3019 RMK AO2 SLP209  T03000083,,25.86,0.0,30.0,,2018-08-18 19:56:00,8.38,,8.3,,,1.0,6.0,0.0,KMHS,3540,-122.31702,41.31494
618,102167.3,N,,29.34,102040.0,101170.26,1.0,,,,,4.0,89751.12,8011.0,KMHS 182056Z AUTO 00000KT 4SM HZ CLR 31/08 A3017 RMK AO2 SLP204  T03110078 58011,,23.47,0.0,31.1,,2018-08-18 20:56:00,7.9,,7.8,,,1.0,6.0,0.0,KMHS,3540,-122.31702,41.31494
619,102167.3,N,,29.28,,101170.29,334.0,,,,,2.5,89751.12,,SPECI KMHS 182134Z AUTO 00000KT 2 1/2SM HZ OVC033 31/07 A3017 RMK AO2 T03110072,,22.53,0.0,31.1,,2018-08-18 21:34:00,7.31,1005.84,7.2,,,1.0,6.0,0.0,KMHS,3540,-122.31702,41.31494
620,102133.43,ESE,,28.87,,101156.47,293.0,,,,,1.75,89721.37,,KMHS 182148Z AUTO 11003KT 1 3/4SM HZ BKN029 OVC036 31/07 A3016 RMK AO2 T03060072,364.0,23.18,1.54,30.6,,2018-08-18 21:48:00,7.3,883.92,7.2,,,1.0,6.0,110.0,KMHS,3540,-122.31702,41.31494
621,102133.43,N,,28.83,102010.0,101156.49,294.0,,,,,1.5,89721.37,,KMHS 182156Z AUTO 00000KT 1 1/2SM HZ OVC029 31/07 A3016 RMK AO2  SLP201 T03060067,,22.4,0.0,30.6,,2018-08-18 21:56:00,6.8,883.92,6.7,,,1.0,6.0,0.0,KMHS,3540,-122.31702,41.31494
622,102133.43,N,,28.91,,101156.44,273.0,,,,,1.25,89721.37,,KMHS 182206Z AUTO 00000KT 1 1/4SM HZ BKN027 OVC035 31/08 A3016 RMK AO2 T03060078,354.0,23.93,0.0,30.6,,2018-08-18 22:06:00,7.76,822.96,7.8,,,1.0,6.0,0.0,KMHS,3540,-122.31702,41.31494
623,102065.7,N,,29.34,101920.0,101069.65,304.0,,,,,1.25,89661.87,,KMHS 182256Z AUTO 00000KT 1 1/4SM HZ OVC030 31/08 A3014 RMK AO2  SLP192 T03110078,,23.47,0.0,31.1,,2018-08-18 22:56:00,7.9,914.4,7.8,,,1.0,6.0,0.0,KMHS,3540,-122.31702,41.31494
624,102031.84,,,29.39,,101036.09,303.0,,,,,1.5,89632.12,,SPECI KMHS 182310Z AUTO VRB03KT 1 1/2SM HZ BKN030 OVC038 31/08 A3013 RMK AO2 T03110083,384.0,24.28,1.54,31.1,,2018-08-18 23:10:00,8.4,914.4,8.3,,,1.0,6.0,,KMHS,3540,-122.31702,41.31494
625,101997.98,N,,28.92,,101022.28,293.0,,,,,1.75,89602.38,,KMHS 182339Z AUTO 00000KT 1 3/4SM HZ BKN029 OVC036 31/08 A3012 RMK AO2 T03060078,364.0,24.15,0.0,30.6,,2018-08-18 23:39:00,7.89,883.92,7.8,,,1.0,6.0,0.0,KMHS,3540,-122.31702,41.31494
626,101997.98,,,28.87,101880.0,101022.31,293.0,,28.9,,,2.0,89602.38,8017.0,KMHS 182356Z AUTO VRB03KT 2SM HZ BKN029 OVC036 31/07 A3012 RMK AO2  SLP188 T03060072 10311 20289 58017,364.0,23.18,1.54,30.6,31.1,2018-08-18 23:56:00,7.3,883.92,7.2,,,1.0,6.0,,KMHS,3540,-122.31702,41.31494
627,101964.11,,,27.9,101850.0,101036.29,303.0,,,,,2.0,89572.62,,KMHS 190056Z AUTO VRB03KT 2SM HZ BKN030 OVC036 29/07 A3011 RMK AO2  SLP185 T02940067,364.0,23.99,1.54,29.4,,2018-08-19 00:56:00,6.77,914.4,6.7,,,1.0,6.0,,KMHS,3540,-122.31702,41.31494
628,101964.11,,,27.57,,101056.18,293.0,,,,,1.75,89572.62,,SPECI KMHS 190105Z AUTO VRB03KT 1 3/4SM HZ BKN029 OVC038 29/07 A3011 RMK AO2 T02890072,384.0,25.56,1.54,28.9,,2018-08-19 01:05:00,7.26,883.92,7.2,,,1.0,6.0,,KMHS,3540,-122.31702,41.31494
629,101964.11,N,,27.57,,101056.18,294.0,,,,,2.0,89572.62,,SPECI KMHS 190126Z AUTO 00000KT 2SM HZ OVC029 29/07 A3011 RMK AO2 T02890072,,25.56,0.0,28.9,,2018-08-19 01:26:00,7.26,883.92,7.2,,,1.0,6.0,0.0,KMHS,3540,-122.31702,41.31494
630,101964.11,N,,27.21,,101080.13,304.0,,,,,2.0,89572.62,,SPECI KMHS 190141Z AUTO 00000KT 2SM HZ OVC030 28/08 A3011 RMK AO2 T02830078,,27.56,0.0,28.3,,2018-08-19 01:41:00,7.85,914.4,7.8,,,1.0,6.0,0.0,KMHS,3540,-122.31702,41.31494
631,101964.11,N,,26.88,101860.0,101100.2,304.0,,,,,2.0,89572.62,,KMHS 190156Z AUTO 00000KT 2SM HZ OVC030 28/08 A3011 RMK AO2 SLP186  T02780078,,28.38,0.0,27.8,,2018-08-19 01:56:00,7.84,914.4,7.8,,,1.0,6.0,0.0,KMHS,3540,-122.31702,41.31494
632,101964.11,E,,,101870.0,101168.97,354.0,,,,,2.5,89572.62,5001.0,KMHS 190256Z AUTO 08004KT 2 1/2SM HZ OVC035 26/07 A3011 RMK AO2  SLP187 T02610072 55001,,30.09,2.06,26.1,,2018-08-19 02:56:00,7.21,1066.8,7.2,,,1.0,6.0,80.0,KMHS,3540,-122.31702,41.31494
633,101997.98,N,,,,101292.75,394.0,,,,,4.0,89602.38,,KMHS 190315Z AUTO 00000KT 4SM HZ OVC039 24/08 A3012 RMK AO2  T02390083,,36.97,0.0,23.9,,2018-08-19 03:15:00,8.28,1188.72,8.3,,,1.0,6.0,0.0,KMHS,3540,-122.31702,41.31494
634,102065.7,N,,,101970.0,101523.49,384.0,,,,,4.0,89661.87,,KMHS 190356Z AUTO 00000KT 4SM HZ OVC038 20/09 A3014 RMK AO2 SLP197  T02000094,,50.49,0.0,20.0,,2018-08-19 03:56:00,9.36,1158.24,9.4,,,1.0,6.0,0.0,KMHS,3540,-122.31702,41.31494
635,102099.57,N,,,101970.0,101604.14,1.0,,,,,4.0,89691.62,,KMHS 190456Z AUTO 00000KT 4SM HZ CLR 19/09 A3015 RMK AO2 SLP197  T01890094,,54.06,0.0,18.9,,2018-08-19 04:56:00,9.35,,9.4,,,1.0,6.0,0.0,KMHS,3540,-122.31702,41.31494
636,102099.57,N,,,101970.0,101699.27,1.0,,16.7,,,4.0,89691.62,1012.0,KMHS 190556Z AUTO 00000KT 4SM HZ CLR 17/08 A3015 RMK AO2 SLP197  T01670083 10306 20167 51012,,57.64,0.0,16.7,30.6,2018-08-19 05:56:00,8.25,,8.3,,,1.0,6.0,0.0,KMHS,3540,-122.31702,41.31494
637,102099.57,N,,,101940.0,101800.34,1.0,,,,,4.0,89691.62,,KMHS 190656Z AUTO 00000KT 4SM HZ CLR 14/07 A3015 RMK AO2 SLP194  T01440072,,61.96,0.0,14.4,,2018-08-19 06:56:00,7.14,,7.2,,,1.0,6.0,0.0,KMHS,3540,-122.31702,41.31494
638,102099.57,N,,,101930.0,101822.61,1.0,,,31.1,,5.0,89691.62,,KMHS 190756Z AUTO 00000KT 5SM HZ CLR 14/06 A3015 RMK AO2 SLP193  T01390056 403110089,,57.32,0.0,13.9,,2018-08-19 07:56:00,5.53,,5.6,8.9,,1.0,6.0,0.0,KMHS,3540,-122.31702,41.31494
639,102065.7,N,,,101900.0,101837.89,483.0,,,,,4.0,89661.87,8005.0,KMHS 190856Z AUTO 00000KT 4SM HZ BKN048 13/06 A3014 RMK AO2 SLP190  T01280061 58005,,63.74,0.0,12.8,,2018-08-19 08:56:00,6.04,1463.04,6.1,,,1.0,6.0,0.0,KMHS,3540,-122.31702,41.31494
640,102031.84,N,,,101880.0,101853.56,456.0,,,,,4.0,89632.12,,KMHS 190956Z AUTO 00000KT 4SM HZ FEW045 12/06 A3013 RMK AO2 SLP188  T01170061,,68.52,0.0,11.7,,2018-08-19 09:56:00,6.04,,6.1,,,1.0,6.0,0.0,KMHS,3540,-122.31702,41.31494
641,102031.84,N,,,101880.0,101880.71,1.0,,,,,4.0,89632.12,,KMHS 191056Z AUTO 00000KT 4SM HZ CLR 11/06 A3013 RMK AO2 SLP188  T01110061,,71.29,0.0,11.1,,2018-08-19 10:56:00,6.05,,6.1,,,1.0,6.0,0.0,KMHS,3540,-122.31702,41.31494
642,102031.84,N,,,,101903.45,316.0,,,,,2.0,89632.12,,SPECI KMHS 191146Z AUTO 00000KT 2SM HZ FEW031 11/06 A3013 RMK AO2 T01060056,,71.19,0.0,10.6,,2018-08-19 11:46:00,5.55,,5.6,,,1.0,6.0,0.0,KMHS,3540,-122.31702,41.31494
643,102031.84,N,,,101890.0,101903.45,316.0,,10.0,,,4.0,89632.12,6004.0,KMHS 191156Z AUTO 00000KT 4SM HZ FEW031 11/06 A3013 RMK AO2 SLP189  T01060056 10167 20100 56004,,71.19,0.0,10.6,16.7,2018-08-19 11:56:00,5.55,,5.6,,,1.0,6.0,0.0,KMHS,3540,-122.31702,41.31494
644,102031.84,N,,,101920.0,101930.82,1.0,,,,,4.0,89632.12,,KMHS 191256Z AUTO 00000KT 4SM HZ CLR 10/06 A3013 RMK AO2 SLP192  T01000056,,74.1,0.0,10.0,,2018-08-19 12:56:00,5.55,,5.6,,,1.0,6.0,0.0,KMHS,3540,-122.31702,41.31494
645,102031.84,N,,,101930.0,101903.43,1.0,,,,,3.0,89632.12,,KMHS 191356Z AUTO 00000KT 3SM HZ CLR 11/06 A3013 RMK AO2 SLP193  T01060061,,73.7,0.0,10.6,,2018-08-19 13:56:00,6.05,,6.1,,,1.0,6.0,0.0,KMHS,3540,-122.31702,41.31494
646,101997.98,N,,,,101846.9,1.0,,,,,2.5,89602.38,,SPECI KMHS 191422Z AUTO 00000KT 2 1/2SM HZ CLR 11/06 A3012 RMK AO2 T01110061,,71.29,0.0,11.1,,2018-08-19 14:22:00,6.05,,6.1,,,1.0,6.0,0.0,KMHS,3540,-122.31702,41.31494
647,101997.98,N,,,,101846.86,1.0,,,,,3.0,89602.38,,KMHS 191430Z AUTO 00000KT 3SM HZ CLR 11/07 A3012 RMK AO2  T01110067,,76.35,0.0,11.1,,2018-08-19 14:30:00,7.05,,6.7,,,1.0,6.0,0.0,KMHS,3540,-122.31702,41.31494
648,102031.84,N,,,,101830.97,1.0,,,,,1.75,89632.12,,KMHS 191445Z AUTO 00000KT 1 3/4SM HZ CLR 12/07 A3013 RMK AO2  T01220072,,71.47,0.0,12.2,,2018-08-19 14:45:00,7.14,,7.2,,,1.0,6.0,0.0,KMHS,3540,-122.31702,41.31494
649,102031.84,N,,,101920.0,101754.95,1.0,,,,,3.0,89632.12,1.0,KMHS 191456Z AUTO 00000KT 3SM HZ CLR 14/08 A3013 RMK AO2 SLP192  T01390078 50001,,66.67,0.0,13.9,,2018-08-19 14:56:00,7.75,,7.8,,,1.0,6.0,0.0,KMHS,3540,-122.31702,41.31494
650,101997.98,N,,,101890.0,101481.57,354.0,,,,,3.0,89602.38,,KMHS 191556Z AUTO 00000KT 3SM HZ OVC035 19/11 A3012 RMK AO2 SLP189  T01940111,,58.71,0.0,19.4,,2018-08-19 15:56:00,11.06,1066.8,11.1,,,1.0,6.0,0.0,KMHS,3540,-122.31702,41.31494
651,101964.11,N,,,101820.0,101259.05,304.0,,,,,3.0,89572.62,,KMHS 191656Z AUTO 00000KT 3SM HZ OVC030 24/09 A3011 RMK AO2 SLP182  T02390094,,39.82,0.0,23.9,,2018-08-19 16:56:00,9.38,914.4,9.4,,,1.0,6.0,0.0,KMHS,3540,-122.31702,41.31494
652,101997.98,N,,,,101292.78,293.0,,,,,4.0,89602.38,,KMHS 191706Z AUTO 00000KT 4SM HZ BKN029 24/08 A3012 RMK AO2  T02390078,,35.73,0.0,23.9,,2018-08-19 17:06:00,7.78,883.92,7.8,,,1.0,6.0,0.0,KMHS,3540,-122.31702,41.31494
653,101964.11,N,,,,101213.84,292.0,,,,,4.0,89572.62,,SPECI KMHS 191716Z AUTO 00000KT 4SM HZ SCT029 25/08 A3011 RMK AO2 T02500083,,34.62,0.0,25.0,,2018-08-19 17:16:00,8.3,,8.3,,,1.0,6.0,0.0,KMHS,3540,-122.31702,41.31494
654,101964.11,N,,,,101189.3,293.0,,,,,4.0,89572.62,,SPECI KMHS 191725Z AUTO 00000KT 4SM HZ BKN029 26/08 A3011 RMK AO2 T02560083,,33.41,0.0,25.6,,2018-08-19 17:25:00,8.31,883.92,8.3,,,1.0,6.0,0.0,KMHS,3540,-122.31702,41.31494
655,101930.25,N,,,,101135.35,313.0,,,,,4.0,89542.88,,SPECI KMHS 191736Z AUTO 00000KT 4SM HZ BKN031 26/08 A3010 RMK AO2 T02610078,,31.35,0.0,26.1,,2018-08-19 17:36:00,7.81,944.88,7.8,,,1.0,6.0,0.0,KMHS,3540,-122.31702,41.31494
656,101930.25,N,,,,101135.35,294.0,,,,,3.0,89542.88,,SPECI KMHS 191743Z AUTO 00000KT 3SM HZ OVC029 26/08 A3010 RMK AO2 T02610078,,31.35,0.0,26.1,,2018-08-19 17:43:00,7.81,883.92,7.8,,,1.0,6.0,0.0,KMHS,3540,-122.31702,41.31494
657,101930.25,N,,26.24,101760.0,101110.98,274.0,,10.0,,,3.0,89542.88,8010.0,KMHS 191756Z AUTO 00000KT 3SM HZ OVC027 27/08 A3010 RMK AO2 SLP176  T02670083 10267 20100 58010,,31.31,0.0,26.7,26.7,2018-08-19 17:56:00,8.32,822.96,8.3,,,1.0,6.0,0.0,KMHS,3540,-122.31702,41.31494
658,101862.52,N,,27.45,,100979.3,312.0,,,,,3.0,89483.38,,KMHS 191827Z AUTO 00000KT 3SM HZ SCT031 28/10 A3008 RMK AO2  T02830100,,32.54,0.0,28.3,,2018-08-19 18:27:00,10.3,,10.0,,,1.0,6.0,0.0,KMHS,3540,-122.31702,41.31494
659,101862.52,N,,27.42,,100979.31,293.0,,,,,2.5,89483.38,,KMHS 191833Z AUTO 00000KT 2 1/2SM HZ BKN029 28/10 A3008 RMK AO2  T02830100,,31.98,0.0,28.3,,2018-08-19 18:33:00,10.04,883.92,10.0,,,1.0,6.0,0.0,KMHS,3540,-122.31702,41.31494
