,date_time,altimeter_set_1,wind_cardinal_direction_set_1d,weather_condition_set_1d,wind_gust_set_1,metar_set_1,ceiling_set_1,dew_point_temperature_set_1,cloud_layer_2_code_set_1,cloud_layer_3_code_set_1,dew_point_temperature_set_1d,visibility_set_1,cloud_layer_1_code_set_1,heat_index_set_1d,wind_direction_set_1,metar_origin_set_1,pressure_set_1d,relative_humidity_set_1,wind_speed_set_1,sea_level_pressure_set_1d,air_temp_set_1,_meta_station_id,_meta_elevation,_meta_longitude,_meta_latitude
0,2018-08-02 21:35:00,101490.02,WSW,,7.2,KO54 022135Z AUTO 24010G14KT 10SM 34/M08 A2997 RMK AO1,,-8.0,,,-7.65,10.0,,30.6,240.0,1.0,93522.31,6.31,5.14,100859.14,34.0,KO54,2244,-122.92230,40.74600
1,2018-08-02 21:55:00,101456.15,SW,Clear,7.2,KO54 022155Z AUTO 23006G14KT 10SM CLR 34/M10 A2996 RMK AO1,,-10.0,,,-9.59,10.0,1.0,30.5,230.0,1.0,93491.1,5.4,3.09,100825.5,34.0,KO54,2244,-122.92230,40.74600
2,2018-08-02 22:15:00,101456.15,WSW,Clear,7.2,KO54 022215Z AUTO 24007G14KT 10SM CLR 34/M07 A2996 RMK AO1,,-7.0,,,-6.66,10.0,1.0,30.66,240.0,1.0,93491.1,6.82,3.6,100825.47,34.0,KO54,2244,-122.92230,40.74600
3,2018-08-02 22:35:00,101422.29,SW,Clear,7.72,KO54 022235Z AUTO 23009G15KT 210V030 10SM CLR 34/M05 A2995 RMK AO1,,-5.0,,,-4.69,10.0,1.0,30.79,230.0,1.0,93459.9,7.95,4.63,100791.8,34.0,KO54,2244,-122.92230,40.74600
4,2018-08-02 22:55:00,101422.29,WNW,Clear,,KO54 022255Z AUTO 29008KT 200V310 10SM CLR 35/M07 A2995 RMK AO1,,-7.0,,,-6.63,10.0,1.0,31.39,290.0,1.0,93459.9,6.45,4.12,100767.3,35.0,KO54,2244,-122.92230,40.74600
5,2018-08-02 23:15:00,101422.29,WNW,Clear,,KO54 022315Z AUTO 29005KT 10SM CLR 34/M04 A2995 RMK AO1,,-4.0,,,-3.71,10.0,1.0,30.87,290.0,1.0,93459.9,8.57,2.57,100791.79,34.0,KO54,2244,-122.92230,40.74600
6,2018-08-02 23:35:00,101422.29,WNW,Clear,8.23,KO54 022335Z AUTO 29009G16KT 10SM CLR 34/M05 A2995 RMK AO1,,-5.0,,,-4.69,10.0,1.0,30.79,290.0,1.0,93459.9,7.95,4.63,100791.8,34.0,KO54,2244,-122.92230,40.74600
7,2018-08-02 23:55:00,101388.43,W,Clear,,KO54 022355Z AUTO 28009KT 260V330 10SM CLR 34/M04 A2994 RMK AO1,,-4.0,,,-3.71,10.0,1.0,30.87,280.0,1.0,93428.7,8.57,4.63,100758.14,34.0,KO54,2244,-122.92230,40.74600
8,2018-08-03 00:15:00,101388.43,WNW,Clear,7.2,KO54 030015Z AUTO 29007G14KT 270V340 10SM CLR 33/M03 A2994 RMK AO1,,-3.0,,,-2.75,10.0,1.0,30.2,290.0,1.0,93428.7,9.77,3.6,100782.8,33.0,KO54,2244,-122.92230,40.74600
9,2018-08-03 00:35:00,101388.43,WNW,Clear,,KO54 030035Z AUTO 29007KT 10SM CLR 33/M02 A2994 RMK AO1,,-2.0,,,-1.76,10.0,1.0,30.3,290.0,1.0,93428.7,10.52,3.6,100782.79,33.0,KO54,2244,-122.92230,40.74600
10,2018-08-03 00:55:00,101354.56,W,Clear,9.26,KO54 030055Z AUTO 27007G18KT 10SM CLR 32/00 A2993 RMK AO1,,0.0,,,0.19,10.0,1.0,29.75,270.0,1.0,93397.49,12.89,3.6,100773.92,32.0,KO54,2244,-122.92230,40.74600
11,2018-08-03 01:15:00,101354.56,W,Clear,8.23,KO54 030115Z AUTO 28009G16KT 240V310 10SM CLR 32/00 A2993 RMK AO1,,0.0,,,0.19,10.0,1.0,29.75,280.0,1.0,93397.49,12.89,4.63,100773.92,32.0,KO54,2244,-122.92230,40.74600
12,2018-08-03 01:35:00,101354.56,WSW,Clear,8.23,KO54 030135Z AUTO 25005G16KT 150V320 10SM CLR 30/M01 A2993 RMK AO1,,-1.0,,,-0.86,10.0,1.0,28.13,250.0,1.0,93397.49,13.42,2.57,100824.12,30.0,KO54,2244,-122.92230,40.74600
13,2018-08-03 01:55:00,101354.56,WSW,Clear,,KO54 030155Z AUTO 24004KT 10SM CLR 30/M01 A2993 RMK AO1,,-1.0,,,-0.86,10.0,1.0,28.13,240.0,1.0,93397.49,13.42,2.06,100824.12,30.0,KO54,2244,-122.92230,40.74600
14,2018-08-03 02:15:00,101388.43,SSW,Clear,,KO54 030215Z AUTO 20008KT 160V230 10SM CLR 29/00 A2994 RMK AO1,,0.0,,,0.11,10.0,1.0,27.38,200.0,1.0,93428.7,15.29,4.12,100883.15,29.0,KO54,2244,-122.92230,40.74600
15,2018-08-03 02:35:00,101388.43,S,Clear,7.72,KO54 030235Z AUTO 19008G15KT 170V240 10SM CLR 28/01 A2994 RMK AO1,,1.0,,,1.08,10.0,1.0,26.69,190.0,1.0,93428.7,17.42,4.12,100908.66,28.0,KO54,2244,-122.92230,40.74600
16,2018-08-03 02:55:00,101422.29,SSW,Clear,,KO54 030255Z AUTO 21007KT 170V340 10SM CLR 27/03 A2995 RMK AO1,,3.0,,,3.04,10.0,1.0,26.31,210.0,1.0,93459.9,21.3,3.6,100968.03,27.0,KO54,2244,-122.92230,40.74600
17,2018-08-03 03:15:00,101456.15,SSW,Clear,7.2,KO54 030315Z AUTO 20008G14KT 180V240 10SM CLR 26/03 A2996 RMK AO1,,3.0,,,3.02,10.0,1.0,,200.0,1.0,93491.1,22.59,4.12,101027.64,26.0,KO54,2244,-122.92230,40.74600
18,2018-08-03 03:35:00,101456.15,SSW,Clear,7.72,KO54 030335Z AUTO 20007G15KT 10SM CLR 25/03 A2996 RMK AO1,,3.0,,,3.01,10.0,1.0,,200.0,1.0,93491.1,23.97,3.6,101053.72,25.0,KO54,2244,-122.92230,40.74600
19,2018-08-03 03:55:00,101490.02,SW,Clear,,KO54 030355Z AUTO 22009KT 10SM CLR 25/03 A2997 RMK AO1,,3.0,,,3.01,10.0,1.0,,220.0,1.0,93522.31,23.97,4.63,101087.45,25.0,KO54,2244,-122.92230,40.74600
20,2018-08-03 04:15:00,101523.88,SW,Clear,7.72,KO54 030415Z AUTO 22006G15KT 10SM CLR 25/03 A2998 RMK AO1,,3.0,,,3.01,10.0,1.0,,220.0,1.0,93553.51,23.97,3.09,101121.17,25.0,KO54,2244,-122.92230,40.74600
21,2018-08-03 04:35:00,101557.75,SW,Clear,,KO54 030435Z AUTO 22007KT 10SM CLR 24/03 A2999 RMK AO1,,3.0,,,2.99,10.0,1.0,,220.0,1.0,93584.72,25.45,3.6,101181.19,24.0,KO54,2244,-122.92230,40.74600
22,2018-08-03 04:55:00,101591.61,SW,Clear,7.2,KO54 030455Z AUTO 22008G14KT 10SM CLR 24/02 A3000 RMK AO1,,2.0,,,2.0,10.0,1.0,,220.0,1.0,93615.92,23.7,4.12,101214.95,24.0,KO54,2244,-122.92230,40.74600
23,2018-08-03 05:15:00,101591.61,SSW,Clear,,KO54 030515Z AUTO 21007KT 10SM CLR 23/02 A3000 RMK AO1,,2.0,,,1.98,10.0,1.0,,210.0,1.0,93615.92,25.17,3.6,101241.43,23.0,KO54,2244,-122.92230,40.74600
24,2018-08-03 05:35:00,101625.47,WSW,Clear,,KO54 030535Z AUTO 24007KT 10SM CLR 23/01 A3001 RMK AO1,,1.0,,,0.99,10.0,1.0,,240.0,1.0,93647.13,23.43,3.6,101275.2,23.0,KO54,2244,-122.92230,40.74600
25,2018-08-03 05:55:00,101625.47,NNE,Clear,,KO54 030555Z AUTO 03003KT 10SM CLR 20/04 A3001 RMK AO1,,4.0,,,3.95,10.0,1.0,,30.0,1.0,93647.13,34.84,1.54,101355.71,20.0,KO54,2244,-122.92230,40.74600
26,2018-08-03 06:15:00,101659.34,NE,Clear,,KO54 030615Z AUTO 05003KT 10SM CLR 18/04 A3002 RMK AO1,,4.0,,,3.93,10.0,1.0,,50.0,1.0,93678.34,39.46,1.54,101444.18,18.0,KO54,2244,-122.92230,40.74600
27,2018-08-03 06:35:00,101659.34,N,Clear,,KO54 030635Z AUTO 01004KT 10SM CLR 17/04 A3002 RMK AO1,,4.0,,,3.93,10.0,1.0,,10.0,1.0,93678.34,42.03,2.06,101471.81,17.0,KO54,2244,-122.92230,40.74600
28,2018-08-03 06:55:00,101693.2,NNE,Clear,,KO54 030655Z AUTO 03003KT 10SM CLR 17/04 A3003 RMK AO1,,4.0,,,3.93,10.0,1.0,,30.0,1.0,93709.54,42.03,1.54,101505.61,17.0,KO54,2244,-122.92230,40.74600
29,2018-08-03 07:15:00,101693.2,N,Clear,,KO54 030715Z AUTO 00000KT 10SM CLR 15/03 A3003 RMK AO1,,3.0,,,2.92,10.0,1.0,,0.0,1.0,93709.54,44.49,0.0,101561.52,15.0,KO54,2244,-122.92230,40.74600
30,2018-08-03 07:35:00,101693.2,NNE,Clear,,KO54 030735Z AUTO 03003KT 10SM CLR 15/03 A3003 RMK AO1,,3.0,,,2.92,10.0,1.0,,30.0,1.0,93709.54,44.49,1.54,101561.52,15.0,KO54,2244,-122.92230,40.74600
31,2018-08-03 07:55:00,101693.2,NNE,Mostly Clear,,KO54 030755Z AUTO 02003KT 10SM FEW043 15/03 A3003 RMK AO1,,3.0,,,2.92,10.0,436.0,,20.0,1.0,93709.54,44.49,1.54,101561.52,15.0,KO54,2244,-122.92230,40.74600
32,2018-08-03 08:15:00,101727.07,N,Mostly Clear,,KO54 030815Z AUTO 00000KT 10SM FEW045 14/03 A3004 RMK AO1,,3.0,,,2.92,10.0,456.0,,0.0,1.0,93740.75,47.46,0.0,101623.6,14.0,KO54,2244,-122.92230,40.74600
33,2018-08-03 08:35:00,101693.2,N,Clear,,KO54 030835Z AUTO 00000KT 10SM CLR 14/03 A3003 RMK AO1,,3.0,,,2.92,10.0,1.0,,0.0,1.0,93709.54,47.46,0.0,101589.76,14.0,KO54,2244,-122.92230,40.74600
34,2018-08-03 08:55:00,101727.07,N,Mostly Clear,,KO54 030855Z AUTO 00000KT 10SM FEW043 13/02 A3004 RMK AO1,,2.0,,,1.91,10.0,436.0,,0.0,1.0,93740.75,47.17,0.0,101652.08,13.0,KO54,2244,-122.92230,40.74600
35,2018-08-03 09:15:00,101727.07,N,Mostly Clear,,KO54 030915Z AUTO 00000KT 10SM FEW045 13/02 A3004 RMK AO1,,2.0,,,1.91,10.0,456.0,,0.0,1.0,93740.75,47.17,0.0,101652.08,13.0,KO54,2244,-122.92230,40.74600
36,2018-08-03 09:35:00,101727.07,N,Clear,,KO54 030935Z AUTO 00000KT 10SM CLR 13/02 A3004 RMK AO1,,2.0,,,1.91,10.0,1.0,,0.0,1.0,93740.75,47.17,0.0,101652.08,13.0,KO54,2244,-122.92230,40.74600
37,2018-08-03 09:55:00,101727.07,N,Clear,,KO54 030955Z AUTO 00000KT 10SM CLR 12/02 A3004 RMK AO1,,2.0,,,1.91,10.0,1.0,,0.0,1.0,93740.75,50.37,0.0,101680.74,12.0,KO54,2244,-122.92230,40.74600
38,2018-08-03 10:15:00,101727.07,N,Mostly Clear,,KO54 031015Z AUTO 00000KT 10SM FEW045 12/02 A3004 RMK AO1,,2.0,,,1.91,10.0,456.0,,0.0,1.0,93740.75,50.37,0.0,101680.74,12.0,KO54,2244,-122.92230,40.74600
39,2018-08-03 10:35:00,101760.93,N,Clear,,KO54 031035Z AUTO 00000KT 10SM CLR 12/02 A3005 RMK AO1,,2.0,,,1.91,10.0,1.0,,0.0,1.0,93771.95,50.37,0.0,101714.58,12.0,KO54,2244,-122.92230,40.74600
40,2018-08-03 10:55:00,101760.93,NNE,Clear,,KO54 031055Z AUTO 03003KT 10SM CLR 12/02 A3005 RMK AO1,,2.0,,,1.91,10.0,1.0,,30.0,1.0,93771.95,50.37,1.54,101714.58,12.0,KO54,2244,-122.92230,40.74600
41,2018-08-03 11:15:00,101760.93,N,Mostly Clear,,KO54 031115Z AUTO 00000KT 10SM FEW050 11/02 A3005 RMK AO1,,2.0,,,1.91,10.0,506.0,,0.0,1.0,93771.95,53.81,0.0,101743.46,11.0,KO54,2244,-122.92230,40.74600
42,2018-08-03 11:35:00,101760.93,N,Clear,,KO54 031135Z AUTO 00000KT 10SM CLR 11/02 A3005 RMK AO1,,2.0,,,1.91,10.0,1.0,,0.0,1.0,93771.95,53.81,0.0,101743.46,11.0,KO54,2244,-122.92230,40.74600
43,2018-08-03 11:55:00,101760.93,N,Mostly Clear,,KO54 031155Z AUTO 01003KT 10SM FEW050 10/02 A3005 RMK AO1,,2.0,,,1.92,10.0,506.0,,10.0,1.0,93771.95,57.52,1.54,101772.56,10.0,KO54,2244,-122.92230,40.74600
44,2018-08-03 12:15:00,101760.93,N,Clear,,KO54 031215Z AUTO 00000KT 10SM CLR 10/02 A3005 RMK AO1,,2.0,,,1.92,10.0,1.0,,0.0,1.0,93771.95,57.52,0.0,101772.56,10.0,KO54,2244,-122.92230,40.74600
45,2018-08-03 12:35:00,101760.93,NE,Clear,,KO54 031235Z AUTO 04003KT 10SM CLR 10/02 A3005 RMK AO1,,2.0,,,1.92,10.0,1.0,,40.0,1.0,93771.95,57.52,1.54,101772.56,10.0,KO54,2244,-122.92230,40.74600
46,2018-08-03 12:55:00,101794.79,N,Mostly Clear,,KO54 031255Z AUTO 00000KT 10SM FEW050 10/02 A3006 RMK AO1,,2.0,,,1.92,10.0,506.0,,0.0,1.0,93803.15,57.52,0.0,101806.42,10.0,KO54,2244,-122.92230,40.74600
47,2018-08-03 13:15:00,101794.79,N,Clear,,KO54 031315Z AUTO 00000KT 10SM CLR 09/03 A3006 RMK AO1,,3.0,,,2.93,10.0,1.0,,0.0,1.0,93803.15,66.05,0.0,101835.71,9.0,KO54,2244,-122.92230,40.74600
48,2018-08-03 13:35:00,101828.66,N,Clear,,KO54 031335Z AUTO 00000KT 10SM CLR 10/02 A3007 RMK AO1,,2.0,,,1.92,10.0,1.0,,0.0,1.0,93834.36,57.52,0.0,101840.29,10.0,KO54,2244,-122.92230,40.74600
49,2018-08-03 13:55:00,101862.52,N,Clear,,KO54 031355Z AUTO 00000KT 10SM CLR 10/03 A3008 RMK AO1,,3.0,,,2.93,10.0,1.0,,0.0,1.0,93865.57,61.76,0.0,101874.14,10.0,KO54,2244,-122.92230,40.74600
50,2018-08-03 14:15:00,101862.52,N,Clear,,KO54 031415Z AUTO 00000KT 10SM CLR 10/03 A3008 RMK AO1,,3.0,,,2.93,10.0,1.0,,0.0,1.0,93865.57,61.76,0.0,101874.14,10.0,KO54,2244,-122.92230,40.74600
51,2018-08-03 14:35:00,101862.52,N,Clear,,KO54 031435Z AUTO 00000KT 10SM CLR 11/04 A3008 RMK AO1,,4.0,,,3.93,10.0,1.0,,0.0,1.0,93865.57,62.0,0.0,101845.0,11.0,KO54,2244,-122.92230,40.74600
52,2018-08-03 14:55:00,101862.52,N,Clear,,KO54 031455Z AUTO 00000KT 10SM CLR 13/04 A3008 RMK AO1,,4.0,,,3.92,10.0,1.0,,0.0,1.0,93865.57,54.35,0.0,101787.38,13.0,KO54,2244,-122.92230,40.74600
53,2018-08-03 15:15:00,101862.52,N,Clear,,KO54 031515Z AUTO 00000KT 10SM CLR 14/03 A3008 RMK AO1,,3.0,,,2.92,10.0,1.0,,0.0,1.0,93865.57,47.46,0.0,101758.91,14.0,KO54,2244,-122.92230,40.74600
54,2018-08-03 15:35:00,101862.52,SSW,Clear,,KO54 031535Z AUTO 21003KT 10SM CLR 15/03 A3008 RMK AO1,,3.0,,,2.92,10.0,1.0,,210.0,1.0,93865.57,44.49,1.54,101730.62,15.0,KO54,2244,-122.92230,40.74600
55,2018-08-03 15:55:00,101862.52,N,Clear,,KO54 031555Z AUTO 00000KT 10SM CLR 17/03 A3008 RMK AO1,,3.0,,,2.92,10.0,1.0,,0.0,1.0,93865.57,39.16,0.0,101674.65,17.0,KO54,2244,-122.92230,40.74600
56,2018-08-03 16:15:00,101862.52,N,Clear,,KO54 031615Z AUTO 00000KT 10SM CLR 18/03 A3008 RMK AO1,,3.0,,,2.93,10.0,1.0,,0.0,1.0,93865.57,36.77,0.0,101646.95,18.0,KO54,2244,-122.92230,40.74600
57,2018-08-03 16:35:00,101862.52,SW,Clear,,KO54 031635Z AUTO 22003KT 10SM CLR 19/03 A3008 RMK AO1,,3.0,,,2.94,10.0,1.0,,220.0,1.0,93865.57,34.54,1.54,101619.46,19.0,KO54,2244,-122.92230,40.74600
58,2018-08-03 16:55:00,101828.66,SSE,Clear,,KO54 031655Z AUTO 16003KT 10SM CLR 20/04 A3007 RMK AO1,,4.0,,,3.95,10.0,1.0,,160.0,1.0,93834.36,34.84,1.54,101558.35,20.0,KO54,2244,-122.92230,40.74600
59,2018-08-03 17:15:00,101828.66,SSE,Clear,,KO54 031715Z AUTO 16003KT 10SM CLR 22/04 A3007 RMK AO1,,4.0,,,3.97,10.0,1.0,,160.0,1.0,93834.36,30.82,1.54,101504.34,22.0,KO54,2244,-122.92230,40.74600
60,2018-08-03 17:35:00,101828.66,S,Clear,,KO54 031735Z AUTO 19004KT 10SM CLR 23/04 A3007 RMK AO1,,4.0,,,3.98,10.0,1.0,,190.0,1.0,93834.36,29.0,2.06,101477.61,23.0,KO54,2244,-122.92230,40.74600
61,2018-08-03 17:55:00,101828.66,SSE,Clear,,KO54 031755Z AUTO 15003KT 10SM CLR 24/04 A3007 RMK AO1,,4.0,,,3.99,10.0,1.0,,150.0,1.0,93834.36,27.31,1.54,101451.08,24.0,KO54,2244,-122.92230,40.74600
62,2018-08-03 18:15:00,101794.79,S,Clear,,KO54 031815Z AUTO 18005KT 10SM CLR 25/04 A3006 RMK AO1,,4.0,,,4.01,10.0,1.0,,180.0,1.0,93803.15,25.73,2.57,101390.98,25.0,KO54,2244,-122.92230,40.74600
63,2018-08-03 18:35:00,101794.79,N,Clear,,KO54 031835Z AUTO 00000KT 10SM CLR 27/03 A3006 RMK AO1,,3.0,,,3.04,10.0,1.0,26.31,0.0,1.0,93803.15,21.3,0.0,101338.86,27.0,KO54,2244,-122.92230,40.74600
64,2018-08-03 18:55:00,101760.93,SW,Clear,,KO54 031855Z AUTO 23006KT 10SM CLR 27/03 A3005 RMK AO1,,3.0,,,3.04,10.0,1.0,26.31,230.0,1.0,93771.95,21.3,3.09,101305.15,27.0,KO54,2244,-122.92230,40.74600
65,2018-08-03 19:15:00,101727.07,SSW,Clear,,KO54 031915Z AUTO 21007KT 10SM CLR 28/03 A3004 RMK AO1,,3.0,,,3.07,10.0,1.0,26.75,210.0,1.0,93740.75,20.1,3.6,101245.65,28.0,KO54,2244,-122.92230,40.74600
66,2018-08-03 19:35:00,101693.2,WSW,Clear,,KO54 031935Z AUTO 24008KT 10SM CLR 29/00 A3003 RMK AO1,,0.0,,,0.11,10.0,1.0,27.38,240.0,1.0,93709.54,15.29,4.12,101186.4,29.0,KO54,2244,-122.92230,40.74600
67,2018-08-03 19:55:00,101693.2,W,Clear,,KO54 031955Z AUTO 26008KT 210V290 10SM CLR 30/M02 A3003 RMK AO1,,-2.0,,,-1.85,10.0,1.0,28.08,260.0,1.0,93709.54,12.47,4.12,101161.0,30.0,KO54,2244,-122.92230,40.74600
68,2018-08-03 20:15:00,101659.34,WSW,Clear,8.23,KO54 032015Z AUTO 25008G16KT 230V300 10SM CLR 30/M04 A3002 RMK AO1,,-4.0,,,-3.83,10.0,1.0,27.92,250.0,1.0,93678.34,10.74,4.12,101127.35,30.0,KO54,2244,-122.92230,40.74600
69,2018-08-03 20:35:00,101659.34,SSW,Clear,,KO54 032035Z AUTO 21007KT 10SM CLR 31/M04 A3002 RMK AO1,,-4.0,,,-3.79,10.0,1.0,28.64,210.0,1.0,93678.34,10.15,3.6,101102.1,31.0,KO54,2244,-122.92230,40.74600
70,2018-08-03 20:55:00,101659.34,WSW,Clear,8.23,KO54 032055Z AUTO 25006G16KT 220V300 10SM CLR 32/M12 A3002 RMK AO1,,-12.0,,,-11.64,10.0,1.0,28.99,250.0,1.0,93678.34,5.14,3.09,101077.11,32.0,KO54,2244,-122.92230,40.74600
71,2018-08-03 21:15:00,101659.34,W,Clear,,KO54 032115Z AUTO 26006KT 210V310 10SM CLR 33/M08 A3002 RMK AO1,,-8.0,,,-7.67,10.0,1.0,29.87,260.0,1.0,93678.34,6.68,3.09,101052.16,33.0,KO54,2244,-122.92230,40.74600
72,2018-08-03 21:35:00,101625.47,SW,Clear,7.72,KO54 032135Z AUTO 23010G15KT 10SM CLR 32/M06 A3001 RMK AO1,,-6.0,,,-5.74,10.0,1.0,29.25,230.0,1.0,93647.13,8.24,5.14,101043.37,32.0,KO54,2244,-122.92230,40.74600
73,2018-08-03 21:55:00,101625.47,WSW,Clear,8.23,KO54 032155Z AUTO 25008G16KT 220V280 10SM CLR 32/M05 A3001 RMK AO1,,-5.0,,,-4.76,10.0,1.0,29.31,250.0,1.0,93647.13,8.89,4.12,101043.36,32.0,KO54,2244,-122.92230,40.74600
74,2018-08-03 22:15:00,101591.61,WSW,Clear,7.72,KO54 032215Z AUTO 25010G15KT 160V300 10SM CLR 33/M05 A3000 RMK AO1,,-5.0,,,-4.72,10.0,1.0,30.05,250.0,1.0,93615.92,8.41,5.14,100984.79,33.0,KO54,2244,-122.92230,40.74600
75,2018-08-03 22:35:00,101591.61,W,Clear,9.77,KO54 032235Z AUTO 28010G19KT 10SM CLR 32/M07 A3000 RMK AO1,,-7.0,,,-6.73,10.0,1.0,29.19,280.0,1.0,93615.92,7.63,5.14,101009.71,32.0,KO54,2244,-122.92230,40.74600
76,2018-08-03 22:55:00,101591.61,W,Clear,8.23,KO54 032255Z AUTO 27009G16KT 10SM CLR 33/M08 A3000 RMK AO1,,-8.0,,,-7.67,10.0,1.0,29.87,270.0,1.0,93615.92,6.68,4.63,100984.82,33.0,KO54,2244,-122.92230,40.74600
77,2018-08-03 23:15:00,101557.75,SW,Clear,8.75,KO54 032315Z AUTO 23011G17KT 10SM CLR 32/M09 A2999 RMK AO1,,-9.0,,,-8.69,10.0,1.0,29.09,230.0,1.0,93584.72,6.53,5.66,100976.07,32.0,KO54,2244,-122.92230,40.74600
78,2018-08-03 23:35:00,101557.75,WSW,Clear,9.77,KO54 032335Z AUTO 25008G19KT 210V280 10SM CLR 32/M08 A2999 RMK AO1,,-8.0,,,-7.71,10.0,1.0,29.14,250.0,1.0,93584.72,7.06,4.12,100976.06,32.0,KO54,2244,-122.92230,40.74600
79,2018-08-03 23:55:00,101557.75,WSW,Clear,10.29,KO54 032355Z AUTO 25009G20KT 180V310 10SM CLR 32/M08 A2999 RMK AO1,,-8.0,,,-7.71,10.0,1.0,29.14,250.0,1.0,93584.72,7.06,4.63,100976.06,32.0,KO54,2244,-122.92230,40.74600
80,2018-08-04 00:15:00,101557.75,SW,Clear,9.26,KO54 040015Z AUTO 22010G18KT 10SM CLR 32/M06 A2999 RMK AO1,,-6.0,,,-5.74,10.0,1.0,29.25,220.0,1.0,93584.72,8.24,5.14,100976.03,32.0,KO54,2244,-122.92230,40.74600
81,2018-08-04 00:35:00,101557.75,WSW,Clear,8.75,KO54 040035Z AUTO 25012G17KT 200V270 10SM CLR 32/M03 A2999 RMK AO1,,-3.0,,,-2.79,10.0,1.0,29.46,250.0,1.0,93584.72,10.33,6.17,100975.99,32.0,KO54,2244,-122.92230,40.74600
82,2018-08-04 01:15:00,101557.75,SSW,,,KO54 040115Z AUTO 21009KT 170V270 30/00 A2999 RMK AO1,,0.0,,,0.13,,,28.14,210.0,1.0,93584.72,14.44,4.63,101026.22,30.0,KO54,2244,-122.92230,40.74600
83,2018-08-04 01:35:00,101557.75,SSW,,7.2,KO54 040135Z AUTO 21008G14KT 170V250 29/M01 A2999 RMK AO1,,-1.0,,,-0.88,,,27.37,210.0,1.0,93584.72,14.22,4.12,101051.64,29.0,KO54,2244,-122.92230,40.74600
84,2018-08-04 01:55:00,101557.75,SW,,,KO54 040155Z AUTO 22007KT 190V250 29/00 A2999 RMK AO1,,0.0,,,0.11,,,27.38,220.0,1.0,93584.72,15.29,3.6,101051.62,29.0,KO54,2244,-122.92230,40.74600
85,2018-08-04 02:15:00,101591.61,SW,,7.72,KO54 040215Z AUTO 22009G15KT 190V260 28/02 A3000 RMK AO1,,2.0,,,2.07,,,26.71,220.0,1.0,93615.92,18.72,4.63,101110.85,28.0,KO54,2244,-122.92230,40.74600
86,2018-08-04 02:35:00,101591.61,SW,,9.77,KO54 040235Z AUTO 22011G19KT 170V240 27/02 A3000 RMK AO1,,2.0,,,2.05,,,26.27,220.0,1.0,93615.92,19.84,5.66,101136.61,27.0,KO54,2244,-122.92230,40.74600
87,2018-08-04 02:55:00,101557.75,N,,,KO54 040255Z AUTO 00000KT 26/02 A2999 RMK AO1,,2.0,,,2.03,,,,0.0,1.0,93584.72,21.04,0.0,101128.83,26.0,KO54,2244,-122.92230,40.74600
88,2018-08-04 03:15:00,101557.75,S,,,KO54 040315Z AUTO 17004KT 25/02 A2999 RMK AO1,,2.0,,,2.02,,,,170.0,1.0,93584.72,22.33,2.06,101154.93,25.0,KO54,2244,-122.92230,40.74600
89,2018-08-04 03:35:00,101591.61,S,,,KO54 040335Z AUTO 18005KT 25/02 A3000 RMK AO1,,2.0,,,2.02,,,,180.0,1.0,93615.92,22.33,2.57,101188.66,25.0,KO54,2244,-122.92230,40.74600
90,2018-08-04 03:55:00,101591.61,SW,,,KO54 040355Z AUTO 22009KT 180V240 25/02 A3000 RMK AO1,,2.0,,,2.02,,,,220.0,1.0,93615.92,22.33,4.63,101188.66,25.0,KO54,2244,-122.92230,40.74600
91,2018-08-04 04:15:00,101591.61,SW,,8.23,KO54 040415Z AUTO 23011G16KT 24/02 A3000 RMK AO1,,2.0,,,2.0,,,,230.0,1.0,93615.92,23.7,5.66,101214.95,24.0,KO54,2244,-122.92230,40.74600
92,2018-08-04 04:35:00,101625.47,SSW,,,KO54 040435Z AUTO 21006KT 24/02 A3001 RMK AO1,,2.0,,,2.0,,,,210.0,1.0,93647.13,23.7,3.09,101248.69,24.0,KO54,2244,-122.92230,40.74600
93,2018-08-04 04:55:00,101659.34,SW,,9.26,KO54 040455Z AUTO 22008G18KT 24/02 A3002 RMK AO1,,2.0,,,2.0,,,,220.0,1.0,93678.34,23.7,4.12,101282.44,24.0,KO54,2244,-122.92230,40.74600
94,2018-08-04 05:15:00,101659.34,WSW,,,KO54 040515Z AUTO 24004KT 23/03 A3002 RMK AO1,,3.0,,,2.98,,,,240.0,1.0,93678.34,27.03,2.06,101308.91,23.0,KO54,2244,-122.92230,40.74600
95,2018-08-04 05:35:00,101693.2,NE,,,KO54 040535Z AUTO 05003KT 10SM 19/03 A3003 RMK AO1,,3.0,,,2.94,10.0,,,50.0,1.0,93709.54,34.54,1.54,101450.54,19.0,KO54,2244,-122.92230,40.74600
96,2018-08-04 05:55:00,101659.34,NE,Clear,,KO54 040555Z AUTO 05003KT 10SM CLR 18/03 A3002 RMK AO1,,3.0,,,2.93,10.0,1.0,,50.0,1.0,93678.34,36.77,1.54,101444.2,18.0,KO54,2244,-122.92230,40.74600
97,2018-08-04 06:15:00,101659.34,N,Clear,,KO54 040615Z AUTO 00000KT 10SM CLR 17/03 A3002 RMK AO1,,3.0,,,2.92,10.0,1.0,,0.0,1.0,93678.34,39.16,0.0,101471.84,17.0,KO54,2244,-122.92230,40.74600
98,2018-08-04 06:35:00,101659.34,NNE,Clear,,KO54 040635Z AUTO 02004KT 10SM CLR 17/03 A3002 RMK AO1,,3.0,,,2.92,10.0,1.0,,20.0,1.0,93678.34,39.16,2.06,101471.84,17.0,KO54,2244,-122.92230,40.74600
99,2018-08-04 06:55:00,101693.2,NE,Clear,,KO54 040655Z AUTO 04003KT 10SM CLR 16/03 A3003 RMK AO1,,3.0,,,2.92,10.0,1.0,,40.0,1.0,93709.54,41.73,1.54,101533.48,16.0,KO54,2244,-122.92230,40.74600
100,2018-08-04 07:15:00,101693.2,N,Clear,,KO54 040715Z AUTO 00000KT 10SM CLR 16/03 A3003 RMK AO1,,3.0,,,2.92,10.0,1.0,,0.0,1.0,93709.54,41.73,0.0,101533.48,16.0,KO54,2244,-122.92230,40.74600
101,2018-08-04 07:35:00,101693.2,NE,Clear,,KO54 040735Z AUTO 04003KT 10SM CLR 15/03 A3003 RMK AO1,,3.0,,,2.92,10.0,1.0,,40.0,1.0,93709.54,44.49,1.54,101561.52,15.0,KO54,2244,-122.92230,40.74600
102,2018-08-04 07:55:00,101693.2,N,Clear,,KO54 040755Z AUTO 00000KT 10SM CLR 14/03 A3003 RMK AO1,,3.0,,,2.92,10.0,1.0,,0.0,1.0,93709.54,47.46,0.0,101589.76,14.0,KO54,2244,-122.92230,40.74600
103,2018-08-04 08:15:00,101693.2,N,Clear,,KO54 040815Z AUTO 00000KT 10SM CLR 14/03 A3003 RMK AO1,,3.0,,,2.92,10.0,1.0,,0.0,1.0,93709.54,47.46,0.0,101589.76,14.0,KO54,2244,-122.92230,40.74600
104,2018-08-04 08:35:00,101693.2,NNE,Clear,,KO54 040835Z AUTO 03003KT 10SM CLR 14/03 A3003 RMK AO1,,3.0,,,2.92,10.0,1.0,,30.0,1.0,93709.54,47.46,1.54,101589.76,14.0,KO54,2244,-122.92230,40.74600
105,2018-08-04 08:55:00,101693.2,N,Clear,,KO54 040855Z AUTO 00000KT 10SM CLR 14/03 A3003 RMK AO1,,3.0,,,2.92,10.0,1.0,,0.0,1.0,93709.54,47.46,0.0,101589.76,14.0,KO54,2244,-122.92230,40.74600
106,2018-08-04 09:15:00,101693.2,N,Clear,,KO54 040915Z AUTO 00000KT 10SM CLR 13/03 A3003 RMK AO1,,3.0,,,2.92,10.0,1.0,,0.0,1.0,93709.54,50.65,0.0,101618.21,13.0,KO54,2244,-122.92230,40.74600
107,2018-08-04 09:35:00,101693.2,N,Clear,,KO54 040935Z AUTO 00000KT 10SM CLR 13/03 A3003 RMK AO1,,3.0,,,2.92,10.0,1.0,,0.0,1.0,93709.54,50.65,0.0,101618.21,13.0,KO54,2244,-122.92230,40.74600
108,2018-08-04 09:55:00,101693.2,NNE,Clear,,KO54 040955Z AUTO 03003KT 10SM CLR 13/03 A3003 RMK AO1,,3.0,,,2.92,10.0,1.0,,30.0,1.0,93709.54,50.65,1.54,101618.21,13.0,KO54,2244,-122.92230,40.74600
109,2018-08-04 10:15:00,101693.2,NNE,Mostly Cloudy,,KO54 041015Z AUTO 03003KT 10SM BKN035 12/03 A3003 RMK AO1,1066.8,3.0,,,2.92,10.0,353.0,,30.0,1.0,93709.54,54.08,1.54,101646.86,12.0,KO54,2244,-122.92230,40.74600
110,2018-08-04 10:35:00,101693.2,N,Overcast,,KO54 041035Z AUTO 00000KT 10SM OVC033 12/03 A3003 RMK AO1,1005.84,3.0,,,2.92,10.0,334.0,,0.0,1.0,93709.54,54.08,0.0,101646.86,12.0,KO54,2244,-122.92230,40.74600
111,2018-08-04 10:55:00,101693.2,N,Overcast,,KO54 041055Z AUTO 00000KT 10SM OVC033 12/03 A3003 RMK AO1,1005.84,3.0,,,2.92,10.0,334.0,,0.0,1.0,93709.54,54.08,0.0,101646.86,12.0,KO54,2244,-122.92230,40.74600
112,2018-08-04 11:15:00,101693.2,N,Overcast,,KO54 041115Z AUTO 00000KT 10SM OVC033 11/03 A3003 RMK AO1,1005.84,3.0,,,2.92,10.0,334.0,,0.0,1.0,93709.54,57.78,0.0,101675.73,11.0,KO54,2244,-122.92230,40.74600
113,2018-08-04 11:35:00,101693.2,N,Overcast,,KO54 041135Z AUTO 00000KT 10SM OVC035 11/03 A3003 RMK AO1,1066.8,3.0,,,2.92,10.0,354.0,,0.0,1.0,93709.54,57.78,0.0,101675.73,11.0,KO54,2244,-122.92230,40.74600
114,2018-08-04 11:55:00,101693.2,N,Overcast,,KO54 041155Z AUTO 00000KT 10SM OVC037 11/03 A3003 RMK AO1,1127.76,3.0,,,2.92,10.0,374.0,,0.0,1.0,93709.54,57.78,0.0,101675.73,11.0,KO54,2244,-122.92230,40.74600
115,2018-08-04 12:15:00,101693.2,N,Mostly Cloudy,,KO54 041215Z AUTO 00000KT 10SM BKN039 10/04 A3003 RMK AO1,1188.72,4.0,,,3.93,10.0,393.0,,0.0,1.0,93709.54,66.27,0.0,101704.77,10.0,KO54,2244,-122.92230,40.74600
116,2018-08-04 12:35:00,101693.2,N,Mostly Cloudy,,KO54 041235Z AUTO 00000KT 10SM BKN039 10/03 A3003 RMK AO1,1188.72,3.0,,,2.93,10.0,393.0,,0.0,1.0,93709.54,61.76,0.0,101704.8,10.0,KO54,2244,-122.92230,40.74600
117,2018-08-04 12:55:00,101693.2,N,Mostly Cloudy,,KO54 041255Z AUTO 00000KT 10SM BKN039 10/04 A3003 RMK AO1,1188.72,4.0,,,3.93,10.0,393.0,,0.0,1.0,93709.54,66.27,0.0,101704.77,10.0,KO54,2244,-122.92230,40.74600
118,2018-08-04 13:15:00,101693.2,NNE,Mostly Clear,,KO54 041315Z AUTO 03003KT 10SM FEW036 10/04 A3003 RMK AO1,,4.0,,,3.93,10.0,366.0,,30.0,1.0,93709.54,66.27,1.54,101704.77,10.0,KO54,2244,-122.92230,40.74600
119,2018-08-04 13:35:00,101727.07,N,Clear,,KO54 041335Z AUTO 01003KT 10SM CLR 10/03 A3004 RMK AO1,,3.0,,,2.93,10.0,1.0,,10.0,1.0,93740.75,61.76,1.54,101738.67,10.0,KO54,2244,-122.92230,40.74600
120,2018-08-04 13:55:00,101727.07,N,Clear,,KO54 041355Z AUTO 00000KT 10SM CLR 10/04 A3004 RMK AO1,,4.0,,,3.93,10.0,1.0,,0.0,1.0,93740.75,66.27,0.0,101738.65,10.0,KO54,2244,-122.92230,40.74600
121,2018-08-04 14:15:00,101727.07,N,Clear,,KO54 041415Z AUTO 00000KT 10SM CLR 10/04 A3004 RMK AO1,,4.0,,,3.93,10.0,1.0,,0.0,1.0,93740.75,66.27,0.0,101738.65,10.0,KO54,2244,-122.92230,40.74600
122,2018-08-04 14:35:00,101727.07,N,Clear,,KO54 041435Z AUTO 00000KT 10SM CLR 12/04 A3004 RMK AO1,,4.0,,,3.92,10.0,1.0,,0.0,1.0,93740.75,58.03,0.0,101680.69,12.0,KO54,2244,-122.92230,40.74600
123,2018-08-04 14:55:00,101727.07,N,,,KO54 041455Z AUTO 00000KT 10SM 13/05 A3004 RMK AO1,,5.0,,,4.93,10.0,,,0.0,1.0,93740.75,58.29,0.0,101652.0,13.0,KO54,2244,-122.92230,40.74600
124,2018-08-04 15:15:00,101727.07,N,Clear,,KO54 041515Z AUTO 00000KT 10SM CLR 14/04 A3004 RMK AO1,,4.0,,,3.92,10.0,1.0,,0.0,1.0,93740.75,50.93,0.0,101623.57,14.0,KO54,2244,-122.92230,40.74600
125,2018-08-04 15:35:00,101727.07,N,Clear,,KO54 041535Z AUTO 00000KT 10SM CLR 15/05 A3004 RMK AO1,,5.0,,,4.93,10.0,1.0,,0.0,1.0,93740.75,51.21,0.0,101595.29,15.0,KO54,2244,-122.92230,40.74600
126,2018-08-04 15:55:00,101693.2,N,Clear,,KO54 041555Z AUTO 00000KT 10SM CLR 17/05 A3003 RMK AO1,,5.0,,,4.93,10.0,1.0,,0.0,1.0,93709.54,45.07,0.0,101505.58,17.0,KO54,2244,-122.92230,40.74600
127,2018-08-04 16:15:00,101693.2,N,Clear,,KO54 041615Z AUTO 00000KT 10SM CLR 18/05 A3003 RMK AO1,,5.0,,,4.93,10.0,1.0,,0.0,1.0,93709.54,42.32,0.0,101477.94,18.0,KO54,2244,-122.92230,40.74600
128,2018-08-04 16:35:00,101693.2,N,Clear,,KO54 041635Z AUTO 00000KT 10SM CLR 19/04 A3003 RMK AO1,,4.0,,,3.94,10.0,1.0,,0.0,1.0,93709.54,37.07,0.0,101450.51,19.0,KO54,2244,-122.92230,40.74600
129,2018-08-04 16:55:00,101659.34,N,Clear,,KO54 041655Z AUTO 00000KT 10SM CLR 20/05 A3002 RMK AO1,,5.0,,,4.95,10.0,1.0,,0.0,1.0,93678.34,37.36,0.0,101389.46,20.0,KO54,2244,-122.92230,40.74600
130,2018-08-04 17:15:00,101625.47,SSW,Clear,,KO54 041715Z AUTO 20003KT 10SM CLR 22/05 A3001 RMK AO1,,5.0,,,4.97,10.0,1.0,,200.0,1.0,93647.13,33.05,1.54,101301.78,22.0,KO54,2244,-122.92230,40.74600
131,2018-08-04 17:35:00,101625.47,SSW,Clear,,KO54 041735Z AUTO 20003KT 10SM CLR 22/05 A3001 RMK AO1,,5.0,,,4.97,10.0,1.0,,200.0,1.0,93647.13,33.05,1.54,101301.78,22.0,KO54,2244,-122.92230,40.74600
132,2018-08-04 17:55:00,101591.61,S,Clear,,KO54 041755Z AUTO 18004KT 9SM CLR 24/06 A3000 RMK AO1,,6.0,,,5.99,9.0,1.0,,180.0,1.0,93615.92,31.39,2.06,101214.85,24.0,KO54,2244,-122.92230,40.74600
133,2018-08-04 18:15:00,101557.75,S,Clear,7.72,KO54 041815Z AUTO 19008G15KT 10SM CLR 25/07 A2999 RMK AO1,,7.0,,,7.0,10.0,1.0,,190.0,1.0,93584.72,31.68,4.12,101154.8,25.0,KO54,2244,-122.92230,40.74600
134,2018-08-04 18:35:00,101557.75,SW,Clear,8.23,KO54 041835Z AUTO 22009G16KT 10SM CLR 26/05 A2999 RMK AO1,,5.0,,,5.02,10.0,1.0,,220.0,1.0,93584.72,26.0,4.63,101128.76,26.0,KO54,2244,-122.92230,40.74600
135,2018-08-04 18:55:00,101557.75,W,Clear,9.77,KO54 041855Z AUTO 28008G19KT 200V330 10SM CLR 27/03 A2999 RMK AO1,,3.0,,,3.04,10.0,1.0,26.31,280.0,1.0,93584.72,21.3,4.12,101102.88,27.0,KO54,2244,-122.92230,40.74600
136,2018-08-04 19:15:00,101523.88,WSW,Clear,9.77,KO54 041915Z AUTO 24009G19KT 10SM CLR 28/00 A2998 RMK AO1,,0.0,,,0.08,10.0,1.0,26.67,240.0,1.0,93553.51,16.2,4.63,101043.49,28.0,KO54,2244,-122.92230,40.74600
137,2018-08-04 19:35:00,101523.88,SW,Clear,10.29,KO54 041935Z AUTO 22012G20KT 10SM CLR 29/M02 A2998 RMK AO1,,-2.0,,,-1.87,10.0,1.0,27.36,220.0,1.0,93553.51,13.21,6.17,101017.96,29.0,KO54,2244,-122.92230,40.74600
138,2018-08-04 19:55:00,101523.88,SW,Clear,10.29,KO54 041955Z AUTO 23009G20KT 190V250 10SM CLR 28/M01 A2998 RMK AO1,,-1.0,,,-0.91,10.0,1.0,26.65,230.0,1.0,93553.51,15.06,4.63,101043.5,28.0,KO54,2244,-122.92230,40.74600
139,2018-08-04 20:15:00,101523.88,SW,Clear,8.75,KO54 042015Z AUTO 23010G17KT 9SM CLR 29/M01 A2998 RMK AO1,,-1.0,,,-0.88,9.0,1.0,27.37,230.0,1.0,93553.51,14.22,5.14,101017.94,29.0,KO54,2244,-122.92230,40.74600
140,2018-08-04 20:35:00,101523.88,W,Clear,10.29,KO54 042035Z AUTO 28008G20KT 220V300 10SM CLR 29/M02 A2998 RMK AO1,,-2.0,,,-1.87,10.0,1.0,27.36,280.0,1.0,93553.51,13.21,4.12,101017.96,29.0,KO54,2244,-122.92230,40.74600
141,2018-08-04 20:55:00,101490.02,SW,Clear,9.26,KO54 042055Z AUTO 22012G18KT 190V250 10SM CLR 29/M02 A2997 RMK AO1,,-2.0,,,-1.87,10.0,1.0,27.36,220.0,1.0,93522.31,13.21,6.17,100984.27,29.0,KO54,2244,-122.92230,40.74600
142,2018-08-04 21:15:00,101490.02,WNW,Clear,8.23,KO54 042115Z AUTO 29007G16KT 250V340 10SM CLR 29/00 A2997 RMK AO1,,0.0,,,0.11,10.0,1.0,27.38,290.0,1.0,93522.31,15.29,3.6,100984.23,29.0,KO54,2244,-122.92230,40.74600
143,2018-08-04 21:35:00,101490.02,WSW,Clear,9.26,KO54 042135Z AUTO 25010G18KT 210V320 10SM CLR 29/00 A2997 RMK AO1,,0.0,,,0.11,10.0,1.0,27.38,250.0,1.0,93522.31,15.29,5.14,100984.23,29.0,KO54,2244,-122.92230,40.74600
144,2018-08-04 21:55:00,101456.15,WSW,Clear,9.26,KO54 042155Z AUTO 24012G18KT 10SM CLR 29/00 A2996 RMK AO1,,0.0,,,0.11,10.0,1.0,27.38,240.0,1.0,93491.1,15.29,6.17,100950.53,29.0,KO54,2244,-122.92230,40.74600
145,2018-08-04 22:15:00,101456.15,WNW,Clear,8.23,KO54 042215Z AUTO 29007G16KT 180V310 10SM CLR 29/00 A2996 RMK AO1,,0.0,,,0.11,10.0,1.0,27.38,290.0,1.0,93491.1,15.29,3.6,100950.53,29.0,KO54,2244,-122.92230,40.74600
146,2018-08-04 22:35:00,101456.15,WSW,Clear,8.23,KO54 042235Z AUTO 25010G16KT 10SM CLR 29/00 A2996 RMK AO1,,0.0,,,0.11,10.0,1.0,27.38,250.0,1.0,93491.1,15.29,5.14,100950.53,29.0,KO54,2244,-122.92230,40.74600
147,2018-08-04 22:55:00,101422.29,WSW,Clear,9.77,KO54 042255Z AUTO 24010G19KT 10SM CLR 30/00 A2995 RMK AO1,,0.0,,,0.13,10.0,1.0,28.14,240.0,1.0,93459.9,14.44,5.14,100891.48,30.0,KO54,2244,-122.92230,40.74600
148,2018-08-04 23:15:00,101422.29,WSW,Clear,9.26,KO54 042315Z AUTO 24009G18KT 200V260 10SM CLR 30/02 A2995 RMK AO1,,2.0,,,2.12,10.0,1.0,28.16,240.0,1.0,93459.9,16.68,4.63,100891.44,30.0,KO54,2244,-122.92230,40.74600
149,2018-08-04 23:35:00,101388.43,WSW,Clear,8.23,KO54 042335Z AUTO 24010G16KT 10SM CLR 29/02 A2994 RMK AO1,,2.0,,,2.09,10.0,1.0,27.41,240.0,1.0,93428.7,17.66,5.14,100883.11,29.0,KO54,2244,-122.92230,40.74600
150,2018-08-04 23:55:00,101388.43,SW,Clear,8.23,KO54 042355Z AUTO 23009G16KT 210V270 10SM CLR 29/02 A2994 RMK AO1,,2.0,,,2.09,10.0,1.0,27.41,230.0,1.0,93428.7,17.66,4.63,100883.11,29.0,KO54,2244,-122.92230,40.74600
151,2018-08-05 00:15:00,101354.56,SSW,Clear,8.23,KO54 050015Z AUTO 21008G16KT 10SM CLR 29/02 A2993 RMK AO1,,2.0,,,2.09,10.0,1.0,27.41,210.0,1.0,93397.49,17.66,4.12,100849.41,29.0,KO54,2244,-122.92230,40.74600
152,2018-08-05 00:35:00,101354.56,SW,Clear,7.2,KO54 050035Z AUTO 22006G14KT 10SM CLR 29/02 A2993 RMK AO1,,2.0,,,2.09,10.0,1.0,27.41,220.0,1.0,93397.49,17.66,3.09,100849.41,29.0,KO54,2244,-122.92230,40.74600
153,2018-08-05 00:55:00,101354.56,WSW,Clear,9.26,KO54 050055Z AUTO 24009G18KT 10SM CLR 28/03 A2993 RMK AO1,,3.0,,,3.07,10.0,1.0,26.75,240.0,1.0,93397.49,20.1,4.63,100874.91,28.0,KO54,2244,-122.92230,40.74600
154,2018-08-05 01:15:00,101320.7,SW,Clear,9.26,KO54 050115Z AUTO 23012G18KT 10SM CLR 28/03 A2992 RMK AO1,,3.0,,,3.07,10.0,1.0,26.75,230.0,1.0,93366.28,20.1,6.17,100841.2,28.0,KO54,2244,-122.92230,40.74600
155,2018-08-05 01:35:00,101320.7,SW,Clear,,KO54 050135Z AUTO 22008KT 10SM CLR 28/03 A2992 RMK AO1,,3.0,,,3.07,10.0,1.0,26.75,220.0,1.0,93366.28,20.1,4.12,100841.2,28.0,KO54,2244,-122.92230,40.74600
156,2018-08-05 01:55:00,101320.7,SSW,Clear,,KO54 050155Z AUTO 21007KT 180V260 10SM CLR 27/03 A2992 RMK AO1,,3.0,,,3.04,10.0,1.0,26.31,210.0,1.0,93366.28,21.3,3.6,100866.89,27.0,KO54,2244,-122.92230,40.74600
157,2018-08-05 02:15:00,101320.7,WSW,Clear,,KO54 050215Z AUTO 25007KT 210V270 10SM CLR 27/04 A2992 RMK AO1,,4.0,,,4.04,10.0,1.0,26.35,250.0,1.0,93366.28,22.86,3.6,100866.87,27.0,KO54,2244,-122.92230,40.74600
158,2018-08-05 02:55:00,101354.56,SSW,,,KO54 050255Z AUTO 21005KT 25/04 A2993 RMK AO1,,4.0,,,4.01,,,,210.0,1.0,93397.49,25.73,2.57,100952.51,25.0,KO54,2244,-122.92230,40.74600
159,2018-08-05 03:15:00,101354.56,SW,,8.23,KO54 050315Z AUTO 23006G16KT 24/05 A2993 RMK AO1,,5.0,,,4.99,,,,230.0,1.0,93397.49,29.29,3.09,100978.72,24.0,KO54,2244,-122.92230,40.74600
160,2018-08-05 03:35:00,101388.43,S,,,KO54 050335Z AUTO 19007KT 24/05 A2994 RMK AO1,,5.0,,,4.99,,,,190.0,1.0,93428.7,29.29,3.6,101012.46,24.0,KO54,2244,-122.92230,40.74600
161,2018-08-05 03:55:00,101422.29,SW,,8.23,KO54 050355Z AUTO 22007G16KT 23/05 A2995 RMK AO1,,5.0,,,4.98,,,,220.0,1.0,93459.9,31.11,3.6,101072.63,23.0,KO54,2244,-122.92230,40.74600
162,2018-08-05 04:15:00,101422.29,SSW,,,KO54 050415Z AUTO 20008KT 23/05 A2995 RMK AO1,,5.0,,,4.98,,,,200.0,1.0,93459.9,31.11,4.12,101072.63,23.0,KO54,2244,-122.92230,40.74600
163,2018-08-05 04:35:00,101456.15,SSW,,,KO54 050435Z AUTO 21007KT 23/05 A2996 RMK AO1,,5.0,,,4.98,,,,210.0,1.0,93491.1,31.11,3.6,101106.37,23.0,KO54,2244,-122.92230,40.74600
164,2018-08-05 04:55:00,101490.02,SSW,,,KO54 050455Z AUTO 20005KT 23/05 A2997 RMK AO1,,5.0,,,4.98,,,,200.0,1.0,93522.31,31.11,2.57,101140.12,23.0,KO54,2244,-122.92230,40.74600
165,2018-08-05 05:15:00,101523.88,N,,,KO54 050515Z AUTO 00000KT 22/05 A2998 RMK AO1,,5.0,,,4.97,,,,0.0,1.0,93553.51,33.05,0.0,101200.51,22.0,KO54,2244,-122.92230,40.74600
166,2018-08-05 05:35:00,101523.88,N,,,KO54 050535Z AUTO 00000KT 19/05 A2998 RMK AO1,,5.0,,,4.94,,,,0.0,1.0,93553.51,39.75,0.0,101281.57,19.0,KO54,2244,-122.92230,40.74600
167,2018-08-05 05:55:00,101523.88,N,,,KO54 050555Z AUTO 00000KT 18/05 A2998 RMK AO1,,5.0,,,4.93,,,,0.0,1.0,93553.51,42.32,0.0,101308.97,18.0,KO54,2244,-122.92230,40.74600
168,2018-08-05 06:15:00,101557.75,N,,,KO54 050615Z AUTO 00000KT 17/05 A2999 RMK AO1,,5.0,,,4.93,,,,0.0,1.0,93584.72,45.07,0.0,101370.38,17.0,KO54,2244,-122.92230,40.74600
169,2018-08-05 06:35:00,101557.75,N,,,KO54 050635Z AUTO 00000KT 17/05 A2999 RMK AO1,,5.0,,,4.93,,,,0.0,1.0,93584.72,45.07,0.0,101370.38,17.0,KO54,2244,-122.92230,40.74600
170,2018-08-05 06:55:00,101557.75,N,,,KO54 050655Z AUTO 00000KT 16/05 A2999 RMK AO1,,5.0,,,4.93,,,,0.0,1.0,93584.72,48.03,0.0,101398.18,16.0,KO54,2244,-122.92230,40.74600
171,2018-08-05 07:15:00,,NE,,,KO54 050715Z AUTO 04003KT 15/05 RMK AO1,,5.0,,,4.93,,,,40.0,1.0,,51.21,1.54,,15.0,KO54,2244,-122.92230,40.74600
172,2018-08-05 07:35:00,,N,,,KO54 050735Z AUTO 00000KT 15/05 RMK AO1,,5.0,,,4.93,,,,0.0,1.0,,51.21,0.0,,15.0,KO54,2244,-122.92230,40.74600
173,2018-08-05 07:55:00,,N,,,KO54 050755Z AUTO 00000KT 15/05 RMK AO1,,5.0,,,4.93,,,,0.0,1.0,,51.21,0.0,,15.0,KO54,2244,-122.92230,40.74600
174,2018-08-05 08:15:00,,N,,,KO54 050815Z AUTO 00000KT 15/05 RMK AO1,,5.0,,,4.93,,,,0.0,1.0,,51.21,0.0,,15.0,KO54,2244,-122.92230,40.74600
175,2018-08-05 08:35:00,,N,,,KO54 050835Z AUTO 00000KT 14/05 RMK AO1,,5.0,,,4.93,,,,0.0,1.0,,54.62,0.0,,14.0,KO54,2244,-122.92230,40.74600
176,2018-08-05 08:55:00,,N,,,KO54 050855Z AUTO 00000KT 14/05 RMK AO1,,5.0,,,4.93,,,,0.0,1.0,,54.62,0.0,,14.0,KO54,2244,-122.92230,40.74600
177,2018-08-05 09:15:00,,N,,,KO54 050915Z AUTO 00000KT 13/05 RMK AO1,,5.0,,,4.93,,,,0.0,1.0,,58.29,0.0,,13.0,KO54,2244,-122.92230,40.74600
178,2018-08-05 09:35:00,,,,,KO54 050935Z AUTO RMK AO1,,,,,,,,,,1.0,,,,,,KO54,2244,-122.92230,40.74600
179,2018-08-05 09:55:00,,,,,KO54 050955Z AUTO RMK AO1,,,,,,,,,,1.0,,,,,,KO54,2244,-122.92230,40.74600
180,2018-08-05 10:15:00,,,,,KO54 051015Z AUTO RMK AO1,,,,,,,,,,1.0,,,,,,KO54,2244,-122.92230,40.74600
181,2018-08-05 10:35:00,,,,,KO54 051035Z AUTO RMK AO1,,,,,,,,,,1.0,,,,,,KO54,2244,-122.92230,40.74600
182,2018-08-05 10:55:00,,,,,KO54 051055Z AUTO RMK AO1,,,,,,,,,,1.0,,,,,,KO54,2244,-122.92230,40.74600
183,2018-08-05 11:15:00,,,,,KO54 051115Z AUTO RMK AO1,,,,,,,,,,1.0,,,,,,KO54,2244,-122.92230,40.74600
184,2018-08-05 11:35:00,,,,,KO54 051135Z AUTO RMK AO1,,,,,,,,,,1.0,,,,,,KO54,2244,-122.92230,40.74600
185,2018-08-05 11:55:00,,,,,KO54 051155Z AUTO RMK AO1,,,,,,,,,,1.0,,,,,,KO54,2244,-122.92230,40.74600
186,2018-08-05 12:15:00,,,,,KO54 051215Z AUTO RMK AO1,,,,,,,,,,1.0,,,,,,KO54,2244,-122.92230,40.74600
187,2018-08-05 12:35:00,,,,,KO54 051235Z AUTO RMK AO1,,,,,,,,,,1.0,,,,,,KO54,2244,-122.92230,40.74600
188,2018-08-05 12:55:00,,,,,KO54 051255Z AUTO RMK AO1,,,,,,,,,,1.0,,,,,,KO54,2244,-122.92230,40.74600
189,2018-08-05 13:15:00,,,,,KO54 051315Z AUTO RMK AO1,,,,,,,,,,1.0,,,,,,KO54,2244,-122.92230,40.74600
190,2018-08-05 13:35:00,,,,,KO54 051335Z AUTO RMK AO1,,,,,,,,,,1.0,,,,,,KO54,2244,-122.92230,40.74600
191,2018-08-05 13:55:00,,,,,KO54 051355Z AUTO RMK AO1,,,,,,,,,,1.0,,,,,,KO54,2244,-122.92230,40.74600
192,2018-08-05 14:15:00,,,,,KO54 051415Z AUTO RMK AO1,,,,,,,,,,1.0,,,,,,KO54,2244,-122.92230,40.74600
193,2018-08-05 14:35:00,,,,,KO54 051435Z AUTO RMK AO1,,,,,,,,,,1.0,,,,,,KO54,2244,-122.92230,40.74600
194,2018-08-05 14:55:00,,,,,KO54 051455Z AUTO RMK AO1,,,,,,,,,,1.0,,,,,,KO54,2244,-122.92230,40.74600
195,2018-08-05 15:15:00,,,,,KO54 051515Z AUTO RMK AO1,,,,,,,,,,1.0,,,,,,KO54,2244,-122.92230,40.74600
196,2018-08-05 15:35:00,,,,,KO54 051535Z AUTO RMK AO1,,,,,,,,,,1.0,,,,,,KO54,2244,-122.92230,40.74600
197,2018-08-05 15:55:00,101760.93,N,,,KO54 051555Z AUTO 00000KT 10SM 15/06 A3005 RMK AO1,,6.0,,,5.93,10.0,,,0.0,1.0,93771.95,54.89,0.0,101629.08,15.0,KO54,2244,-122.92230,40.74600
198,2018-08-05 16:15:00,101760.93,SSW,Clear,,KO54 051615Z AUTO 20003KT 10SM CLR 17/06 A3005 RMK AO1,,6.0,,,5.93,10.0,1.0,,200.0,1.0,93771.95,48.31,1.54,101573.16,17.0,KO54,2244,-122.92230,40.74600
199,2018-08-05 16:35:00,101760.93,S,,,KO54 051635Z AUTO 17003KT 10SM 17/06 A3005 RMK AO1,,6.0,,,5.93,10.0,,,170.0,1.0,93771.95,48.31,1.54,101573.16,17.0,KO54,2244,-122.92230,40.74600
200,2018-08-05 16:55:00,101727.07,SSW,Clear,,KO54 051655Z AUTO 20003KT 10SM CLR 18/06 A3004 RMK AO1,,6.0,,,5.94,10.0,1.0,,200.0,1.0,93740.75,45.36,1.54,101511.71,18.0,KO54,2244,-122.92230,40.74600
201,2018-08-05 17:15:00,101760.93,SSW,Clear,,KO54 051715Z AUTO 20004KT 10SM CLR 19/06 A3005 RMK AO1,,6.0,,,5.94,10.0,1.0,,200.0,1.0,93771.95,42.61,2.06,101518.03,19.0,KO54,2244,-122.92230,40.74600
202,2018-08-05 17:35:00,101727.07,N,Clear,,KO54 051735Z AUTO 00000KT 10SM CLR 19/06 A3004 RMK AO1,,6.0,,,5.94,10.0,1.0,,0.0,1.0,93740.75,42.61,0.0,101484.25,19.0,KO54,2244,-122.92230,40.74600
203,2018-08-05 17:55:00,101727.07,SW,Clear,,KO54 051755Z AUTO 23003KT 10SM CLR 20/06 A3004 RMK AO1,,6.0,,,5.95,10.0,1.0,,230.0,1.0,93740.75,40.05,1.54,101456.98,20.0,KO54,2244,-122.92230,40.74600
204,2018-08-05 18:15:00,101727.07,S,Clear,,KO54 051815Z AUTO 19003KT 10SM CLR 21/05 A3004 RMK AO1,,5.0,,,4.95,10.0,1.0,,190.0,1.0,93740.75,35.13,1.54,101429.94,21.0,KO54,2244,-122.92230,40.74600
205,2018-08-05 18:35:00,101727.07,N,Clear,,KO54 051835Z AUTO 00000KT 9SM CLR 22/07 A3004 RMK AO1,,7.0,,,6.97,9.0,1.0,,0.0,1.0,93740.75,37.95,0.0,101403.0,22.0,KO54,2244,-122.92230,40.74600
206,2018-08-05 18:55:00,101727.07,SSW,Clear,,KO54 051855Z AUTO 21004KT 10SM CLR 22/07 A3004 RMK AO1,,7.0,,,6.97,10.0,1.0,,210.0,1.0,93740.75,37.95,2.06,101403.0,22.0,KO54,2244,-122.92230,40.74600
207,2018-08-05 19:15:00,101693.2,N,Clear,,KO54 051915Z AUTO 00000KT 10SM CLR 23/07 A3003 RMK AO1,,7.0,,,6.98,10.0,1.0,,0.0,1.0,93709.54,35.72,0.0,101342.55,23.0,KO54,2244,-122.92230,40.74600
208,2018-08-05 19:35:00,101693.2,N,Clear,,KO54 051935Z AUTO 00000KT 8SM CLR 24/07 A3003 RMK AO1,,7.0,,,6.99,8.0,1.0,,0.0,1.0,93709.54,33.63,0.0,101316.04,24.0,KO54,2244,-122.92230,40.74600
209,2018-08-05 19:55:00,101659.34,N,Mostly Clear,,KO54 051955Z AUTO 00000KT 6SM FEW026 25/07 A3002 RMK AO1,,7.0,,,7.0,6.0,266.0,,0.0,1.0,93678.34,31.68,0.0,101256.0,25.0,KO54,2244,-122.92230,40.74600
210,2018-08-05 20:15:00,101659.34,N,Mostly Clear,,KO54 052015Z AUTO 00000KT 10SM FEW026 25/07 A3002 RMK AO1,,7.0,,,7.0,10.0,266.0,,0.0,1.0,93678.34,31.68,0.0,101256.0,25.0,KO54,2244,-122.92230,40.74600
211,2018-08-05 20:35:00,101625.47,N,Clear,,KO54 052035Z AUTO 00000KT 6SM CLR 27/05 A3001 RMK AO1,,5.0,,,5.04,6.0,1.0,26.4,0.0,1.0,93647.13,24.52,0.0,101170.25,27.0,KO54,2244,-122.92230,40.74600
212,2018-08-05 20:55:00,101591.61,N,Clear,,KO54 052055Z AUTO 00000KT 4SM CLR 28/05 A3000 RMK AO1,,5.0,,,5.06,4.0,1.0,26.83,0.0,1.0,93615.92,23.13,0.0,101110.78,28.0,KO54,2244,-122.92230,40.74600
213,2018-08-05 21:15:00,101591.61,ESE,Clear,,KO54 052115Z AUTO 12004KT 3SM CLR 29/05 A3000 RMK AO1,,5.0,,,5.08,3.0,1.0,27.51,120.0,1.0,93615.92,21.83,2.06,101085.2,29.0,KO54,2244,-122.92230,40.74600
214,2018-08-05 21:35:00,101557.75,S,Clear,,KO54 052135Z AUTO 17003KT 7SM CLR 30/03 A2999 RMK AO1,,3.0,,,3.11,7.0,1.0,28.18,170.0,1.0,93584.72,17.91,1.54,101026.16,30.0,KO54,2244,-122.92230,40.74600
215,2018-08-05 21:55:00,101557.75,S,Clear,,KO54 052155Z AUTO 19003KT 8SM CLR 30/04 A2999 RMK AO1,,4.0,,,4.1,8.0,1.0,28.22,190.0,1.0,93584.72,19.21,1.54,101026.14,30.0,KO54,2244,-122.92230,40.74600
216,2018-08-05 22:15:00,101557.75,SW,Clear,,KO54 052215Z AUTO 23004KT 7SM CLR 30/03 A2999 RMK AO1,,3.0,,,3.11,7.0,1.0,28.18,230.0,1.0,93584.72,17.91,2.06,101026.16,30.0,KO54,2244,-122.92230,40.74600
217,2018-08-05 22:35:00,101557.75,WNW,Clear,,KO54 052235Z AUTO 29007KT 5SM CLR 30/04 A2999 RMK AO1,,4.0,,,4.1,5.0,1.0,28.22,290.0,1.0,93584.72,19.21,3.6,101026.14,30.0,KO54,2244,-122.92230,40.74600
218,2018-08-05 22:55:00,101523.88,WSW,Clear,,KO54 052255Z AUTO 24008KT 10SM CLR 31/02 A2998 RMK AO1,,2.0,,,2.14,10.0,1.0,28.96,240.0,1.0,93553.51,15.75,4.12,100967.27,31.0,KO54,2244,-122.92230,40.74600
219,2018-08-05 23:15:00,101523.88,W,Clear,,KO54 052315Z AUTO 26004KT 10SM CLR 31/03 A2998 RMK AO1,,3.0,,,3.13,10.0,1.0,28.98,260.0,1.0,93553.51,16.91,2.06,100967.25,31.0,KO54,2244,-122.92230,40.74600
220,2018-08-05 23:35:00,101523.88,WSW,Clear,,KO54 052335Z AUTO 24006KT 10SM CLR 30/04 A2998 RMK AO1,,4.0,,,4.1,10.0,1.0,28.22,240.0,1.0,93553.51,19.21,3.09,100992.45,30.0,KO54,2244,-122.92230,40.74600
221,2018-08-05 23:55:00,101523.88,WNW,Clear,,KO54 052355Z AUTO 29006KT 10SM CLR 30/03 A2998 RMK AO1,,3.0,,,3.11,10.0,1.0,28.18,290.0,1.0,93553.51,17.91,3.09,100992.47,30.0,KO54,2244,-122.92230,40.74600
222,2018-08-06 00:15:00,101523.88,WSW,Clear,,KO54 060015Z AUTO 25006KT 10SM CLR 30/04 A2998 RMK AO1,,4.0,,,4.1,10.0,1.0,28.22,250.0,1.0,93553.51,19.21,3.09,100992.45,30.0,KO54,2244,-122.92230,40.74600
223,2018-08-06 00:35:00,101523.88,W,Clear,,KO54 060035Z AUTO 27006KT 7SM CLR 30/04 A2998 RMK AO1,,4.0,,,4.1,7.0,1.0,28.22,270.0,1.0,93553.51,19.21,3.09,100992.45,30.0,KO54,2244,-122.92230,40.74600
224,2018-08-06 00:55:00,101523.88,WSW,Clear,,KO54 060055Z AUTO 24007KT 10SM CLR 30/04 A2998 RMK AO1,,4.0,,,4.1,10.0,1.0,28.22,240.0,1.0,93553.51,19.21,3.6,100992.45,30.0,KO54,2244,-122.92230,40.74600
225,2018-08-06 01:15:00,101523.88,SW,Clear,,KO54 060115Z AUTO 23006KT 10SM CLR 30/04 A2998 RMK AO1,,4.0,,,4.1,10.0,1.0,28.22,230.0,1.0,93553.51,19.21,3.09,100992.45,30.0,KO54,2244,-122.92230,40.74600
226,2018-08-06 01:35:00,101557.75,SW,Clear,,KO54 060135Z AUTO 23007KT 190V250 7SM CLR 29/04 A2999 RMK AO1,,4.0,,,4.08,7.0,1.0,27.47,230.0,1.0,93584.72,20.35,3.6,101051.54,29.0,KO54,2244,-122.92230,40.74600
227,2018-08-06 01:55:00,101557.75,WSW,Clear,,KO54 060155Z AUTO 24005KT 150V270 10SM CLR 29/04 A2999 RMK AO1,,4.0,,,4.08,10.0,1.0,27.47,240.0,1.0,93584.72,20.35,2.57,101051.54,29.0,KO54,2244,-122.92230,40.74600
228,2018-08-06 02:15:00,101591.61,WSW,Clear,,KO54 060215Z AUTO 24004KT 10SM CLR 28/03 A3000 RMK AO1,,3.0,,,3.07,10.0,1.0,26.75,240.0,1.0,93615.92,20.1,2.06,101110.83,28.0,KO54,2244,-122.92230,40.74600
229,2018-08-06 02:35:00,101625.47,SSW,Clear,,KO54 060235Z AUTO 20007KT 6SM CLR 28/03 A3001 RMK AO1,,3.0,,,3.07,6.0,1.0,26.75,200.0,1.0,93647.13,20.1,3.6,101144.54,28.0,KO54,2244,-122.92230,40.74600
230,2018-08-06 02:55:00,101625.47,WSW,Clear,,KO54 060255Z AUTO 25007KT 10SM CLR 27/03 A3001 RMK AO1,,3.0,,,3.04,10.0,1.0,26.31,250.0,1.0,93647.13,21.3,3.6,101170.3,27.0,KO54,2244,-122.92230,40.74600
231,2018-08-06 03:15:00,101659.34,S,Clear,,KO54 060315Z AUTO 19004KT 10SM CLR 27/03 A3002 RMK AO1,,3.0,,,3.04,10.0,1.0,26.31,190.0,1.0,93678.34,21.3,2.06,101204.02,27.0,KO54,2244,-122.92230,40.74600
232,2018-08-06 03:35:00,101659.34,SSW,Clear,,KO54 060335Z AUTO 20005KT 10SM CLR 26/03 A3002 RMK AO1,,3.0,,,3.02,10.0,1.0,,200.0,1.0,93678.34,22.59,2.57,101229.97,26.0,KO54,2244,-122.92230,40.74600
233,2018-08-06 03:55:00,101693.2,SSE,Clear,,KO54 060355Z AUTO 15003KT 10SM CLR 25/03 A3003 RMK AO1,,3.0,,,3.01,10.0,1.0,,150.0,1.0,93709.54,23.97,1.54,101289.83,25.0,KO54,2244,-122.92230,40.74600
234,2018-08-06 04:15:00,101727.07,SW,Clear,,KO54 060415Z AUTO 22004KT 10SM CLR 25/03 A3004 RMK AO1,,3.0,,,3.01,10.0,1.0,,220.0,1.0,93740.75,23.97,2.06,101323.56,25.0,KO54,2244,-122.92230,40.74600
235,2018-08-06 04:35:00,101727.07,S,Clear,,KO54 060435Z AUTO 18005KT 10SM CLR 24/04 A3004 RMK AO1,,4.0,,,3.99,10.0,1.0,,180.0,1.0,93740.75,27.31,2.57,101349.87,24.0,KO54,2244,-122.92230,40.74600
236,2018-08-06 04:55:00,101760.93,NE,Clear,,KO54 060455Z AUTO 04004KT 10SM CLR 22/05 A3005 RMK AO1,,5.0,,,4.97,10.0,1.0,,40.0,1.0,93771.95,33.05,2.06,101436.8,22.0,KO54,2244,-122.92230,40.74600
237,2018-08-06 05:15:00,101760.93,NNE,Clear,,KO54 060515Z AUTO 03004KT 10SM CLR 19/05 A3005 RMK AO1,,5.0,,,4.94,10.0,1.0,,30.0,1.0,93771.95,39.75,2.06,101518.05,19.0,KO54,2244,-122.92230,40.74600
238,2018-08-06 05:35:00,101760.93,N,Clear,,KO54 060535Z AUTO 00000KT 10SM CLR 18/04 A3005 RMK AO1,,4.0,,,3.93,10.0,1.0,,0.0,1.0,93771.95,39.46,0.0,101545.55,18.0,KO54,2244,-122.92230,40.74600
239,2018-08-06 05:55:00,101794.79,N,Clear,,KO54 060555Z AUTO 00000KT 10SM CLR 18/04 A3006 RMK AO1,,4.0,,,3.93,10.0,1.0,,0.0,1.0,93803.15,39.46,0.0,101579.34,18.0,KO54,2244,-122.92230,40.74600
240,2018-08-06 06:15:00,101828.66,N,Clear,,KO54 060615Z AUTO 00000KT 10SM CLR 17/04 A3007 RMK AO1,,4.0,,,3.93,10.0,1.0,,0.0,1.0,93834.36,42.03,0.0,101640.81,17.0,KO54,2244,-122.92230,40.74600
241,2018-08-06 06:35:00,101828.66,N,Partly Cloudy,,KO54 060635Z AUTO 00000KT 10SM SCT030 16/04 A3007 RMK AO1,,4.0,,,3.92,10.0,302.0,,0.0,1.0,93834.36,44.78,0.0,101668.69,16.0,KO54,2244,-122.92230,40.74600
242,2018-08-06 06:55:00,101828.66,NNE,Overcast,,KO54 060655Z AUTO 02003KT 10SM OVC032 15/04 A3007 RMK AO1,975.36,4.0,,,3.92,10.0,324.0,,20.0,1.0,93834.36,47.75,1.54,101696.77,15.0,KO54,2244,-122.92230,40.74600
243,2018-08-06 07:15:00,101828.66,N,Overcast,,KO54 060715Z AUTO 00000KT 10SM OVC032 15/04 A3007 RMK AO1,975.36,4.0,,,3.92,10.0,324.0,,0.0,1.0,93834.36,47.75,0.0,101696.77,15.0,KO54,2244,-122.92230,40.74600
244,2018-08-06 07:35:00,101828.66,N,Overcast,,KO54 060735Z AUTO 00000KT 10SM OVC032 15/04 A3007 RMK AO1,975.36,4.0,,,3.92,10.0,324.0,,0.0,1.0,93834.36,47.75,0.0,101696.77,15.0,KO54,2244,-122.92230,40.74600
245,2018-08-06 07:55:00,101862.52,N,Overcast,,KO54 060755Z AUTO 00000KT 10SM OVC034 14/04 A3008 RMK AO1,1036.32,4.0,,,3.92,10.0,344.0,,0.0,1.0,93865.57,50.93,0.0,101758.89,14.0,KO54,2244,-122.92230,40.74600
246,2018-08-06 08:15:00,101862.52,N,Overcast,,KO54 060815Z AUTO 00000KT 10SM OVC036 14/05 A3008 RMK AO1,1097.28,5.0,,,4.93,10.0,364.0,,0.0,1.0,93865.57,54.62,0.0,101758.86,14.0,KO54,2244,-122.92230,40.74600
247,2018-08-06 08:35:00,101862.52,N,Overcast,,KO54 060835Z AUTO 00000KT 10SM OVC036 14/04 A3008 RMK AO1,1097.28,4.0,,,3.92,10.0,364.0,,0.0,1.0,93865.57,50.93,0.0,101758.89,14.0,KO54,2244,-122.92230,40.74600
248,2018-08-06 08:55:00,101862.52,N,Overcast,,KO54 060855Z AUTO 00000KT 10SM OVC036 14/04 A3008 RMK AO1,1097.28,4.0,,,3.92,10.0,364.0,,0.0,1.0,93865.57,50.93,0.0,101758.89,14.0,KO54,2244,-122.92230,40.74600
249,2018-08-06 09:15:00,101862.52,N,Overcast,,KO54 060915Z AUTO 00000KT 10SM OVC036 13/05 A3008 RMK AO1,1097.28,5.0,,,4.93,10.0,364.0,,0.0,1.0,93865.57,58.29,0.0,101787.36,13.0,KO54,2244,-122.92230,40.74600
250,2018-08-06 09:35:00,101896.38,NNE,Mostly Clear,,KO54 060935Z AUTO 03003KT 10SM FEW036 13/04 A3009 RMK AO1,,4.0,,,3.92,10.0,366.0,,30.0,1.0,93896.77,54.35,1.54,101821.22,13.0,KO54,2244,-122.92230,40.74600
251,2018-08-06 09:55:00,101896.38,NNE,Clear,,KO54 060955Z AUTO 03003KT 10SM CLR 12/04 A3009 RMK AO1,,4.0,,,3.92,10.0,1.0,,30.0,1.0,93896.77,58.03,1.54,101849.93,12.0,KO54,2244,-122.92230,40.74600
252,2018-08-06 10:15:00,101896.38,N,Clear,,KO54 061015Z AUTO 00000KT 10SM CLR 12/04 A3009 RMK AO1,,4.0,,,3.92,10.0,1.0,,0.0,1.0,93896.77,58.03,0.0,101849.93,12.0,KO54,2244,-122.92230,40.74600
253,2018-08-06 10:35:00,101896.38,N,Clear,,KO54 061035Z AUTO 00000KT 10SM CLR 12/04 A3009 RMK AO1,,4.0,,,3.92,10.0,1.0,,0.0,1.0,93896.77,58.03,0.0,101849.93,12.0,KO54,2244,-122.92230,40.74600
254,2018-08-06 10:55:00,101930.25,N,Clear,,KO54 061055Z AUTO 00000KT 10SM CLR 11/05 A3010 RMK AO1,,5.0,,,4.94,10.0,1.0,,0.0,1.0,93927.98,66.49,0.0,101912.68,11.0,KO54,2244,-122.92230,40.74600
255,2018-08-06 11:15:00,101930.25,NNE,Clear,,KO54 061115Z AUTO 03003KT 10SM CLR 11/04 A3010 RMK AO1,,4.0,,,3.93,10.0,1.0,,30.0,1.0,93927.98,62.0,1.54,101912.71,11.0,KO54,2244,-122.92230,40.74600
256,2018-08-06 11:35:00,101930.25,N,Clear,,KO54 061135Z AUTO 00000KT 10SM CLR 10/04 A3010 RMK AO1,,4.0,,,3.93,10.0,1.0,,0.0,1.0,93927.98,66.27,0.0,101941.85,10.0,KO54,2244,-122.92230,40.74600
257,2018-08-06 11:55:00,101930.25,N,Clear,,KO54 061155Z AUTO 00000KT 10SM CLR 10/04 A3010 RMK AO1,,4.0,,,3.93,10.0,1.0,,0.0,1.0,93927.98,66.27,0.0,101941.85,10.0,KO54,2244,-122.92230,40.74600
258,2018-08-06 12:15:00,101964.11,N,Clear,,KO54 061215Z AUTO 00000KT 10SM CLR 10/04 A3011 RMK AO1,,4.0,,,3.93,10.0,1.0,,0.0,1.0,93959.18,66.27,0.0,101975.71,10.0,KO54,2244,-122.92230,40.74600
259,2018-08-06 12:35:00,101964.11,NE,Clear,,KO54 061235Z AUTO 04003KT 10SM CLR 10/04 A3011 RMK AO1,,4.0,,,3.93,10.0,1.0,,40.0,1.0,93959.18,66.27,1.54,101975.71,10.0,KO54,2244,-122.92230,40.74600
260,2018-08-06 12:55:00,101997.98,N,Clear,,KO54 061255Z AUTO 00000KT 10SM CLR 09/04 A3012 RMK AO1,,4.0,,,3.94,10.0,1.0,,0.0,1.0,93990.39,70.88,0.0,102038.96,9.0,KO54,2244,-122.92230,40.74600
261,2018-08-06 13:15:00,101997.98,N,Clear,,KO54 061315Z AUTO 00000KT 10SM CLR 09/04 A3012 RMK AO1,,4.0,,,3.94,10.0,1.0,,0.0,1.0,93990.39,70.88,0.0,102038.96,9.0,KO54,2244,-122.92230,40.74600
262,2018-08-06 13:35:00,102031.84,N,Clear,,KO54 061335Z AUTO 00000KT 10SM CLR 09/04 A3013 RMK AO1,,4.0,,,3.94,10.0,1.0,,0.0,1.0,94021.59,70.88,0.0,102072.83,9.0,KO54,2244,-122.92230,40.74600
263,2018-08-06 14:15:00,102065.7,N,,,KO54 061415Z AUTO 00000KT 10/05 A3014 RMK AO1,,5.0,,,4.95,,,,0.0,1.0,94052.8,71.08,0.0,102077.29,10.0,KO54,2244,-122.92230,40.74600
264,2018-08-06 14:35:00,,N,,,KO54 061435Z AUTO 00000KT 10/05 RMK AO1,,5.0,,,4.95,,,,0.0,1.0,,71.08,0.0,,10.0,KO54,2244,-122.92230,40.74600
265,2018-08-06 14:55:00,,N,,,KO54 061455Z AUTO 00000KT 12/05 RMK AO1,,5.0,,,4.93,,,,0.0,1.0,,62.24,0.0,,12.0,KO54,2244,-122.92230,40.74600
266,2018-08-06 15:15:00,,N,,,KO54 061515Z AUTO 00000KT 14/05 RMK AO1,,5.0,,,4.93,,,,0.0,1.0,,54.62,0.0,,14.0,KO54,2244,-122.92230,40.74600
267,2018-08-06 15:35:00,,N,,,KO54 061535Z AUTO 00000KT 15/05 RMK AO1,,5.0,,,4.93,,,,0.0,1.0,,51.21,0.0,,15.0,KO54,2244,-122.92230,40.74600
268,2018-08-06 15:55:00,102099.57,N,,,KO54 061555Z AUTO 00000KT 8SM 16/05 A3015 RMK AO1,,5.0,,,4.93,8.0,,,0.0,1.0,94084.01,48.03,0.0,101939.16,16.0,KO54,2244,-122.92230,40.74600
269,2018-08-06 16:15:00,102099.57,SSW,,,KO54 061615Z AUTO 20003KT 17/05 A3015 RMK AO1,,5.0,,,4.93,,,,200.0,1.0,94084.01,45.07,1.54,101911.21,17.0,KO54,2244,-122.92230,40.74600
270,2018-08-06 16:35:00,102065.7,N,Clear,,KO54 061635Z AUTO 00000KT 10SM CLR 18/05 A3014 RMK AO1,,5.0,,,4.93,10.0,1.0,,0.0,1.0,94052.8,42.32,0.0,101849.66,18.0,KO54,2244,-122.92230,40.74600
271,2018-08-06 16:55:00,102065.7,N,Clear,,KO54 061655Z AUTO 00000KT 10SM CLR 20/05 A3014 RMK AO1,,5.0,,,4.95,10.0,1.0,,0.0,1.0,94052.8,37.36,0.0,101794.75,20.0,KO54,2244,-122.92230,40.74600
272,2018-08-06 17:15:00,102031.84,N,Clear,,KO54 061715Z AUTO 00000KT 10SM CLR 22/05 A3013 RMK AO1,,5.0,,,4.97,10.0,1.0,,0.0,1.0,94021.59,33.05,0.0,101706.85,22.0,KO54,2244,-122.92230,40.74600
273,2018-08-06 17:35:00,102031.84,N,Clear,,KO54 061735Z AUTO 00000KT 10SM CLR 23/04 A3013 RMK AO1,,4.0,,,3.98,10.0,1.0,,0.0,1.0,94021.59,29.0,0.0,101680.1,23.0,KO54,2244,-122.92230,40.74600
274,2018-08-06 17:55:00,101997.98,SE,Clear,,KO54 061755Z AUTO 13003KT 10SM CLR 24/04 A3012 RMK AO1,,4.0,,,3.99,10.0,1.0,,130.0,1.0,93990.39,27.31,1.54,101619.77,24.0,KO54,2244,-122.92230,40.74600
275,2018-08-06 18:15:00,101997.98,E,Clear,,KO54 061815Z AUTO 10004KT 10SM CLR 25/04 A3012 RMK AO1,,4.0,,,4.01,10.0,1.0,,100.0,1.0,93990.39,25.73,2.06,101593.37,25.0,KO54,2244,-122.92230,40.74600
276,2018-08-06 18:35:00,101964.11,SSE,Clear,,KO54 061835Z AUTO 15004KT 10SM CLR 26/04 A3011 RMK AO1,,4.0,,,4.02,10.0,1.0,,150.0,1.0,93959.18,24.25,2.06,101533.43,26.0,KO54,2244,-122.92230,40.74600
277,2018-08-06 18:55:00,101964.11,S,Clear,,KO54 061855Z AUTO 19004KT 9SM CLR 27/03 A3011 RMK AO1,,3.0,,,3.04,9.0,1.0,26.31,190.0,1.0,93959.18,21.3,2.06,101507.42,27.0,KO54,2244,-122.92230,40.74600
278,2018-08-06 19:15:00,101930.25,E,Clear,,KO54 061915Z AUTO 08003KT 10SM CLR 28/02 A3010 RMK AO1,,2.0,,,2.07,10.0,1.0,26.71,80.0,1.0,93927.98,18.72,1.54,101447.9,28.0,KO54,2244,-122.92230,40.74600
279,2018-08-06 19:35:00,101896.38,SSW,Clear,,KO54 061935Z AUTO 20004KT 8SM CLR 29/00 A3009 RMK AO1,,0.0,,,0.11,8.0,1.0,27.38,200.0,1.0,93896.77,15.29,2.06,101388.57,29.0,KO54,2244,-122.92230,40.74600
280,2018-08-06 19:55:00,101862.52,SSW,Clear,,KO54 061955Z AUTO 21007KT 190V270 10SM CLR 31/M05 A3008 RMK AO1,,-5.0,,,-4.78,10.0,1.0,28.58,210.0,1.0,93865.57,9.41,3.6,101304.18,31.0,KO54,2244,-122.92230,40.74600
281,2018-08-06 20:15:00,101828.66,WSW,Clear,,KO54 062015Z AUTO 25008KT 10SM CLR 32/M08 A3007 RMK AO1,,-8.0,,,-7.71,10.0,1.0,29.14,250.0,1.0,93834.36,7.06,4.12,101245.41,32.0,KO54,2244,-122.92230,40.74600
282,2018-08-06 20:35:00,101828.66,SW,Clear,8.75,KO54 062035Z AUTO 23009G17KT 180V240 10SM CLR 32/M08 A3007 RMK AO1,,-8.0,,,-7.71,10.0,1.0,29.14,230.0,1.0,93834.36,7.06,4.63,101245.41,32.0,KO54,2244,-122.92230,40.74600
283,2018-08-06 20:55:00,101794.79,SW,Clear,,KO54 062055Z AUTO 22008KT 180V240 10SM CLR 33/M07 A3006 RMK AO1,,-7.0,,,-6.7,10.0,1.0,29.92,220.0,1.0,93803.15,7.21,4.12,101186.78,33.0,KO54,2244,-122.92230,40.74600
284,2018-08-06 21:15:00,101760.93,SW,Clear,,KO54 062115Z AUTO 23007KT 190V270 10SM CLR 33/M08 A3005 RMK AO1,,-8.0,,,-7.67,10.0,1.0,29.87,230.0,1.0,93771.95,6.68,3.6,101153.14,33.0,KO54,2244,-122.92230,40.74600
285,2018-08-06 21:35:00,101727.07,SSW,Clear,,KO54 062135Z AUTO 21005KT 10SM CLR 33/M10 A3004 RMK AO1,,-10.0,,,-9.63,10.0,1.0,29.78,210.0,1.0,93740.75,5.71,2.57,101119.5,33.0,KO54,2244,-122.92230,40.74600
286,2018-08-06 21:55:00,101727.07,WSW,Clear,7.2,KO54 062155Z AUTO 25008G14KT 10SM CLR 34/M10 A3004 RMK AO1,,-10.0,,,-9.59,10.0,1.0,30.5,250.0,1.0,93740.75,5.4,4.12,101094.74,34.0,KO54,2244,-122.92230,40.74600
287,2018-08-06 22:15:00,101727.07,SW,Clear,8.23,KO54 062215Z AUTO 22010G16KT 8SM CLR 34/M09 A3004 RMK AO1,,-9.0,,,-8.62,8.0,1.0,30.55,220.0,1.0,93740.75,5.84,5.14,101094.73,34.0,KO54,2244,-122.92230,40.74600
288,2018-08-06 22:35:00,101727.07,SW,Clear,,KO54 062235Z AUTO 22007KT 10SM CLR 34/M08 A3004 RMK AO1,,-8.0,,,-7.65,10.0,1.0,30.6,220.0,1.0,93740.75,6.31,3.6,101094.72,34.0,KO54,2244,-122.92230,40.74600
289,2018-08-06 22:55:00,101693.2,WSW,Clear,,KO54 062255Z AUTO 24009KT 10SM CLR 34/M05 A3003 RMK AO1,,-5.0,,,-4.69,10.0,1.0,30.79,240.0,1.0,93709.54,7.95,4.63,101061.02,34.0,KO54,2244,-122.92230,40.74600
290,2018-08-06 23:15:00,101659.34,SW,Clear,,KO54 062315Z AUTO 23011KT 10SM CLR 34/M05 A3002 RMK AO1,,-5.0,,,-4.69,10.0,1.0,30.79,230.0,1.0,93678.34,7.95,5.66,101027.38,34.0,KO54,2244,-122.92230,40.74600
291,2018-08-06 23:35:00,101659.34,WSW,Clear,7.72,KO54 062335Z AUTO 24008G15KT 200V260 10SM CLR 34/M05 A3002 RMK AO1,,-5.0,,,-4.69,10.0,1.0,30.79,240.0,1.0,93678.34,7.95,4.12,101027.38,34.0,KO54,2244,-122.92230,40.74600
292,2018-08-06 23:55:00,101659.34,W,Clear,,KO54 062355Z AUTO 28009KT 140V290 10SM CLR 34/M05 A3002 RMK AO1,,-5.0,,,-4.69,10.0,1.0,30.79,280.0,1.0,93678.34,7.95,4.63,101027.38,34.0,KO54,2244,-122.92230,40.74600
293,2018-08-07 00:15:00,101625.47,SSW,Clear,7.72,KO54 070015Z AUTO 21007G15KT 10SM CLR 34/M04 A3001 RMK AO1,,-4.0,,,-3.71,10.0,1.0,30.87,210.0,1.0,93647.13,8.57,3.6,100993.71,34.0,KO54,2244,-122.92230,40.74600
294,2018-08-07 00:35:00,101625.47,W,Clear,,KO54 070035Z AUTO 27006KT 10SM CLR 34/M03 A3001 RMK AO1,,-3.0,,,-2.72,10.0,1.0,30.96,270.0,1.0,93647.13,9.24,3.09,100993.69,34.0,KO54,2244,-122.92230,40.74600
295,2018-08-07 00:55:00,101625.47,SW,Clear,,KO54 070055Z AUTO 22008KT 170V240 10SM CLR 33/M02 A3001 RMK AO1,,-2.0,,,-1.76,10.0,1.0,30.3,220.0,1.0,93647.13,10.52,4.12,101018.41,33.0,KO54,2244,-122.92230,40.74600
296,2018-08-07 01:15:00,101625.47,W,Clear,,KO54 070115Z AUTO 26006KT 10SM CLR 33/M01 A3001 RMK AO1,,-1.0,,,-0.78,10.0,1.0,30.4,260.0,1.0,93647.13,11.32,3.09,101018.4,33.0,KO54,2244,-122.92230,40.74600
297,2018-08-07 01:35:00,101625.47,W,Clear,,KO54 070135Z AUTO 26006KT 10SM CLR 33/M01 A3001 RMK AO1,,-1.0,,,-0.78,10.0,1.0,30.4,260.0,1.0,93647.13,11.32,3.09,101018.4,33.0,KO54,2244,-122.92230,40.74600
298,2018-08-07 01:55:00,101625.47,SSW,Clear,,KO54 070155Z AUTO 21006KT 10SM CLR 32/00 A3001 RMK AO1,,0.0,,,0.19,10.0,1.0,29.75,210.0,1.0,93647.13,12.89,3.09,101043.28,32.0,KO54,2244,-122.92230,40.74600
299,2018-08-07 02:15:00,101625.47,SW,Clear,,KO54 070215Z AUTO 22004KT 10SM CLR 32/00 A3001 RMK AO1,,0.0,,,0.19,10.0,1.0,29.75,220.0,1.0,93647.13,12.89,2.06,101043.28,32.0,KO54,2244,-122.92230,40.74600
300,2018-08-07 02:35:00,101625.47,SW,Clear,7.72,KO54 070235Z AUTO 22006G15KT 10SM CLR 32/00 A3001 RMK AO1,,0.0,,,0.19,10.0,1.0,29.75,220.0,1.0,93647.13,12.89,3.09,101043.28,32.0,KO54,2244,-122.92230,40.74600
301,2018-08-07 02:55:00,101625.47,SSW,Clear,,KO54 070255Z AUTO 20004KT 10SM CLR 30/01 A3001 RMK AO1,,1.0,,,1.12,10.0,1.0,28.15,200.0,1.0,93647.13,15.52,2.06,101093.58,30.0,KO54,2244,-122.92230,40.74600
302,2018-08-07 03:15:00,101659.34,SW,Mostly Clear,,KO54 070315Z AUTO 23006KT 10SM FEW110 29/02 A3002 RMK AO1,,2.0,,,2.09,10.0,1106.0,27.41,230.0,1.0,93678.34,17.66,3.09,101152.67,29.0,KO54,2244,-122.92230,40.74600
303,2018-08-07 03:35:00,101659.34,SW,Mostly Cloudy,,KO54 070335Z AUTO 22006KT 10SM BKN100 29/02 A3002 RMK AO1,3048.0,2.0,,,2.09,10.0,1003.0,27.41,220.0,1.0,93678.34,17.66,3.09,101152.67,29.0,KO54,2244,-122.92230,40.74600
304,2018-08-07 03:55:00,101659.34,SW,Overcast,,KO54 070355Z AUTO 23005KT 10SM OVC100 28/02 A3002 RMK AO1,3048.0,2.0,,,2.07,10.0,1004.0,26.71,230.0,1.0,93678.34,18.72,2.57,101178.27,28.0,KO54,2244,-122.92230,40.74600
305,2018-08-07 04:15:00,101693.2,W,Partly Cloudy,,KO54 070415Z AUTO 26003KT 10SM SCT100 28/02 A3003 RMK AO1,,2.0,,,2.07,10.0,1002.0,26.71,260.0,1.0,93709.54,18.72,1.54,101211.97,28.0,KO54,2244,-122.92230,40.74600
306,2018-08-07 04:35:00,101727.07,NE,Mostly Cloudy,,KO54 070435Z AUTO 04003KT 10SM BKN090 23/04 A3004 RMK AO1,2743.2,4.0,,,3.98,10.0,903.0,,40.0,1.0,93740.75,29.0,1.54,101376.38,23.0,KO54,2244,-122.92230,40.74600
307,2018-08-07 04:55:00,101727.07,NE,Overcast,,KO54 070455Z AUTO 04003KT 10SM OVC090 22/03 A3004 RMK AO1,2743.2,3.0,,,2.97,10.0,904.0,,40.0,1.0,93740.75,28.72,1.54,101403.1,22.0,KO54,2244,-122.92230,40.74600
308,2018-08-07 05:15:00,101760.93,N,Overcast,,KO54 070515Z AUTO 00000KT 10SM OVC090 20/03 A3005 RMK AO1,2743.2,3.0,,,2.94,10.0,904.0,,0.0,1.0,93771.95,32.46,0.0,101490.83,20.0,KO54,2244,-122.92230,40.74600
309,2018-08-07 05:35:00,101727.07,NNE,Overcast,,KO54 070535Z AUTO 03004KT 10SM OVC080 19/03 A3004 RMK AO1,2438.4,3.0,,,2.94,10.0,804.0,,30.0,1.0,93740.75,34.54,2.06,101484.33,19.0,KO54,2244,-122.92230,40.74600
310,2018-08-07 05:55:00,101760.93,NNE,Overcast,,KO54 070555Z AUTO 02003KT 10SM OVC080 19/03 A3005 RMK AO1,2438.4,3.0,,,2.94,10.0,804.0,,20.0,1.0,93771.95,34.54,1.54,101518.1,19.0,KO54,2244,-122.92230,40.74600
311,2018-08-07 06:15:00,101760.93,N,Overcast,,KO54 070615Z AUTO 35003KT 10SM OVC080 19/03 A3005 RMK AO1,2438.4,3.0,,,2.94,10.0,804.0,,350.0,1.0,93771.95,34.54,1.54,101518.1,19.0,KO54,2244,-122.92230,40.74600
312,2018-08-07 06:35:00,101760.93,NE,Overcast,,KO54 070635Z AUTO 04003KT 10SM OVC070 18/03 A3005 RMK AO1,2133.6,3.0,,,2.93,10.0,704.0,,40.0,1.0,93771.95,36.77,1.54,101545.57,18.0,KO54,2244,-122.92230,40.74600
313,2018-08-07 06:55:00,101760.93,NE,Overcast,,KO54 070655Z AUTO 04003KT 10SM OVC070 18/03 A3005 RMK AO1,2133.6,3.0,,,2.93,10.0,704.0,,40.0,1.0,93771.95,36.77,1.54,101545.57,18.0,KO54,2244,-122.92230,40.74600
314,2018-08-07 07:15:00,101794.79,NNE,Overcast,,KO54 070715Z AUTO 02003KT 10SM OVC060 18/03 A3006 RMK AO1,1828.8,3.0,,,2.93,10.0,604.0,,20.0,1.0,93803.15,36.77,1.54,101579.36,18.0,KO54,2244,-122.92230,40.74600
315,2018-08-07 07:35:00,101760.93,NNE,Overcast,,KO54 070735Z AUTO 03003KT 10SM OVC060 17/03 A3005 RMK AO1,1828.8,3.0,,,2.92,10.0,604.0,,30.0,1.0,93771.95,39.16,1.54,101573.24,17.0,KO54,2244,-122.92230,40.74600
316,2018-08-07 07:55:00,101794.79,N,Overcast,,KO54 070755Z AUTO 00000KT 10SM OVC060 16/03 A3006 RMK AO1,1828.8,3.0,,,2.92,10.0,604.0,,0.0,1.0,93803.15,41.73,0.0,101634.9,16.0,KO54,2244,-122.92230,40.74600
317,2018-08-07 08:15:00,101794.79,N,Overcast,,KO54 070815Z AUTO 00000KT 10SM OVC060 16/03 A3006 RMK AO1,1828.8,3.0,,,2.92,10.0,604.0,,0.0,1.0,93803.15,41.73,0.0,101634.9,16.0,KO54,2244,-122.92230,40.74600
318,2018-08-07 08:35:00,101760.93,NNE,Overcast,,KO54 070835Z AUTO 02003KT 10SM OVC060 16/03 A3005 RMK AO1,1828.8,3.0,,,2.92,10.0,604.0,,20.0,1.0,93771.95,41.73,1.54,101601.1,16.0,KO54,2244,-122.92230,40.74600
319,2018-08-07 08:55:00,101760.93,NNE,Overcast,,KO54 070855Z AUTO 02003KT 10SM OVC050 15/03 A3005 RMK AO1,1524.0,3.0,,,2.92,10.0,504.0,,20.0,1.0,93771.95,44.49,1.54,101629.16,15.0,KO54,2244,-122.92230,40.74600
320,2018-08-07 09:15:00,101760.93,N,Overcast,,KO54 070915Z AUTO 00000KT 10SM OVC050 15/03 A3005 RMK AO1,1524.0,3.0,,,2.92,10.0,504.0,,0.0,1.0,93771.95,44.49,0.0,101629.16,15.0,KO54,2244,-122.92230,40.74600
321,2018-08-07 09:35:00,101760.93,N,Overcast,,KO54 070935Z AUTO 00000KT 10SM OVC046 14/03 A3005 RMK AO1,1402.08,3.0,,,2.92,10.0,464.0,,0.0,1.0,93771.95,47.46,0.0,101657.42,14.0,KO54,2244,-122.92230,40.74600
322,2018-08-07 09:55:00,101727.07,NNE,Overcast,,KO54 070955Z AUTO 02003KT 10SM OVC042 14/03 A3004 RMK AO1,1280.16,3.0,,,2.92,10.0,424.0,,20.0,1.0,93740.75,47.46,1.54,101623.6,14.0,KO54,2244,-122.92230,40.74600
323,2018-08-07 10:15:00,101727.07,N,Overcast,,KO54 071015Z AUTO 00000KT 10SM OVC040 14/03 A3004 RMK AO1,1219.2,3.0,,,2.92,10.0,404.0,,0.0,1.0,93740.75,47.46,0.0,101623.6,14.0,KO54,2244,-122.92230,40.74600
324,2018-08-07 10:35:00,101727.07,N,Overcast,,KO54 071035Z AUTO 00000KT 10SM OVC040 14/03 A3004 RMK AO1,1219.2,3.0,,,2.92,10.0,404.0,,0.0,1.0,93740.75,47.46,0.0,101623.6,14.0,KO54,2244,-122.92230,40.74600
325,2018-08-07 10:55:00,101727.07,NNE,Overcast,,KO54 071055Z AUTO 02003KT 10SM OVC038 14/03 A3004 RMK AO1,1158.24,3.0,,,2.92,10.0,384.0,,20.0,1.0,93740.75,47.46,1.54,101623.6,14.0,KO54,2244,-122.92230,40.74600
326,2018-08-07 11:15:00,101727.07,N,Overcast,,KO54 071115Z AUTO 00000KT 10SM OVC038 13/03 A3004 RMK AO1,1158.24,3.0,,,2.92,10.0,384.0,,0.0,1.0,93740.75,50.65,0.0,101652.05,13.0,KO54,2244,-122.92230,40.74600
327,2018-08-07 11:35:00,101727.07,N,Overcast,,KO54 071135Z AUTO 00000KT 10SM BKN038 OVC047 13/02 A3004 RMK AO1,1158.24,2.0,474.0,,1.91,10.0,383.0,,0.0,1.0,93740.75,47.17,0.0,101652.08,13.0,KO54,2244,-122.92230,40.74600
328,2018-08-07 11:55:00,101727.07,N,Overcast,,KO54 071155Z AUTO 01003KT 10SM OVC043 13/02 A3004 RMK AO1,1310.64,2.0,,,1.91,10.0,434.0,,10.0,1.0,93740.75,47.17,1.54,101652.08,13.0,KO54,2244,-122.92230,40.74600
329,2018-08-07 12:15:00,101760.93,N,Overcast,,KO54 071215Z AUTO 00000KT 10SM OVC041 13/03 A3005 RMK AO1,1249.68,3.0,,,2.92,10.0,414.0,,0.0,1.0,93771.95,50.65,0.0,101685.89,13.0,KO54,2244,-122.92230,40.74600
330,2018-08-07 12:35:00,101760.93,N,Overcast,,KO54 071235Z AUTO 00000KT 10SM OVC041 12/02 A3005 RMK AO1,1249.68,2.0,,,1.91,10.0,414.0,,0.0,1.0,93771.95,50.37,0.0,101714.58,12.0,KO54,2244,-122.92230,40.74600
331,2018-08-07 12:55:00,101760.93,N,Overcast,,KO54 071255Z AUTO 00000KT 10SM SCT032 OVC041 12/03 A3005 RMK AO1,1249.68,3.0,414.0,,2.92,10.0,322.0,,0.0,1.0,93771.95,54.08,0.0,101714.56,12.0,KO54,2244,-122.92230,40.74600
332,2018-08-07 13:15:00,101760.93,N,Overcast,,KO54 071315Z AUTO 00000KT 10SM BKN032 OVC041 12/03 A3005 RMK AO1,975.36,3.0,414.0,,2.92,10.0,323.0,,0.0,1.0,93771.95,54.08,0.0,101714.56,12.0,KO54,2244,-122.92230,40.74600
333,2018-08-07 13:35:00,101760.93,N,Overcast,,KO54 071335Z AUTO 00000KT 10SM FEW032 OVC043 12/03 A3005 RMK AO1,1310.64,3.0,434.0,,2.92,10.0,326.0,,0.0,1.0,93771.95,54.08,0.0,101714.56,12.0,KO54,2244,-122.92230,40.74600
334,2018-08-07 13:55:00,101760.93,N,Mostly Clear,,KO54 071355Z AUTO 00000KT 10SM FEW041 12/03 A3005 RMK AO1,,3.0,,,2.92,10.0,416.0,,0.0,1.0,93771.95,54.08,0.0,101714.56,12.0,KO54,2244,-122.92230,40.74600
335,2018-08-07 14:15:00,101794.79,N,Clear,,KO54 071415Z AUTO 00000KT 10SM CLR 12/03 A3006 RMK AO1,,3.0,,,2.92,10.0,1.0,,0.0,1.0,93803.15,54.08,0.0,101748.4,12.0,KO54,2244,-122.92230,40.74600
336,2018-08-07 14:35:00,101794.79,N,Clear,,KO54 071435Z AUTO 00000KT 10SM CLR 12/04 A3006 RMK AO1,,4.0,,,3.92,10.0,1.0,,0.0,1.0,93803.15,58.03,0.0,101748.38,12.0,KO54,2244,-122.92230,40.74600
337,2018-08-07 14:55:00,101794.79,N,Clear,,KO54 071455Z AUTO 00000KT 8SM CLR 14/04 A3006 RMK AO1,,4.0,,,3.92,8.0,1.0,,0.0,1.0,93803.15,50.93,0.0,101691.22,14.0,KO54,2244,-122.92230,40.74600
338,2018-08-07 15:15:00,101760.93,N,Clear,,KO54 071515Z AUTO 00000KT 10SM CLR 15/04 A3005 RMK AO1,,4.0,,,3.92,10.0,1.0,,0.0,1.0,93771.95,47.75,0.0,101629.13,15.0,KO54,2244,-122.92230,40.74600
339,2018-08-07 15:35:00,101760.93,N,Clear,,KO54 071535Z AUTO 00000KT 10SM CLR 16/03 A3005 RMK AO1,,3.0,,,2.92,10.0,1.0,,0.0,1.0,93771.95,41.73,0.0,101601.1,16.0,KO54,2244,-122.92230,40.74600
340,2018-08-07 15:55:00,101760.93,N,Clear,,KO54 071555Z AUTO 00000KT 10SM CLR 17/03 A3005 RMK AO1,,3.0,,,2.92,10.0,1.0,,0.0,1.0,93771.95,39.16,0.0,101573.24,17.0,KO54,2244,-122.92230,40.74600
341,2018-08-07 16:15:00,101760.93,N,Clear,,KO54 071615Z AUTO 00000KT 10SM CLR 17/03 A3005 RMK AO1,,3.0,,,2.92,10.0,1.0,,0.0,1.0,93771.95,39.16,0.0,101573.24,17.0,KO54,2244,-122.92230,40.74600
342,2018-08-07 16:35:00,101727.07,N,Clear,,KO54 071635Z AUTO 00000KT 10SM CLR 18/03 A3004 RMK AO1,,3.0,,,2.93,10.0,1.0,,0.0,1.0,93740.75,36.77,0.0,101511.79,18.0,KO54,2244,-122.92230,40.74600
343,2018-08-07 16:55:00,101727.07,S,Clear,,KO54 071655Z AUTO 18003KT 10SM CLR 19/03 A3004 RMK AO1,,3.0,,,2.94,10.0,1.0,,180.0,1.0,93740.75,34.54,1.54,101484.33,19.0,KO54,2244,-122.92230,40.74600
344,2018-08-07 17:15:00,101693.2,N,Clear,,KO54 071715Z AUTO 00000KT 10SM CLR 20/03 A3003 RMK AO1,,3.0,,,2.94,10.0,1.0,,0.0,1.0,93709.54,32.46,0.0,101423.28,20.0,KO54,2244,-122.92230,40.74600
345,2018-08-07 17:35:00,101693.2,N,Clear,,KO54 071735Z AUTO 00000KT 10SM CLR 22/02 A3003 RMK AO1,,2.0,,,1.97,10.0,1.0,,0.0,1.0,93709.54,26.74,0.0,101369.36,22.0,KO54,2244,-122.92230,40.74600
346,2018-08-07 17:55:00,101659.34,N,Clear,,KO54 071755Z AUTO 00000KT 10SM CLR 23/02 A3002 RMK AO1,,2.0,,,1.98,10.0,1.0,,0.0,1.0,93678.34,25.17,0.0,101308.93,23.0,KO54,2244,-122.92230,40.74600
347,2018-08-07 18:15:00,101659.34,S,Clear,,KO54 071815Z AUTO 17003KT 10SM CLR 24/03 A3002 RMK AO1,,3.0,,,2.99,10.0,1.0,,170.0,1.0,93678.34,25.45,1.54,101282.41,24.0,KO54,2244,-122.92230,40.74600
348,2018-08-07 18:35:00,101625.47,N,Clear,,KO54 071835Z AUTO 00000KT 10SM CLR 24/03 A3001 RMK AO1,,3.0,,,2.99,10.0,1.0,,0.0,1.0,93647.13,25.45,0.0,101248.67,24.0,KO54,2244,-122.92230,40.74600
349,2018-08-07 18:55:00,101591.61,S,Clear,,KO54 071855Z AUTO 18003KT 10SM CLR 25/04 A3000 RMK AO1,,4.0,,,4.01,10.0,1.0,,180.0,1.0,93615.92,25.73,1.54,101188.61,25.0,KO54,2244,-122.92230,40.74600
350,2018-08-07 19:15:00,101557.75,N,Clear,,KO54 071915Z AUTO 00000KT 10SM CLR 26/04 A2999 RMK AO1,,4.0,,,4.02,10.0,1.0,,0.0,1.0,93584.72,24.25,0.0,101128.78,26.0,KO54,2244,-122.92230,40.74600
351,2018-08-07 19:35:00,101523.88,N,Clear,,KO54 071935Z AUTO 00000KT 10SM CLR 27/04 A2998 RMK AO1,,4.0,,,4.04,10.0,1.0,26.35,0.0,1.0,93553.51,22.86,0.0,101069.14,27.0,KO54,2244,-122.92230,40.74600
352,2018-08-07 19:55:00,101490.02,N,Clear,,KO54 071955Z AUTO 00000KT 10SM CLR 28/04 A2997 RMK AO1,,4.0,,,4.06,10.0,1.0,26.78,0.0,1.0,93522.31,21.57,0.0,101009.7,28.0,KO54,2244,-122.92230,40.74600
353,2018-08-07 20:15:00,101490.02,SW,Clear,,KO54 072015Z AUTO 23003KT 10SM CLR 29/04 A2997 RMK AO1,,4.0,,,4.08,10.0,1.0,27.47,230.0,1.0,93522.31,20.35,1.54,100984.15,29.0,KO54,2244,-122.92230,40.74600
354,2018-08-07 20:35:00,101456.15,N,Clear,,KO54 072035Z AUTO 00000KT 10SM CLR 29/04 A2996 RMK AO1,,4.0,,,4.08,10.0,1.0,27.47,0.0,1.0,93491.1,20.35,0.0,100950.45,29.0,KO54,2244,-122.92230,40.74600
355,2018-08-07 20:55:00,101422.29,S,Clear,,KO54 072055Z AUTO 19004KT 10SM CLR 30/04 A2995 RMK AO1,,4.0,,,4.1,10.0,1.0,28.22,190.0,1.0,93459.9,19.21,2.06,100891.39,30.0,KO54,2244,-122.92230,40.74600
356,2018-08-07 21:15:00,101388.43,N,Clear,,KO54 072115Z AUTO 00000KT 10SM CLR 32/04 A2994 RMK AO1,,4.0,,,4.15,10.0,1.0,29.85,0.0,1.0,93428.7,17.15,0.0,100807.51,32.0,KO54,2244,-122.92230,40.74600
357,2018-08-07 21:35:00,101354.56,N,Clear,,KO54 072135Z AUTO 00000KT 10SM CLR 33/04 A2993 RMK AO1,,4.0,,,4.17,10.0,1.0,30.73,0.0,1.0,93397.49,16.21,0.0,100749.0,33.0,KO54,2244,-122.92230,40.74600
358,2018-08-07 21:55:00,101354.56,SSW,Clear,,KO54 072155Z AUTO 20003KT 9SM CLR 33/04 A2993 RMK AO1,,4.0,,,4.17,9.0,1.0,30.73,200.0,1.0,93397.49,16.21,1.54,100749.0,33.0,KO54,2244,-122.92230,40.74600
359,2018-08-07 22:15:00,101320.7,SSW,Clear,,KO54 072215Z AUTO 21007KT 10SM CLR 33/03 A2992 RMK AO1,,3.0,,,3.19,10.0,1.0,30.68,210.0,1.0,93366.28,15.11,3.6,100715.36,33.0,KO54,2244,-122.92230,40.74600
360,2018-08-07 22:35:00,101286.84,SSW,Clear,,KO54 072235Z AUTO 20005KT 9SM CLR 34/03 A2991 RMK AO1,,3.0,,,3.21,9.0,1.0,31.57,200.0,1.0,93335.08,14.29,2.57,100657.05,34.0,KO54,2244,-122.92230,40.74600
361,2018-08-07 22:55:00,101286.84,SW,Clear,,KO54 072255Z AUTO 23005KT 10SM CLR 35/04 A2991 RMK AO1,,4.0,,,4.24,10.0,1.0,32.54,230.0,1.0,93335.08,14.51,2.57,100632.54,35.0,KO54,2244,-122.92230,40.74600
362,2018-08-07 23:15:00,101252.97,WSW,Clear,,KO54 072315Z AUTO 24006KT 10SM CLR 34/04 A2990 RMK AO1,,4.0,,,4.2,10.0,1.0,31.62,240.0,1.0,93303.87,15.33,3.09,100623.37,34.0,KO54,2244,-122.92230,40.74600
363,2018-08-07 23:35:00,101252.97,SW,Clear,,KO54 072335Z AUTO 23007KT 7SM CLR 35/04 A2990 RMK AO1,,4.0,,,4.24,7.0,1.0,32.54,230.0,1.0,93303.87,14.51,3.6,100598.89,35.0,KO54,2244,-122.92230,40.74600
364,2018-08-07 23:55:00,101252.97,W,Clear,,KO54 072355Z AUTO 27007KT 9SM CLR 35/04 A2990 RMK AO1,,4.0,,,4.24,9.0,1.0,32.54,270.0,1.0,93303.87,14.51,3.6,100598.89,35.0,KO54,2244,-122.92230,40.74600
365,2018-08-08 00:15:00,101219.11,W,Clear,,KO54 080015Z AUTO 27005KT 9SM CLR 34/05 A2989 RMK AO1,,5.0,,,5.19,9.0,1.0,31.69,270.0,1.0,93272.67,16.44,2.57,100589.7,34.0,KO54,2244,-122.92230,40.74600
366,2018-08-08 00:35:00,101219.11,SW,Clear,,KO54 080035Z AUTO 23006KT 9SM CLR 34/05 A2989 RMK AO1,,5.0,,,5.19,9.0,1.0,31.69,230.0,1.0,93272.67,16.44,3.09,100589.7,34.0,KO54,2244,-122.92230,40.74600
367,2018-08-08 00:55:00,101219.11,SW,Clear,,KO54 080055Z AUTO 22005KT 9SM CLR 34/05 A2989 RMK AO1,,5.0,,,5.19,9.0,1.0,31.69,220.0,1.0,93272.67,16.44,2.57,100589.7,34.0,KO54,2244,-122.92230,40.74600
368,2018-08-08 01:15:00,101219.11,SW,Clear,,KO54 080115Z AUTO 22006KT 9SM CLR 33/04 A2989 RMK AO1,,4.0,,,4.17,9.0,1.0,30.73,220.0,1.0,93272.67,16.21,3.09,100614.36,33.0,KO54,2244,-122.92230,40.74600
369,2018-08-08 01:35:00,101185.24,SW,Clear,,KO54 080135Z AUTO 23008KT 8SM CLR 33/04 A2988 RMK AO1,,4.0,,,4.17,8.0,1.0,30.73,230.0,1.0,93241.46,16.21,4.12,100580.69,33.0,KO54,2244,-122.92230,40.74600
370,2018-08-08 01:55:00,101219.11,SW,Clear,,KO54 080155Z AUTO 23007KT 7SM CLR 33/03 A2989 RMK AO1,,3.0,,,3.19,7.0,1.0,30.68,230.0,1.0,93272.67,15.11,3.6,100614.38,33.0,KO54,2244,-122.92230,40.74600
371,2018-08-08 02:15:00,101219.11,SW,Clear,,KO54 080215Z AUTO 23005KT 9SM CLR 32/03 A2989 RMK AO1,,3.0,,,3.16,9.0,1.0,29.82,230.0,1.0,93272.67,15.98,2.57,100639.18,32.0,KO54,2244,-122.92230,40.74600
372,2018-08-08 02:35:00,101219.11,SSW,Clear,,KO54 080235Z AUTO 20006KT 9SM CLR 31/02 A2989 RMK AO1,,2.0,,,2.14,9.0,1.0,28.96,200.0,1.0,93272.67,15.75,3.09,100664.18,31.0,KO54,2244,-122.92230,40.74600
373,2018-08-08 02:55:00,101252.97,SSW,Clear,,KO54 080255Z AUTO 21006KT 8SM CLR 30/03 A2990 RMK AO1,,3.0,,,3.11,8.0,1.0,28.18,210.0,1.0,93303.87,17.91,3.09,100722.98,30.0,KO54,2244,-122.92230,40.74600
374,2018-08-08 03:15:00,101252.97,SSW,Mostly Clear,,KO54 080315Z AUTO 21006KT 8SM FEW070 29/04 A2990 RMK AO1,,4.0,,,4.08,8.0,706.0,27.47,210.0,1.0,93303.87,20.35,3.09,100748.28,29.0,KO54,2244,-122.92230,40.74600
375,2018-08-08 03:35:00,101252.97,NNE,Mostly Cloudy,,KO54 080335Z AUTO 02004KT 9SM BKN070 26/08 A2990 RMK AO1,2133.6,8.0,,,8.01,9.0,703.0,,20.0,1.0,93303.87,31.97,2.06,100825.18,26.0,KO54,2244,-122.92230,40.74600
376,2018-08-08 03:55:00,101320.7,NE,Overcast,,KO54 080355Z AUTO 04003KT 10SM OVC070 23/09 A2992 RMK AO1,2133.6,9.0,,,8.98,10.0,704.0,,40.0,1.0,93366.28,40.92,1.54,100971.26,23.0,KO54,2244,-122.92230,40.74600
377,2018-08-08 04:15:00,101354.56,NNE,Overcast,,KO54 080415Z AUTO 03003KT 10SM OVC070 23/08 A2993 RMK AO1,2133.6,8.0,,,7.98,10.0,704.0,,30.0,1.0,93397.49,38.24,1.54,101005.05,23.0,KO54,2244,-122.92230,40.74600
378,2018-08-08 04:35:00,101388.43,NNE,Mostly Cloudy,,KO54 080435Z AUTO 03003KT 10SM BKN060 22/07 A2994 RMK AO1,1828.8,7.0,,,6.97,10.0,603.0,,30.0,1.0,93428.7,37.95,1.54,101065.44,22.0,KO54,2244,-122.92230,40.74600
379,2018-08-08 04:55:00,101388.43,N,Mostly Cloudy,,KO54 080455Z AUTO 00000KT 10SM BKN060 BKN070 21/07 A2994 RMK AO1,1828.8,7.0,703.0,,6.96,10.0,603.0,,0.0,1.0,93428.7,40.34,0.0,101092.23,21.0,KO54,2244,-122.92230,40.74600
380,2018-08-08 05:15:00,101422.29,N,Mostly Cloudy,,KO54 080515Z AUTO 00000KT 10SM BKN060 20/07 A2995 RMK AO1,1828.8,7.0,,,6.95,10.0,603.0,,0.0,1.0,93459.9,42.9,0.0,101152.99,20.0,KO54,2244,-122.92230,40.74600
381,2018-08-08 05:35:00,101422.29,NE,Overcast,,KO54 080535Z AUTO 04004KT 10SM OVC060 20/07 A2995 RMK AO1,1828.8,7.0,,,6.95,10.0,604.0,,40.0,1.0,93459.9,42.9,2.06,101152.99,20.0,KO54,2244,-122.92230,40.74600
382,2018-08-08 05:55:00,101422.29,NNE,Overcast,,KO54 080555Z AUTO 02004KT 10SM OVC060 19/07 A2995 RMK AO1,1828.8,7.0,,,6.95,10.0,604.0,,20.0,1.0,93459.9,45.65,2.06,101180.17,19.0,KO54,2244,-122.92230,40.74600
383,2018-08-08 06:15:00,101456.15,N,Mostly Cloudy,,KO54 080615Z AUTO 00000KT 10SM BKN060 19/07 A2996 RMK AO1,1828.8,7.0,,,6.95,10.0,603.0,,0.0,1.0,93491.1,45.65,0.0,101213.95,19.0,KO54,2244,-122.92230,40.74600
384,2018-08-08 06:35:00,101456.15,NE,Partly Cloudy,,KO54 080635Z AUTO 04004KT 10SM SCT060 19/08 A2996 RMK AO1,,8.0,,,7.95,10.0,602.0,,40.0,1.0,93491.1,48.87,2.06,101213.92,19.0,KO54,2244,-122.92230,40.74600
385,2018-08-08 06:55:00,101490.02,N,Mostly Clear,,KO54 080655Z AUTO 00000KT 10SM FEW060 18/07 A2997 RMK AO1,,7.0,,,6.94,10.0,606.0,,0.0,1.0,93522.31,48.59,0.0,101275.13,18.0,KO54,2244,-122.92230,40.74600
386,2018-08-08 07:15:00,101490.02,NE,Mostly Clear,,KO54 080715Z AUTO 04003KT 10SM FEW050 18/07 A2997 RMK AO1,,7.0,,,6.94,10.0,506.0,,40.0,1.0,93522.31,48.59,1.54,101275.13,18.0,KO54,2244,-122.92230,40.74600
387,2018-08-08 07:35:00,101490.02,NE,Mostly Cloudy,,KO54 080735Z AUTO 05003KT 9SM BKN048 18/07 A2997 RMK AO1,1463.04,7.0,,,6.94,9.0,483.0,,50.0,1.0,93522.31,48.59,1.54,101275.13,18.0,KO54,2244,-122.92230,40.74600
388,2018-08-08 07:55:00,101490.02,N,Overcast,,KO54 080755Z AUTO 00000KT 8SM BKN048 OVC055 17/08 A2997 RMK AO1,1463.04,8.0,554.0,,7.94,8.0,483.0,,0.0,1.0,93522.31,55.41,0.0,101302.69,17.0,KO54,2244,-122.92230,40.74600
389,2018-08-08 08:15:00,101490.02,N,Overcast,,KO54 080815Z AUTO 00000KT 9SM OVC050 17/08 A2997 RMK AO1,1524.0,8.0,,,7.94,9.0,504.0,,0.0,1.0,93522.31,55.41,0.0,101302.69,17.0,KO54,2244,-122.92230,40.74600
390,2018-08-08 08:35:00,101456.15,N,Overcast,,KO54 080835Z AUTO 00000KT 8SM OVC050 16/08 A2996 RMK AO1,1524.0,8.0,,,7.94,8.0,504.0,,0.0,1.0,93491.1,59.05,0.0,101296.66,16.0,KO54,2244,-122.92230,40.74600
391,2018-08-08 08:55:00,101490.02,N,Overcast,,KO54 080855Z AUTO 01003KT 8SM BKN043 OVC049 15/08 A2997 RMK AO1,1310.64,8.0,494.0,,7.95,8.0,433.0,,10.0,1.0,93522.31,62.95,1.54,101358.46,15.0,KO54,2244,-122.92230,40.74600
392,2018-08-08 09:15:00,101456.15,NNE,Overcast,,KO54 080915Z AUTO 02003KT 8SM OVC045 15/08 A2996 RMK AO1,1371.6,8.0,,,7.95,8.0,454.0,,20.0,1.0,93491.1,62.95,1.54,101324.64,15.0,KO54,2244,-122.92230,40.74600
393,2018-08-08 09:35:00,101456.15,N,Overcast,,KO54 080935Z AUTO 00000KT 8SM FEW036 OVC041 15/08 A2996 RMK AO1,1249.68,8.0,414.0,,7.95,8.0,366.0,,0.0,1.0,93491.1,62.95,0.0,101324.64,15.0,KO54,2244,-122.92230,40.74600
394,2018-08-08 09:55:00,101490.02,N,Overcast,,KO54 080955Z AUTO 00000KT 8SM OVC041 14/08 A2997 RMK AO1,1249.68,8.0,,,7.95,8.0,414.0,,0.0,1.0,93522.31,67.15,0.0,101386.65,14.0,KO54,2244,-122.92230,40.74600
395,2018-08-08 10:15:00,101490.02,N,Overcast,,KO54 081015Z AUTO 00000KT 8SM OVC041 14/08 A2997 RMK AO1,1249.68,8.0,,,7.95,8.0,414.0,,0.0,1.0,93522.31,67.15,0.0,101386.65,14.0,KO54,2244,-122.92230,40.74600
396,2018-08-08 10:35:00,101490.02,N,Overcast,,KO54 081035Z AUTO 00000KT 8SM OVC041 14/08 A2997 RMK AO1,1249.68,8.0,,,7.95,8.0,414.0,,0.0,1.0,93522.31,67.15,0.0,101386.65,14.0,KO54,2244,-122.92230,40.74600
397,2018-08-08 10:55:00,101490.02,N,Overcast,,KO54 081055Z AUTO 00000KT 8SM OVC037 14/08 A2997 RMK AO1,1127.76,8.0,,,7.95,8.0,374.0,,0.0,1.0,93522.31,67.15,0.0,101386.65,14.0,KO54,2244,-122.92230,40.74600
398,2018-08-08 11:15:00,101490.02,N,Overcast,,KO54 081115Z AUTO 00000KT 8SM OVC037 13/08 A2997 RMK AO1,1127.76,8.0,,,7.95,8.0,374.0,,0.0,1.0,93522.31,71.66,0.0,101415.04,13.0,KO54,2244,-122.92230,40.74600
399,2018-08-08 11:35:00,101523.88,N,Overcast,,KO54 081135Z AUTO 00000KT 8SM OVC037 13/08 A2998 RMK AO1,1127.76,8.0,,,7.95,8.0,374.0,,0.0,1.0,93553.51,71.66,0.0,101448.87,13.0,KO54,2244,-122.92230,40.74600
400,2018-08-08 11:55:00,101523.88,N,Overcast,,KO54 081155Z AUTO 01003KT 8SM OVC037 13/08 A2998 RMK AO1,1127.76,8.0,,,7.95,8.0,374.0,,10.0,1.0,93553.51,71.66,1.54,101448.87,13.0,KO54,2244,-122.92230,40.74600
401,2018-08-08 12:15:00,101557.75,N,Overcast,,KO54 081215Z AUTO 00000KT 8SM OVC037 13/08 A2999 RMK AO1,1127.76,8.0,,,7.95,8.0,374.0,,0.0,1.0,93584.72,71.66,0.0,101482.72,13.0,KO54,2244,-122.92230,40.74600
402,2018-08-08 12:35:00,101557.75,NNE,Overcast,,KO54 081235Z AUTO 03003KT 8SM OVC037 13/08 A2999 RMK AO1,1127.76,8.0,,,7.95,8.0,374.0,,30.0,1.0,93584.72,71.66,1.54,101482.72,13.0,KO54,2244,-122.92230,40.74600
403,2018-08-08 12:55:00,101591.61,N,Overcast,,KO54 081255Z AUTO 00000KT 8SM OVC037 12/08 A3000 RMK AO1,1127.76,8.0,,,7.96,8.0,374.0,,0.0,1.0,93615.92,76.52,0.0,101545.17,12.0,KO54,2244,-122.92230,40.74600
404,2018-08-08 13:15:00,101625.47,N,Overcast,,KO54 081315Z AUTO 00000KT 8SM OVC037 12/08 A3001 RMK AO1,1127.76,8.0,,,7.96,8.0,374.0,,0.0,1.0,93647.13,76.52,0.0,101579.03,12.0,KO54,2244,-122.92230,40.74600
405,2018-08-08 13:35:00,101625.47,N,Mostly Cloudy,,KO54 081335Z AUTO 00000KT 6SM BKN037 BKN043 12/08 A3001 RMK AO1,1127.76,8.0,433.0,,7.96,6.0,373.0,,0.0,1.0,93647.13,76.52,0.0,101579.03,12.0,KO54,2244,-122.92230,40.74600
406,2018-08-08 13:55:00,101659.34,N,Mostly Clear,,KO54 081355Z AUTO 00000KT 5SM FEW035 12/08 A3002 RMK AO1,,8.0,,,7.96,5.0,356.0,,0.0,1.0,93678.34,76.52,0.0,101612.88,12.0,KO54,2244,-122.92230,40.74600
407,2018-08-08 14:15:00,101659.34,N,Clear,,KO54 081415Z AUTO 00000KT 5SM CLR 12/08 A3002 RMK AO1,,8.0,,,7.96,5.0,1.0,,0.0,1.0,93678.34,76.52,0.0,101612.88,12.0,KO54,2244,-122.92230,40.74600
408,2018-08-08 14:35:00,101693.2,N,Clear,,KO54 081435Z AUTO 00000KT 5SM CLR 13/08 A3003 RMK AO1,,8.0,,,7.95,5.0,1.0,,0.0,1.0,93709.54,71.66,0.0,101618.07,13.0,KO54,2244,-122.92230,40.74600
409,2018-08-08 14:55:00,101693.2,N,Clear,,KO54 081455Z AUTO 00000KT 5SM CLR 14/09 A3003 RMK AO1,,9.0,,,8.96,5.0,1.0,,0.0,1.0,93709.54,71.85,0.0,101589.59,14.0,KO54,2244,-122.92230,40.74600
410,2018-08-08 15:15:00,101693.2,N,Clear,,KO54 081515Z AUTO 00000KT 6SM CLR 15/09 A3003 RMK AO1,,9.0,,,8.95,6.0,1.0,,0.0,1.0,93709.54,67.36,0.0,101561.35,15.0,KO54,2244,-122.92230,40.74600
411,2018-08-08 15:35:00,101693.2,N,Clear,,KO54 081535Z AUTO 00000KT 6SM CLR 17/09 A3003 RMK AO1,,9.0,,,8.95,6.0,1.0,,0.0,1.0,93709.54,59.3,0.0,101505.46,17.0,KO54,2244,-122.92230,40.74600
412,2018-08-08 15:55:00,101727.07,N,Clear,,KO54 081555Z AUTO 00000KT 6SM CLR 18/09 A3004 RMK AO1,,9.0,,,8.95,6.0,1.0,,0.0,1.0,93740.75,55.67,0.0,101511.62,18.0,KO54,2244,-122.92230,40.74600
413,2018-08-08 16:15:00,101727.07,N,Clear,,KO54 081615Z AUTO 00000KT 6SM CLR 19/08 A3004 RMK AO1,,8.0,,,7.95,6.0,1.0,,0.0,1.0,93740.75,48.87,0.0,101484.19,19.0,KO54,2244,-122.92230,40.74600
414,2018-08-08 16:35:00,101693.2,N,Clear,,KO54 081635Z AUTO 00000KT 6SM CLR 20/08 A3003 RMK AO1,,8.0,,,7.95,6.0,1.0,,0.0,1.0,93709.54,45.93,0.0,101423.15,20.0,KO54,2244,-122.92230,40.74600
415,2018-08-08 16:55:00,101693.2,SSW,Clear,,KO54 081655Z AUTO 21003KT 6SM CLR 20/08 A3003 RMK AO1,,8.0,,,7.95,6.0,1.0,,210.0,1.0,93709.54,45.93,1.54,101423.15,20.0,KO54,2244,-122.92230,40.74600
416,2018-08-08 17:15:00,101693.2,SSW,Clear,,KO54 081715Z AUTO 20003KT 5SM CLR 21/09 A3003 RMK AO1,,9.0,,,8.96,5.0,1.0,,200.0,1.0,93709.54,46.22,1.54,101396.05,21.0,KO54,2244,-122.92230,40.74600
417,2018-08-08 17:35:00,101693.2,N,Clear,,KO54 081735Z AUTO 00000KT 5SM CLR 22/09 A3003 RMK AO1,,9.0,,,8.97,5.0,1.0,,0.0,1.0,93709.54,43.48,0.0,101369.17,22.0,KO54,2244,-122.92230,40.74600
418,2018-08-08 17:55:00,101693.2,N,Clear,,KO54 081755Z AUTO 00000KT 5SM CLR 23/09 A3003 RMK AO1,,9.0,,,8.98,5.0,1.0,,0.0,1.0,93709.54,40.92,0.0,101342.48,23.0,KO54,2244,-122.92230,40.74600
419,2018-08-08 18:15:00,101693.2,N,Clear,,KO54 081815Z AUTO 00000KT 5SM CLR 23/09 A3003 RMK AO1,,9.0,,,8.98,5.0,1.0,,0.0,1.0,93709.54,40.92,0.0,101342.48,23.0,KO54,2244,-122.92230,40.74600
420,2018-08-08 18:35:00,101659.34,N,Clear,,KO54 081835Z AUTO 00000KT 5SM CLR 24/09 A3002 RMK AO1,,9.0,,,8.99,5.0,1.0,,0.0,1.0,93678.34,38.53,0.0,101282.25,24.0,KO54,2244,-122.92230,40.74600
421,2018-08-08 18:55:00,101659.34,N,Clear,,KO54 081855Z AUTO 00000KT 5SM CLR 25/10 A3002 RMK AO1,,10.0,,,10.0,5.0,1.0,,0.0,1.0,93678.34,38.82,0.0,101255.9,25.0,KO54,2244,-122.92230,40.74600
422,2018-08-08 19:15:00,101625.47,SSW,Clear,,KO54 081915Z AUTO 21003KT 5SM CLR 27/10 A3001 RMK AO1,,10.0,,,10.02,5.0,1.0,26.66,210.0,1.0,93647.13,34.5,1.54,101170.1,27.0,KO54,2244,-122.92230,40.74600
423,2018-08-08 19:35:00,101625.47,N,Clear,,KO54 081935Z AUTO 00000KT 5SM CLR 27/10 A3001 RMK AO1,,10.0,,,10.02,5.0,1.0,26.66,0.0,1.0,93647.13,34.5,0.0,101170.1,27.0,KO54,2244,-122.92230,40.74600
424,2018-08-08 19:55:00,101591.61,N,Clear,,KO54 081955Z AUTO 00000KT 3SM CLR 29/09 A3000 RMK AO1,,9.0,,,9.05,3.0,1.0,27.8,0.0,1.0,93615.92,28.71,0.0,101085.09,29.0,KO54,2244,-122.92230,40.74600
425,2018-08-08 20:15:00,101591.61,WSW,Clear,,KO54 082015Z AUTO 24003KT 2 1/2SM CLR 30/09 A3000 RMK AO1,,9.0,,,9.07,2.5,1.0,28.56,240.0,1.0,93615.92,27.11,1.54,101059.68,30.0,KO54,2244,-122.92230,40.74600
426,2018-08-08 20:35:00,101591.61,N,Clear,,KO54 082035Z AUTO 00000KT 3SM CLR 30/10 A3000 RMK AO1,,10.0,,,10.07,3.0,1.0,28.68,0.0,1.0,93615.92,28.99,0.0,101059.65,30.0,KO54,2244,-122.92230,40.74600
427,2018-08-08 20:55:00,101591.61,S,Clear,,KO54 082055Z AUTO 19003KT 2 1/2SM CLR 32/10 A3000 RMK AO1,,10.0,,,10.11,2.5,1.0,30.39,190.0,1.0,93615.92,25.88,1.54,101009.35,32.0,KO54,2244,-122.92230,40.74600
428,2018-08-08 21:15:00,101591.61,N,Clear,,KO54 082115Z AUTO 00000KT 2SM CLR 32/09 A3000 RMK AO1,,9.0,,,9.12,2.0,1.0,30.25,0.0,1.0,93615.92,24.2,0.0,101009.38,32.0,KO54,2244,-122.92230,40.74600
429,2018-08-08 21:35:00,101557.75,N,Clear,,KO54 082135Z AUTO 00000KT 2SM CLR 33/09 A2999 RMK AO1,,9.0,,,9.14,2.0,1.0,31.17,0.0,1.0,93584.72,22.87,0.0,100950.83,33.0,KO54,2244,-122.92230,40.74600
430,2018-08-08 21:55:00,101557.75,N,Clear,,KO54 082155Z AUTO 00000KT 2SM CLR 33/10 A2999 RMK AO1,,10.0,,,10.13,2.0,1.0,31.32,0.0,1.0,93584.72,24.46,0.0,100950.8,33.0,KO54,2244,-122.92230,40.74600
431,2018-08-08 22:15:00,101523.88,N,Clear,,KO54 082215Z AUTO 00000KT 1 3/4SM CLR 34/09 A2998 RMK AO1,,9.0,,,9.16,1.75,1.0,32.12,0.0,1.0,93553.51,21.63,0.0,100892.45,34.0,KO54,2244,-122.92230,40.74600
432,2018-08-08 22:35:00,101523.88,N,Clear,,KO54 082235Z AUTO 00000KT 1 1/2SM CLR 34/09 A2998 RMK AO1,,9.0,,,9.16,1.5,1.0,32.12,0.0,1.0,93553.51,21.63,0.0,100892.45,34.0,KO54,2244,-122.92230,40.74600
433,2018-08-08 22:55:00,101523.88,N,Clear,,KO54 082255Z AUTO 00000KT 1 1/2SM CLR 34/09 A2998 RMK AO1,,9.0,,,9.16,1.5,1.0,32.12,0.0,1.0,93553.51,21.63,0.0,100892.45,34.0,KO54,2244,-122.92230,40.74600
434,2018-08-08 23:15:00,101490.02,SSE,Clear,,KO54 082315Z AUTO 15003KT 1 1/2SM CLR 34/09 A2997 RMK AO1,,9.0,,,9.16,1.5,1.0,32.12,150.0,1.0,93522.31,21.63,1.54,100858.81,34.0,KO54,2244,-122.92230,40.74600
435,2018-08-08 23:35:00,101456.15,N,Clear,,KO54 082335Z AUTO 00000KT 1 1/2SM CLR 34/09 A2996 RMK AO1,,9.0,,,9.16,1.5,1.0,32.12,0.0,1.0,93491.1,21.63,0.0,100825.15,34.0,KO54,2244,-122.92230,40.74600
436,2018-08-08 23:55:00,101456.15,N,Clear,,KO54 082355Z AUTO 00000KT 1 3/4SM CLR 34/08 A2996 RMK AO1,,8.0,,,8.17,1.75,1.0,31.98,0.0,1.0,93491.1,20.21,0.0,100825.18,34.0,KO54,2244,-122.92230,40.74600
437,2018-08-09 00:15:00,101456.15,N,Clear,,KO54 090015Z AUTO 00000KT 2SM CLR 34/08 A2996 RMK AO1,,8.0,,,8.17,2.0,1.0,31.98,0.0,1.0,93491.1,20.21,0.0,100825.18,34.0,KO54,2244,-122.92230,40.74600
438,2018-08-09 00:35:00,101422.29,N,Clear,,KO54 090035Z AUTO 00000KT 2SM CLR 34/11 A2995 RMK AO1,,11.0,,,11.15,2.0,1.0,32.49,0.0,1.0,93459.9,24.73,0.0,100791.43,34.0,KO54,2244,-122.92230,40.74600
439,2018-08-09 00:55:00,101422.29,N,Clear,,KO54 090055Z AUTO 00000KT 2 1/2SM CLR 34/09 A2995 RMK AO1,,9.0,,,9.16,2.5,1.0,32.12,0.0,1.0,93459.9,21.63,0.0,100791.5,34.0,KO54,2244,-122.92230,40.74600
440,2018-08-09 01:15:00,101422.29,N,Clear,,KO54 090115Z AUTO 00000KT 2 1/2SM CLR 33/09 A2995 RMK AO1,,9.0,,,9.14,2.5,1.0,31.17,0.0,1.0,93459.9,22.87,0.0,100816.19,33.0,KO54,2244,-122.92230,40.74600
441,2018-08-09 01:35:00,101422.29,N,Clear,,KO54 090135Z AUTO 00000KT 3SM CLR 33/09 A2995 RMK AO1,,9.0,,,9.14,3.0,1.0,31.17,0.0,1.0,93459.9,22.87,0.0,100816.19,33.0,KO54,2244,-122.92230,40.74600
442,2018-08-09 01:55:00,101456.15,N,Clear,,KO54 090155Z AUTO 00000KT 3SM CLR 32/10 A2996 RMK AO1,,10.0,,,10.11,3.0,1.0,30.39,0.0,1.0,93491.1,25.88,0.0,100874.67,32.0,KO54,2244,-122.92230,40.74600
443,2018-08-09 02:15:00,101456.15,N,Clear,,KO54 090215Z AUTO 00000KT 3SM CLR 30/12 A2996 RMK AO1,,12.0,,,12.06,3.0,1.0,29.0,0.0,1.0,93491.1,33.11,0.0,100924.83,30.0,KO54,2244,-122.92230,40.74600
444,2018-08-09 02:35:00,101490.02,NE,Clear,,KO54 090235Z AUTO 05003KT 2 1/2SM CLR 28/13 A2997 RMK AO1,,13.0,,,13.03,2.5,1.0,27.64,50.0,1.0,93522.31,39.68,1.54,101009.41,28.0,KO54,2244,-122.92230,40.74600
445,2018-08-09 02:55:00,101523.88,NE,Clear,,KO54 090255Z AUTO 04003KT 3SM CLR 26/14 A2998 RMK AO1,,14.0,,,14.0,3.0,1.0,,40.0,1.0,93553.51,47.61,1.54,101094.72,26.0,KO54,2244,-122.92230,40.74600
446,2018-08-09 03:15:00,101523.88,N,Partly Cloudy,,KO54 090315Z AUTO 00000KT 3SM SCT021 25/13 A2998 RMK AO1,,13.0,,,12.99,3.0,212.0,,0.0,1.0,93553.51,47.33,0.0,101120.86,25.0,KO54,2244,-122.92230,40.74600
447,2018-08-09 03:35:00,101557.75,N,Mostly Cloudy,,KO54 090335Z AUTO 00000KT 4SM BKN021 24/12 A2999 RMK AO1,640.08,12.0,,,11.99,4.0,213.0,,0.0,1.0,93584.72,47.06,0.0,101180.92,24.0,KO54,2244,-122.92230,40.74600
448,2018-08-09 03:55:00,101557.75,N,Mostly Cloudy,,KO54 090355Z AUTO 00000KT 4SM BKN021 BKN043 23/12 A2999 RMK AO1,640.08,12.0,433.0,,11.98,4.0,213.0,,0.0,1.0,93584.72,49.97,0.0,101207.39,23.0,KO54,2244,-122.92230,40.74600
449,2018-08-09 04:15:00,101591.61,N,Partly Cloudy,,KO54 090415Z AUTO 00000KT 5SM FEW003 SCT034 23/10 A3000 RMK AO1,,10.0,342.0,,9.98,5.0,36.0,,0.0,1.0,93615.92,43.76,0.0,101241.2,23.0,KO54,2244,-122.92230,40.74600
450,2018-08-09 04:35:00,101625.47,N,Mostly Clear,,KO54 090435Z AUTO 00000KT 5SM FEW003 22/10 A3001 RMK AO1,,10.0,,,9.97,5.0,36.0,,0.0,1.0,93647.13,46.5,0.0,101301.63,22.0,KO54,2244,-122.92230,40.74600
451,2018-08-09 04:55:00,101625.47,N,Clear,,KO54 090455Z AUTO 00000KT 5SM CLR 21/10 A3001 RMK AO1,,10.0,,,9.96,5.0,1.0,,0.0,1.0,93647.13,49.43,0.0,101328.48,21.0,KO54,2244,-122.92230,40.74600
452,2018-08-09 05:15:00,101659.34,N,Clear,,KO54 090515Z AUTO 00000KT 5SM CLR 20/10 A3002 RMK AO1,,10.0,,,9.96,5.0,1.0,,0.0,1.0,93678.34,52.57,0.0,101389.31,20.0,KO54,2244,-122.92230,40.74600
453,2018-08-09 05:35:00,101659.34,N,Clear,,KO54 090535Z AUTO 00000KT 5SM CLR 20/10 A3002 RMK AO1,,10.0,,,9.96,5.0,1.0,,0.0,1.0,93678.34,52.57,0.0,101389.31,20.0,KO54,2244,-122.92230,40.74600
454,2018-08-09 05:55:00,101693.2,N,Mostly Cloudy,,KO54 090555Z AUTO 00000KT 5SM SCT024 BKN036 19/10 A3003 RMK AO1,1097.28,10.0,363.0,,9.96,5.0,242.0,,0.0,1.0,93709.54,55.93,0.0,101450.33,19.0,KO54,2244,-122.92230,40.74600
455,2018-08-09 06:15:00,101693.2,N,Mostly Cloudy,,KO54 090615Z AUTO 00000KT 5SM SCT026 BKN036 19/10 A3003 RMK AO1,1097.28,10.0,363.0,,9.96,5.0,262.0,,0.0,1.0,93709.54,55.93,0.0,101450.33,19.0,KO54,2244,-122.92230,40.74600
456,2018-08-09 06:35:00,101693.2,N,Mostly Cloudy,,KO54 090635Z AUTO 00000KT 5SM BKN024 19/10 A3003 RMK AO1,731.52,10.0,,,9.96,5.0,243.0,,0.0,1.0,93709.54,55.93,0.0,101450.33,19.0,KO54,2244,-122.92230,40.74600
457,2018-08-09 06:55:00,101727.07,NNE,Mostly Cloudy,,KO54 090655Z AUTO 03003KT 5SM BKN022 BKN031 19/10 A3004 RMK AO1,670.56,10.0,313.0,,9.96,5.0,223.0,,30.0,1.0,93740.75,55.93,1.54,101484.12,19.0,KO54,2244,-122.92230,40.74600
458,2018-08-09 07:15:00,101727.07,N,Mostly Cloudy,,KO54 090715Z AUTO 00000KT 5SM BKN022 BKN030 18/10 A3004 RMK AO1,670.56,10.0,303.0,,9.95,5.0,223.0,,0.0,1.0,93740.75,59.54,0.0,101511.58,18.0,KO54,2244,-122.92230,40.74600
459,2018-08-09 07:35:00,101727.07,N,Mostly Cloudy,,KO54 090735Z AUTO 00000KT 5SM BKN020 BKN030 18/10 A3004 RMK AO1,609.6,10.0,303.0,,9.95,5.0,203.0,,0.0,1.0,93740.75,59.54,0.0,101511.58,18.0,KO54,2244,-122.92230,40.74600
460,2018-08-09 07:55:00,101727.07,NNE,Partly Cloudy,,KO54 090755Z AUTO 03003KT 5SM SCT020 18/10 A3004 RMK AO1,,10.0,,,9.95,5.0,202.0,,30.0,1.0,93740.75,59.54,1.54,101511.58,18.0,KO54,2244,-122.92230,40.74600
461,2018-08-09 08:15:00,101727.07,N,Mostly Cloudy,,KO54 090815Z AUTO 00000KT 5SM SCT020 BKN027 17/10 A3004 RMK AO1,822.96,10.0,273.0,,9.96,5.0,202.0,,0.0,1.0,93740.75,63.42,0.0,101539.23,17.0,KO54,2244,-122.92230,40.74600
462,2018-08-09 08:35:00,101727.07,NNE,Partly Cloudy,,KO54 090835Z AUTO 03003KT 5SM FEW021 SCT027 17/10 A3004 RMK AO1,,10.0,272.0,,9.96,5.0,216.0,,30.0,1.0,93740.75,63.42,1.54,101539.23,17.0,KO54,2244,-122.92230,40.74600
463,2018-08-09 08:55:00,101727.07,N,Mostly Clear,,KO54 090855Z AUTO 00000KT 5SM FEW021 17/10 A3004 RMK AO1,,10.0,,,9.96,5.0,216.0,,0.0,1.0,93740.75,63.42,0.0,101539.23,17.0,KO54,2244,-122.92230,40.74600
464,2018-08-09 09:15:00,101693.2,N,Partly Cloudy,,KO54 090915Z AUTO 00000KT 5SM SCT021 17/10 A3003 RMK AO1,,10.0,,,9.96,5.0,212.0,,0.0,1.0,93709.54,63.42,0.0,101505.43,17.0,KO54,2244,-122.92230,40.74600
465,2018-08-09 09:35:00,101693.2,N,Mostly Cloudy,,KO54 090935Z AUTO 00000KT 5SM BKN019 16/10 A3003 RMK AO1,579.12,10.0,,,9.96,5.0,193.0,,0.0,1.0,93709.54,67.57,0.0,101533.27,16.0,KO54,2244,-122.92230,40.74600
466,2018-08-09 09:55:00,101727.07,NNE,Mostly Cloudy,,KO54 090955Z AUTO 03003KT 5SM BKN019 16/10 A3004 RMK AO1,579.12,10.0,,,9.96,5.0,193.0,,30.0,1.0,93740.75,67.57,1.54,101567.09,16.0,KO54,2244,-122.92230,40.74600
467,2018-08-09 10:15:00,101727.07,N,Partly Cloudy,,KO54 091015Z AUTO 00000KT 5SM SCT019 15/10 A3004 RMK AO1,,10.0,,,9.96,5.0,192.0,,0.0,1.0,93740.75,72.04,0.0,101595.14,15.0,KO54,2244,-122.92230,40.74600
468,2018-08-09 10:35:00,101727.07,N,Mostly Clear,,KO54 091035Z AUTO 00000KT 5SM FEW037 FEW045 15/10 A3004 RMK AO1,,10.0,456.0,,9.96,5.0,376.0,,0.0,1.0,93740.75,72.04,0.0,101595.14,15.0,KO54,2244,-122.92230,40.74600
469,2018-08-09 10:55:00,101727.07,N,Partly Cloudy,,KO54 091055Z AUTO 00000KT 5SM SCT021 15/10 A3004 RMK AO1,,10.0,,,9.96,5.0,212.0,,0.0,1.0,93740.75,72.04,0.0,101595.14,15.0,KO54,2244,-122.92230,40.74600
470,2018-08-09 11:15:00,101760.93,N,Mostly Cloudy,,KO54 091115Z AUTO 00000KT 5SM BKN023 15/10 A3005 RMK AO1,701.04,10.0,,,9.96,5.0,233.0,,0.0,1.0,93771.95,72.04,0.0,101628.95,15.0,KO54,2244,-122.92230,40.74600
471,2018-08-09 11:35:00,101760.93,N,Mostly Cloudy,,KO54 091135Z AUTO 00000KT 5SM SCT023 BKN039 BKN047 14/10 A3005 RMK AO1,1188.72,10.0,393.0,473.0,9.97,5.0,232.0,,0.0,1.0,93771.95,76.85,0.0,101657.21,14.0,KO54,2244,-122.92230,40.74600
472,2018-08-09 11:55:00,101760.93,N,Mostly Cloudy,,KO54 091155Z AUTO 00000KT 5SM FEW023 BKN043 14/10 A3005 RMK AO1,1310.64,10.0,433.0,,9.97,5.0,236.0,,0.0,1.0,93771.95,76.85,0.0,101657.21,14.0,KO54,2244,-122.92230,40.74600
473,2018-08-09 12:15:00,101760.93,N,Mostly Cloudy,,KO54 091215Z AUTO 00000KT 5SM BKN041 14/10 A3005 RMK AO1,1249.68,10.0,,,9.97,5.0,413.0,,0.0,1.0,93771.95,76.85,0.0,101657.21,14.0,KO54,2244,-122.92230,40.74600
474,2018-08-09 12:35:00,101760.93,N,Mostly Cloudy,,KO54 091235Z AUTO 00000KT 5SM BKN041 14/10 A3005 RMK AO1,1249.68,10.0,,,9.97,5.0,413.0,,0.0,1.0,93771.95,76.85,0.0,101657.21,14.0,KO54,2244,-122.92230,40.74600
475,2018-08-09 12:55:00,101794.79,N,Overcast,,KO54 091255Z AUTO 00000KT 5SM OVC041 14/10 A3006 RMK AO1,1249.68,10.0,,,9.97,5.0,414.0,,0.0,1.0,93803.15,76.85,0.0,101691.04,14.0,KO54,2244,-122.92230,40.74600
476,2018-08-09 13:15:00,101794.79,N,Overcast,,KO54 091315Z AUTO 00000KT 5SM OVC039 13/10 A3006 RMK AO1,1188.72,10.0,,,9.97,5.0,394.0,,0.0,1.0,93803.15,82.01,0.0,101719.51,13.0,KO54,2244,-122.92230,40.74600
477,2018-08-09 13:35:00,101828.66,N,Mostly Cloudy,,KO54 091335Z AUTO 00000KT 3SM BKN037 14/10 A3007 RMK AO1,1127.76,10.0,,,9.97,3.0,373.0,,0.0,1.0,93834.36,76.85,0.0,101724.87,14.0,KO54,2244,-122.92230,40.74600
478,2018-08-09 13:55:00,101828.66,N,Mostly Clear,,KO54 091355Z AUTO 00000KT 3SM FEW035 13/10 A3007 RMK AO1,,10.0,,,9.97,3.0,356.0,,0.0,1.0,93834.36,82.01,0.0,101753.36,13.0,KO54,2244,-122.92230,40.74600
479,2018-08-09 14:15:00,101794.79,N,Clear,,KO54 091415Z AUTO 00000KT 3SM CLR 14/10 A3006 RMK AO1,,10.0,,,9.97,3.0,1.0,,0.0,1.0,93803.15,76.85,0.0,101691.04,14.0,KO54,2244,-122.92230,40.74600
480,2018-08-09 14:35:00,101828.66,N,Clear,,KO54 091435Z AUTO 00000KT 3SM CLR 14/10 A3007 RMK AO1,,10.0,,,9.97,3.0,1.0,,0.0,1.0,93834.36,76.85,0.0,101724.87,14.0,KO54,2244,-122.92230,40.74600
481,2018-08-09 14:55:00,101828.66,N,Clear,,KO54 091455Z AUTO 00000KT 3SM CLR 15/10 A3007 RMK AO1,,10.0,,,9.96,3.0,1.0,,0.0,1.0,93834.36,72.04,0.0,101696.59,15.0,KO54,2244,-122.92230,40.74600
482,2018-08-09 15:15:00,101828.66,N,Clear,,KO54 091515Z AUTO 00000KT 3SM CLR 16/11 A3007 RMK AO1,,11.0,,,10.96,3.0,1.0,,0.0,1.0,93834.36,72.23,0.0,101668.47,16.0,KO54,2244,-122.92230,40.74600
483,2018-08-09 15:35:00,101828.66,N,Clear,,KO54 091535Z AUTO 00000KT 3SM CLR 17/10 A3007 RMK AO1,,10.0,,,9.96,3.0,1.0,,0.0,1.0,93834.36,63.42,0.0,101640.63,17.0,KO54,2244,-122.92230,40.74600
484,2018-08-09 15:55:00,101828.66,N,Clear,,KO54 091555Z AUTO 00000KT 3SM CLR 18/10 A3007 RMK AO1,,10.0,,,9.95,3.0,1.0,,0.0,1.0,93834.36,59.54,0.0,101612.95,18.0,KO54,2244,-122.92230,40.74600
485,2018-08-09 16:15:00,101828.66,N,Clear,,KO54 091615Z AUTO 00000KT 3SM CLR 19/11 A3007 RMK AO1,,11.0,,,10.96,3.0,1.0,,0.0,1.0,93834.36,59.79,0.0,101585.43,19.0,KO54,2244,-122.92230,40.74600
486,2018-08-09 16:35:00,101794.79,N,Clear,,KO54 091635Z AUTO 00000KT 3SM CLR 20/11 A3006 RMK AO1,,11.0,,,10.96,3.0,1.0,,0.0,1.0,93803.15,56.19,0.0,101524.36,20.0,KO54,2244,-122.92230,40.74600
487,2018-08-09 16:55:00,101794.79,N,Clear,,KO54 091655Z AUTO 00000KT 3SM CLR 21/10 A3006 RMK AO1,,10.0,,,9.96,3.0,1.0,,0.0,1.0,93803.15,49.43,0.0,101497.3,21.0,KO54,2244,-122.92230,40.74600
488,2018-08-09 17:15:00,101794.79,N,Clear,,KO54 091715Z AUTO 00000KT 4SM CLR 22/10 A3006 RMK AO1,,10.0,,,9.97,4.0,1.0,,0.0,1.0,93803.15,46.5,0.0,101470.4,22.0,KO54,2244,-122.92230,40.74600
489,2018-08-09 17:35:00,101794.79,SSW,Clear,,KO54 091735Z AUTO 20003KT 3SM CLR 23/11 A3006 RMK AO1,,11.0,,,10.98,3.0,1.0,,200.0,1.0,93803.15,46.78,1.54,101443.65,23.0,KO54,2244,-122.92230,40.74600
490,2018-08-09 17:55:00,101760.93,SW,Clear,,KO54 091755Z AUTO 22004KT 3SM CLR 24/11 A3005 RMK AO1,,11.0,,,10.99,3.0,1.0,,220.0,1.0,93771.95,44.05,2.06,101383.39,24.0,KO54,2244,-122.92230,40.74600
491,2018-08-09 18:15:00,101760.93,N,Clear,,KO54 091815Z AUTO 00000KT 3SM CLR 24/11 A3005 RMK AO1,,11.0,,,10.99,3.0,1.0,,0.0,1.0,93771.95,44.05,0.0,101383.39,24.0,KO54,2244,-122.92230,40.74600
492,2018-08-09 18:35:00,101727.07,SW,Clear,,KO54 091835Z AUTO 22003KT 3SM CLR 26/12 A3004 RMK AO1,,12.0,,,12.01,3.0,1.0,,220.0,1.0,93740.75,41.78,1.54,101297.14,26.0,KO54,2244,-122.92230,40.74600
493,2018-08-09 18:55:00,101727.07,N,Clear,,KO54 091855Z AUTO 00000KT 3SM CLR 27/10 A3004 RMK AO1,,10.0,,,10.02,3.0,1.0,26.66,0.0,1.0,93740.75,34.5,0.0,101271.25,27.0,KO54,2244,-122.92230,40.74600
494,2018-08-09 19:15:00,101693.2,N,Clear,,KO54 091915Z AUTO 00000KT 3SM CLR 28/11 A3003 RMK AO1,,11.0,,,11.03,3.0,1.0,27.34,0.0,1.0,93709.54,34.78,0.0,101211.71,28.0,KO54,2244,-122.92230,40.74600
495,2018-08-09 19:35:00,101693.2,N,Clear,,KO54 091935Z AUTO 00000KT 3SM CLR 29/11 A3003 RMK AO1,,11.0,,,11.05,3.0,1.0,28.05,0.0,1.0,93709.54,32.82,0.0,101186.11,29.0,KO54,2244,-122.92230,40.74600
496,2018-08-09 19:55:00,101659.34,N,Clear,,KO54 091955Z AUTO 00000KT 3SM CLR 30/11 A3002 RMK AO1,,11.0,,,11.07,3.0,1.0,28.83,0.0,1.0,93678.34,30.99,0.0,101126.99,30.0,KO54,2244,-122.92230,40.74600
497,2018-08-09 20:15:00,101625.47,SSW,Clear,,KO54 092015Z AUTO 20003KT 3SM CLR 31/11 A3001 RMK AO1,,11.0,,,11.08,3.0,1.0,29.67,200.0,1.0,93647.13,29.27,1.54,101068.06,31.0,KO54,2244,-122.92230,40.74600
498,2018-08-09 20:35:00,101625.47,S,Clear,,KO54 092035Z AUTO 19003KT 3SM CLR 32/11 A3001 RMK AO1,,11.0,,,11.1,3.0,1.0,30.56,190.0,1.0,93647.13,27.66,1.54,101042.99,32.0,KO54,2244,-122.92230,40.74600
499,2018-08-09 20:55:00,101557.75,SW,,,KO54 092055Z AUTO 22003KT A2999 RMK AO1,,,,,,,,,220.0,1.0,93584.72,,1.54,,,KO54,2244,-122.92230,40.74600
500,2018-08-09 21:15:00,101557.75,SW,Clear,,KO54 092115Z AUTO 22003KT 2 1/2SM CLR 33/10 A2999 RMK AO1,,10.0,,,10.13,2.5,1.0,31.32,220.0,1.0,93584.72,24.46,1.54,100950.8,33.0,KO54,2244,-122.92230,40.74600
501,2018-08-09 21:35:00,101523.88,N,Clear,,KO54 092135Z AUTO 00000KT 2 1/2SM CLR 33/10 A2998 RMK AO1,,10.0,,,10.13,2.5,1.0,31.32,0.0,1.0,93553.51,24.46,0.0,100917.13,33.0,KO54,2244,-122.92230,40.74600
502,2018-08-09 21:55:00,101523.88,SSW,Clear,,KO54 092155Z AUTO 20003KT 2SM CLR 34/10 A2998 RMK AO1,,10.0,,,10.15,2.0,1.0,32.29,200.0,1.0,93553.51,23.13,1.54,100892.42,34.0,KO54,2244,-122.92230,40.74600
503,2018-08-09 22:15:00,101490.02,SW,Clear,,KO54 092215Z AUTO 22003KT 2SM CLR 34/10 A2997 RMK AO1,,10.0,,,10.15,2.0,1.0,32.29,220.0,1.0,93522.31,23.13,1.54,100858.77,34.0,KO54,2244,-122.92230,40.74600
504,2018-08-09 22:35:00,101490.02,SSW,Clear,,KO54 092235Z AUTO 20003KT 2SM CLR 35/10 A2997 RMK AO1,,10.0,,,10.18,2.0,1.0,33.28,200.0,1.0,93522.31,21.89,1.54,100834.24,35.0,KO54,2244,-122.92230,40.74600
505,2018-08-09 22:55:00,101456.15,SSW,Clear,,KO54 092255Z AUTO 21004KT 2SM CLR 35/09 A2996 RMK AO1,,9.0,,,9.19,2.0,1.0,33.1,210.0,1.0,93491.1,20.47,2.06,100800.62,35.0,KO54,2244,-122.92230,40.74600
506,2018-08-09 23:15:00,101422.29,SSW,Clear,,KO54 092315Z AUTO 20004KT 2SM CLR 35/09 A2995 RMK AO1,,9.0,,,9.19,2.0,1.0,33.1,200.0,1.0,93459.9,20.47,2.06,100766.98,35.0,KO54,2244,-122.92230,40.74600
507,2018-08-09 23:35:00,101422.29,S,Clear,,KO54 092335Z AUTO 19003KT 2 1/2SM CLR 35/09 A2995 RMK AO1,,9.0,,,9.19,2.5,1.0,33.1,190.0,1.0,93459.9,20.47,1.54,100766.98,35.0,KO54,2244,-122.92230,40.74600
508,2018-08-09 23:55:00,101422.29,S,Clear,,KO54 092355Z AUTO 18003KT 2 1/2SM CLR 35/10 A2995 RMK AO1,,10.0,,,10.18,2.5,1.0,33.28,180.0,1.0,93459.9,21.89,1.54,100766.95,35.0,KO54,2244,-122.92230,40.74600
509,2018-08-10 00:15:00,101422.29,WSW,Clear,,KO54 100015Z AUTO 25004KT 3SM CLR 36/10 A2995 RMK AO1,,10.0,,,10.21,3.0,1.0,34.3,250.0,1.0,93459.9,20.72,2.06,100742.59,36.0,KO54,2244,-122.92230,40.74600
510,2018-08-10 00:35:00,101422.29,SW,Clear,,KO54 100035Z AUTO 23005KT 3SM CLR 35/10 A2995 RMK AO1,,10.0,,,10.18,3.0,1.0,33.28,230.0,1.0,93459.9,21.89,2.57,100766.95,35.0,KO54,2244,-122.92230,40.74600
511,2018-08-10 00:55:00,101422.29,N,Clear,,KO54 100055Z AUTO 00000KT 3SM CLR 35/10 A2995 RMK AO1,,10.0,,,10.18,3.0,1.0,33.28,0.0,1.0,93459.9,21.89,0.0,100766.95,35.0,KO54,2244,-122.92230,40.74600
512,2018-08-10 01:15:00,101422.29,WNW,Clear,,KO54 100115Z AUTO 29004KT 4SM CLR 35/10 A2995 RMK AO1,,10.0,,,10.18,4.0,1.0,33.28,290.0,1.0,93459.9,21.89,2.06,100766.95,35.0,KO54,2244,-122.92230,40.74600
513,2018-08-10 01:35:00,101422.29,SW,Clear,,KO54 100135Z AUTO 23006KT 5SM CLR 34/09 A2995 RMK AO1,,9.0,,,9.16,5.0,1.0,32.12,230.0,1.0,93459.9,21.63,3.09,100791.5,34.0,KO54,2244,-122.92230,40.74600
514,2018-08-10 01:55:00,101422.29,SSW,Clear,,KO54 100155Z AUTO 20004KT 6SM CLR 33/09 A2995 RMK AO1,,9.0,,,9.14,6.0,1.0,31.17,200.0,1.0,93459.9,22.87,2.06,100816.19,33.0,KO54,2244,-122.92230,40.74600
515,2018-08-10 02:15:00,101456.15,SW,Clear,,KO54 100215Z AUTO 22006KT 7SM CLR 33/09 A2996 RMK AO1,,9.0,,,9.14,7.0,1.0,31.17,220.0,1.0,93491.1,22.87,3.09,100849.84,33.0,KO54,2244,-122.92230,40.74600
516,2018-08-10 02:35:00,101490.02,SW,Clear,,KO54 100235Z AUTO 22007KT 8SM CLR 32/09 A2997 RMK AO1,,9.0,,,9.12,8.0,1.0,30.25,220.0,1.0,93522.31,24.2,3.6,100908.38,32.0,KO54,2244,-122.92230,40.74600
517,2018-08-10 02:55:00,101523.88,SSW,Clear,,KO54 100255Z AUTO 21005KT 8SM CLR 31/09 A2998 RMK AO1,,9.0,,,9.1,8.0,1.0,29.38,210.0,1.0,93553.51,25.61,2.57,100967.09,31.0,KO54,2244,-122.92230,40.74600
518,2018-08-10 03:15:00,101523.88,SSW,Clear,,KO54 100315Z AUTO 20005KT 8SM CLR 30/08 A2998 RMK AO1,,8.0,,,8.08,8.0,1.0,28.46,200.0,1.0,93553.51,25.33,2.57,100992.34,30.0,KO54,2244,-122.92230,40.74600
519,2018-08-10 03:35:00,101557.75,SSW,Clear,,KO54 100335Z AUTO 20004KT 10SM CLR 30/08 A2999 RMK AO1,,8.0,,,8.08,10.0,1.0,28.46,200.0,1.0,93584.72,25.33,2.06,101026.03,30.0,KO54,2244,-122.92230,40.74600
520,2018-08-10 03:55:00,101591.61,S,Mostly Clear,,KO54 100355Z AUTO 19005KT 10SM FEW070 29/08 A3000 RMK AO1,,8.0,,,8.06,10.0,706.0,27.71,190.0,1.0,93615.92,26.83,2.57,101085.12,29.0,KO54,2244,-122.92230,40.74600
521,2018-08-10 04:15:00,101625.47,S,Partly Cloudy,,KO54 100415Z AUTO 18005KT 10SM SCT070 27/08 A3001 RMK AO1,,8.0,,,8.02,10.0,702.0,26.54,180.0,1.0,93647.13,30.14,2.57,101170.17,27.0,KO54,2244,-122.92230,40.74600
522,2018-08-10 04:35:00,101625.47,S,Mostly Cloudy,,KO54 100435Z AUTO 17003KT 10SM BKN070 28/08 A3001 RMK AO1,2133.6,8.0,,,8.04,10.0,703.0,27.03,170.0,1.0,93647.13,28.43,1.54,101144.41,28.0,KO54,2244,-122.92230,40.74600
523,2018-08-10 04:55:00,101659.34,NNE,Overcast,,KO54 100455Z AUTO 03003KT 7SM OVC060 23/12 A3002 RMK AO1,1828.8,12.0,,,11.98,7.0,604.0,,30.0,1.0,93678.34,49.97,1.54,101308.63,23.0,KO54,2244,-122.92230,40.74600
524,2018-08-10 05:15:00,101693.2,NNE,Overcast,,KO54 100515Z AUTO 03003KT 6SM OVC060 23/11 A3003 RMK AO1,1828.8,11.0,,,10.98,6.0,604.0,,30.0,1.0,93709.54,46.78,1.54,101342.41,23.0,KO54,2244,-122.92230,40.74600
525,2018-08-10 05:35:00,101693.2,N,Overcast,,KO54 100535Z AUTO 00000KT 7SM OVC060 22/10 A3003 RMK AO1,1828.8,10.0,,,9.97,7.0,604.0,,0.0,1.0,93709.54,46.5,0.0,101369.14,22.0,KO54,2244,-122.92230,40.74600
526,2018-08-10 05:55:00,101727.07,NE,Mostly Cloudy,,KO54 100555Z AUTO 05003KT 8SM BKN060 21/10 A3004 RMK AO1,1828.8,10.0,,,9.96,8.0,603.0,,50.0,1.0,93740.75,49.43,1.54,101429.78,21.0,KO54,2244,-122.92230,40.74600
527,2018-08-10 06:15:00,101727.07,N,Mostly Clear,,KO54 100615Z AUTO 00000KT 8SM FEW070 20/09 A3004 RMK AO1,,9.0,,,8.96,8.0,706.0,,0.0,1.0,93740.75,49.15,0.0,101456.89,20.0,KO54,2244,-122.92230,40.74600
528,2018-08-10 06:35:00,101727.07,N,Mostly Clear,,KO54 100635Z AUTO 00000KT 10SM FEW060 19/09 A3004 RMK AO1,,9.0,,,8.95,10.0,606.0,,0.0,1.0,93740.75,52.3,0.0,101484.16,19.0,KO54,2244,-122.92230,40.74600
529,2018-08-10 06:55:00,101727.07,NE,Mostly Cloudy,,KO54 100655Z AUTO 04003KT 10SM BKN060 19/09 A3004 RMK AO1,1828.8,9.0,,,8.95,10.0,603.0,,40.0,1.0,93740.75,52.3,1.54,101484.16,19.0,KO54,2244,-122.92230,40.74600
530,2018-08-10 07:15:00,101760.93,N,Overcast,,KO54 100715Z AUTO 00000KT 10SM OVC060 19/09 A3005 RMK AO1,1828.8,9.0,,,8.95,10.0,604.0,,0.0,1.0,93771.95,52.3,0.0,101517.93,19.0,KO54,2244,-122.92230,40.74600
531,2018-08-10 07:35:00,101760.93,N,Overcast,,KO54 100735Z AUTO 00000KT 10SM OVC060 18/08 A3005 RMK AO1,1828.8,8.0,,,7.95,10.0,604.0,,0.0,1.0,93771.95,52.03,0.0,101545.43,18.0,KO54,2244,-122.92230,40.74600
532,2018-08-10 07:55:00,101760.93,N,Mostly Cloudy,,KO54 100755Z AUTO 00000KT 10SM BKN060 18/09 A3005 RMK AO1,1828.8,9.0,,,8.95,10.0,603.0,,0.0,1.0,93771.95,55.67,0.0,101545.4,18.0,KO54,2244,-122.92230,40.74600
533,2018-08-10 08:15:00,101760.93,NNE,Overcast,,KO54 100815Z AUTO 02003KT 9SM OVC060 18/09 A3005 RMK AO1,1828.8,9.0,,,8.95,9.0,604.0,,20.0,1.0,93771.95,55.67,1.54,101545.4,18.0,KO54,2244,-122.92230,40.74600
534,2018-08-10 08:35:00,101794.79,N,Overcast,,KO54 100835Z AUTO 00000KT 8SM OVC060 18/09 A3006 RMK AO1,1828.8,9.0,,,8.95,8.0,604.0,,0.0,1.0,93803.15,55.67,0.0,101579.19,18.0,KO54,2244,-122.92230,40.74600
535,2018-08-10 08:55:00,101794.79,NNE,Overcast,,KO54 100855Z AUTO 02003KT 8SM OVC060 17/09 A3006 RMK AO1,1828.8,9.0,,,8.95,8.0,604.0,,20.0,1.0,93803.15,59.3,1.54,101606.86,17.0,KO54,2244,-122.92230,40.74600
536,2018-08-10 09:15:00,101794.79,N,Overcast,,KO54 100915Z AUTO 00000KT 10SM OVC060 16/08 A3006 RMK AO1,1828.8,8.0,,,7.94,10.0,604.0,,0.0,1.0,93803.15,59.05,0.0,101634.76,16.0,KO54,2244,-122.92230,40.74600
537,2018-08-10 09:35:00,101794.79,N,Overcast,,KO54 100935Z AUTO 00000KT 9SM OVC060 16/08 A3006 RMK AO1,1828.8,8.0,,,7.94,9.0,604.0,,0.0,1.0,93803.15,59.05,0.0,101634.76,16.0,KO54,2244,-122.92230,40.74600
538,2018-08-10 09:55:00,101794.79,N,Overcast,,KO54 100955Z AUTO 00000KT 10SM OVC060 16/08 A3006 RMK AO1,1828.8,8.0,,,7.94,10.0,604.0,,0.0,1.0,93803.15,59.05,0.0,101634.76,16.0,KO54,2244,-122.92230,40.74600
539,2018-08-10 10:15:00,101828.66,N,Overcast,,KO54 101015Z AUTO 01003KT 10SM OVC060 15/08 A3007 RMK AO1,1828.8,8.0,,,7.95,10.0,604.0,,10.0,1.0,93834.36,62.95,1.54,101696.66,15.0,KO54,2244,-122.92230,40.74600
540,2018-08-10 10:35:00,101828.66,N,Overcast,,KO54 101035Z AUTO 00000KT 10SM OVC060 15/08 A3007 RMK AO1,1828.8,8.0,,,7.95,10.0,604.0,,0.0,1.0,93834.36,62.95,0.0,101696.66,15.0,KO54,2244,-122.92230,40.74600
541,2018-08-10 10:55:00,101828.66,N,Overcast,,KO54 101055Z AUTO 00000KT 9SM OVC060 14/08 A3007 RMK AO1,1828.8,8.0,,,7.95,9.0,604.0,,0.0,1.0,93834.36,67.15,0.0,101724.94,14.0,KO54,2244,-122.92230,40.74600
542,2018-08-10 11:15:00,101862.52,N,Overcast,,KO54 101115Z AUTO 00000KT 10SM BKN060 OVC065 14/08 A3008 RMK AO1,1828.8,8.0,654.0,,7.95,10.0,603.0,,0.0,1.0,93865.57,67.15,0.0,101758.77,14.0,KO54,2244,-122.92230,40.74600
543,2018-08-10 11:35:00,101862.52,N,Overcast,,KO54 101135Z AUTO 00000KT 10SM BKN060 OVC065 14/08 A3008 RMK AO1,1828.8,8.0,654.0,,7.95,10.0,603.0,,0.0,1.0,93865.57,67.15,0.0,101758.77,14.0,KO54,2244,-122.92230,40.74600
544,2018-08-10 11:55:00,101862.52,N,Overcast,,KO54 101155Z AUTO 00000KT 10SM OVC060 14/08 A3008 RMK AO1,1828.8,8.0,,,7.95,10.0,604.0,,0.0,1.0,93865.57,67.15,0.0,101758.77,14.0,KO54,2244,-122.92230,40.74600
545,2018-08-10 12:35:00,101862.52,N,Mostly Cloudy,,KO54 101235Z AUTO 00000KT 10SM BKN060 13/07 A3008 RMK AO1,1828.8,7.0,,,6.94,10.0,603.0,,0.0,1.0,93865.57,66.93,0.0,101787.3,13.0,KO54,2244,-122.92230,40.74600
546,2018-08-10 12:55:00,101896.38,N,Mostly Cloudy,,KO54 101255Z AUTO 00000KT 10SM BKN060 13/08 A3009 RMK AO1,1828.8,8.0,,,7.95,10.0,603.0,,0.0,1.0,93896.77,71.66,0.0,101821.1,13.0,KO54,2244,-122.92230,40.74600
547,2018-08-10 13:15:00,101896.38,N,Mostly Clear,,KO54 101315Z AUTO 00000KT 10SM FEW060 13/08 A3009 RMK AO1,,8.0,,,7.95,10.0,606.0,,0.0,1.0,93896.77,71.66,0.0,101821.1,13.0,KO54,2244,-122.92230,40.74600
548,2018-08-10 13:35:00,101896.38,N,Clear,,KO54 101335Z AUTO 00000KT 7SM CLR 12/07 A3009 RMK AO1,,7.0,,,6.95,7.0,1.0,,0.0,1.0,93896.77,71.47,0.0,101849.84,12.0,KO54,2244,-122.92230,40.74600
549,2018-08-10 13:55:00,101930.25,N,Clear,,KO54 101355Z AUTO 00000KT 8SM CLR 12/07 A3010 RMK AO1,,7.0,,,6.95,8.0,1.0,,0.0,1.0,93927.98,71.47,0.0,101883.7,12.0,KO54,2244,-122.92230,40.74600
550,2018-08-10 14:15:00,101930.25,N,Clear,,KO54 101415Z AUTO 00000KT 8SM CLR 13/08 A3010 RMK AO1,,8.0,,,7.95,8.0,1.0,,0.0,1.0,93927.98,71.66,0.0,101854.95,13.0,KO54,2244,-122.92230,40.74600
551,2018-08-10 14:35:00,101964.11,N,Clear,,KO54 101435Z AUTO 00000KT 7SM CLR 13/08 A3011 RMK AO1,,8.0,,,7.95,7.0,1.0,,0.0,1.0,93959.18,71.66,0.0,101888.78,13.0,KO54,2244,-122.92230,40.74600
552,2018-08-10 14:55:00,101964.11,N,Clear,,KO54 101455Z AUTO 00000KT 8SM CLR 14/09 A3011 RMK AO1,,9.0,,,8.96,8.0,1.0,,0.0,1.0,93959.18,71.85,0.0,101860.22,14.0,KO54,2244,-122.92230,40.74600
553,2018-08-10 15:15:00,101964.11,N,Clear,,KO54 101515Z AUTO 00000KT 8SM CLR 16/09 A3011 RMK AO1,,9.0,,,8.95,8.0,1.0,,0.0,1.0,93959.18,63.18,0.0,101803.79,16.0,KO54,2244,-122.92230,40.74600
554,2018-08-10 15:35:00,101964.11,N,Clear,,KO54 101535Z AUTO 00000KT 8SM CLR 18/08 A3011 RMK AO1,,8.0,,,7.95,8.0,1.0,,0.0,1.0,93959.18,52.03,0.0,101748.19,18.0,KO54,2244,-122.92230,40.74600
555,2018-08-10 15:55:00,101964.11,N,Clear,,KO54 101555Z AUTO 00000KT 8SM CLR 19/08 A3011 RMK AO1,,8.0,,,7.95,8.0,1.0,,0.0,1.0,93959.18,48.87,0.0,101720.66,19.0,KO54,2244,-122.92230,40.74600
556,2018-08-10 16:15:00,101964.11,N,Clear,,KO54 101615Z AUTO 00000KT 7SM CLR 20/08 A3011 RMK AO1,,8.0,,,7.95,7.0,1.0,,0.0,1.0,93959.18,45.93,0.0,101693.34,20.0,KO54,2244,-122.92230,40.74600
557,2018-08-10 16:35:00,101930.25,N,Clear,,KO54 101635Z AUTO 00000KT 8SM CLR 22/08 A3010 RMK AO1,,8.0,,,7.97,8.0,1.0,,0.0,1.0,93927.98,40.63,0.0,101605.5,22.0,KO54,2244,-122.92230,40.74600
558,2018-08-10 16:55:00,101930.25,SSW,Clear,,KO54 101655Z AUTO 21003KT 9SM CLR 23/08 A3010 RMK AO1,,8.0,,,7.98,9.0,1.0,,210.0,1.0,93927.98,38.24,1.54,101578.75,23.0,KO54,2244,-122.92230,40.74600
559,2018-08-10 17:15:00,101930.25,SSW,Clear,,KO54 101715Z AUTO 20003KT 7SM CLR 24/09 A3010 RMK AO1,,9.0,,,8.99,7.0,1.0,,200.0,1.0,93927.98,38.53,1.54,101552.15,24.0,KO54,2244,-122.92230,40.74600
560,2018-08-10 17:35:00,101896.38,SSW,Clear,,KO54 101735Z AUTO 21003KT 8SM CLR 25/08 A3009 RMK AO1,,8.0,,,8.0,8.0,1.0,,210.0,1.0,93896.77,33.92,1.54,101492.07,25.0,KO54,2244,-122.92230,40.74600
561,2018-08-10 17:55:00,101896.38,SSW,Clear,,KO54 101755Z AUTO 20003KT 10SM CLR 28/07 A3009 RMK AO1,,7.0,,,7.05,10.0,1.0,26.95,200.0,1.0,93896.77,26.56,1.54,101414.06,28.0,KO54,2244,-122.92230,40.74600
562,2018-08-10 18:15:00,101862.52,S,Clear,,KO54 101815Z AUTO 18003KT 10SM CLR 28/07 A3008 RMK AO1,,7.0,,,7.05,10.0,1.0,26.95,180.0,1.0,93865.57,26.56,1.54,101380.36,28.0,KO54,2244,-122.92230,40.74600
563,2018-08-10 18:35:00,101828.66,S,Clear,,KO54 101835Z AUTO 19003KT 10SM CLR 29/07 A3007 RMK AO1,,7.0,,,7.06,10.0,1.0,27.63,190.0,1.0,93834.36,25.06,1.54,101321.02,29.0,KO54,2244,-122.92230,40.74600
564,2018-08-10 18:55:00,101828.66,N,Clear,,KO54 101855Z AUTO 00000KT 10SM CLR 30/05 A3007 RMK AO1,,5.0,,,5.1,10.0,1.0,28.26,0.0,1.0,93834.36,20.61,0.0,101295.6,30.0,KO54,2244,-122.92230,40.74600
565,2018-08-10 19:15:00,101794.79,S,Clear,,KO54 101915Z AUTO 18004KT 10SM CLR 32/04 A3006 RMK AO1,,4.0,,,4.15,10.0,1.0,29.85,180.0,1.0,93803.15,17.15,2.06,101211.54,32.0,KO54,2244,-122.92230,40.74600
566,2018-08-10 19:35:00,101760.93,S,Clear,,KO54 101935Z AUTO 18005KT 10SM CLR 33/05 A3005 RMK AO1,,5.0,,,5.17,10.0,1.0,30.78,180.0,1.0,93771.95,17.39,2.57,101152.91,33.0,KO54,2244,-122.92230,40.74600
567,2018-08-10 19:55:00,101760.93,SSW,Clear,,KO54 101955Z AUTO 21003KT 10SM CLR 33/04 A3005 RMK AO1,,4.0,,,4.17,10.0,1.0,30.73,210.0,1.0,93771.95,16.21,1.54,101152.94,33.0,KO54,2244,-122.92230,40.74600
568,2018-08-10 20:15:00,101727.07,N,Clear,,KO54 102015Z AUTO 00000KT 10SM CLR 34/02 A3004 RMK AO1,,2.0,,,2.23,10.0,1.0,31.53,0.0,1.0,93740.75,13.31,0.0,101094.57,34.0,KO54,2244,-122.92230,40.74600
569,2018-08-10 20:35:00,101693.2,SE,Clear,,KO54 102035Z AUTO 14003KT 10SM CLR 34/02 A3003 RMK AO1,,2.0,,,2.23,10.0,1.0,31.53,140.0,1.0,93709.54,13.31,1.54,101060.91,34.0,KO54,2244,-122.92230,40.74600
570,2018-08-10 20:55:00,101659.34,SSW,Clear,,KO54 102055Z AUTO 21006KT 10SM CLR 35/02 A3002 RMK AO1,,2.0,,,2.25,10.0,1.0,32.37,210.0,1.0,93678.34,12.59,3.09,101002.68,35.0,KO54,2244,-122.92230,40.74600
571,2018-08-10 21:15:00,101625.47,W,Clear,,KO54 102115Z AUTO 27004KT 10SM CLR 36/01 A3001 RMK AO1,,1.0,,,1.29,10.0,1.0,33.03,270.0,1.0,93647.13,11.09,2.06,100944.64,36.0,KO54,2244,-122.92230,40.74600
572,2018-08-10 21:35:00,101625.47,W,Clear,,KO54 102135Z AUTO 27007KT 7SM CLR 36/00 A3001 RMK AO1,,0.0,,,0.31,7.0,1.0,32.89,270.0,1.0,93647.13,10.32,3.6,100944.66,36.0,KO54,2244,-122.92230,40.74600
573,2018-08-10 21:55:00,101625.47,SSW,Clear,,KO54 102155Z AUTO 20005KT 8SM CLR 36/02 A3001 RMK AO1,,2.0,,,2.29,8.0,1.0,33.19,200.0,1.0,93647.13,11.92,2.57,100944.62,36.0,KO54,2244,-122.92230,40.74600
574,2018-08-10 22:15:00,101591.61,S,Clear,,KO54 102215Z AUTO 18003KT 10SM CLR 37/02 A3000 RMK AO1,,2.0,,,2.31,10.0,1.0,34.03,180.0,1.0,93615.92,11.28,1.54,100886.74,37.0,KO54,2244,-122.92230,40.74600
575,2018-08-10 22:35:00,101591.61,WSW,Clear,8.23,KO54 102235Z AUTO 24005G16KT 10SM CLR 37/00 A3000 RMK AO1,,0.0,,,0.34,10.0,1.0,33.73,240.0,1.0,93615.92,9.77,2.57,100886.78,37.0,KO54,2244,-122.92230,40.74600
576,2018-08-10 22:55:00,101591.61,SW,Clear,,KO54 102255Z AUTO 23008KT 10SM CLR 37/02 A3000 RMK AO1,,2.0,,,2.31,10.0,1.0,34.03,230.0,1.0,93615.92,11.28,4.12,100886.74,37.0,KO54,2244,-122.92230,40.74600
577,2018-08-10 23:15:00,101557.75,W,Clear,,KO54 102315Z AUTO 26005KT 10SM CLR 36/02 A2999 RMK AO1,,2.0,,,2.29,10.0,1.0,33.19,260.0,1.0,93584.72,11.92,2.57,100877.35,36.0,KO54,2244,-122.92230,40.74600
578,2018-08-10 23:35:00,101591.61,WSW,Clear,10.29,KO54 102335Z AUTO 25006G20KT 160V310 10SM CLR 36/03 A3000 RMK AO1,,3.0,,,3.27,10.0,1.0,33.37,250.0,1.0,93615.92,12.79,3.09,100910.96,36.0,KO54,2244,-122.92230,40.74600
579,2018-08-10 23:55:00,101591.61,WNW,Clear,7.2,KO54 102355Z AUTO 30010G14KT 10SM CLR 35/03 A3000 RMK AO1,,3.0,,,3.24,10.0,1.0,32.48,300.0,1.0,93615.92,13.52,5.14,100935.36,35.0,KO54,2244,-122.92230,40.74600
580,2018-08-11 00:15:00,101591.61,W,Clear,,KO54 110015Z AUTO 27004KT 10SM CLR 34/03 A3000 RMK AO1,,3.0,,,3.21,10.0,1.0,31.57,270.0,1.0,93615.92,14.29,2.06,100959.92,34.0,KO54,2244,-122.92230,40.74600
581,2018-08-11 00:35:00,101591.61,WSW,Clear,,KO54 110035Z AUTO 24003KT 10SM CLR 35/03 A3000 RMK AO1,,3.0,,,3.24,10.0,1.0,32.48,240.0,1.0,93615.92,13.52,1.54,100935.36,35.0,KO54,2244,-122.92230,40.74600
582,2018-08-11 00:55:00,101591.61,WNW,Clear,,KO54 110055Z AUTO 29005KT 10SM CLR 34/03 A3000 RMK AO1,,3.0,,,3.21,10.0,1.0,31.57,290.0,1.0,93615.92,14.29,2.57,100959.92,34.0,KO54,2244,-122.92230,40.74600
583,2018-08-11 01:15:00,101557.75,WNW,Clear,,KO54 110115Z AUTO 30005KT 10SM CLR 34/03 A2999 RMK AO1,,3.0,,,3.21,10.0,1.0,31.57,300.0,1.0,93584.72,14.29,2.57,100926.27,34.0,KO54,2244,-122.92230,40.74600
584,2018-08-11 01:35:00,101591.61,NW,Clear,,KO54 110135Z AUTO 31007KT 10SM CLR 33/03 A3000 RMK AO1,,3.0,,,3.19,10.0,1.0,30.68,310.0,1.0,93615.92,15.11,3.6,100984.65,33.0,KO54,2244,-122.92230,40.74600
585,2018-08-11 01:55:00,101591.61,WNW,Clear,,KO54 110155Z AUTO 29007KT 10SM CLR 33/04 A3000 RMK AO1,,4.0,,,4.17,10.0,1.0,30.73,290.0,1.0,93615.92,16.21,3.6,100984.63,33.0,KO54,2244,-122.92230,40.74600
586,2018-08-11 02:15:00,101591.61,SW,Clear,,KO54 110215Z AUTO 22003KT 9SM CLR 33/04 A3000 RMK AO1,,4.0,,,4.17,9.0,1.0,30.73,220.0,1.0,93615.92,16.21,1.54,100984.63,33.0,KO54,2244,-122.92230,40.74600
587,2018-08-11 02:35:00,101591.61,NW,Clear,,KO54 110235Z AUTO 32004KT 10SM CLR 32/04 A3000 RMK AO1,,4.0,,,4.15,10.0,1.0,29.85,320.0,1.0,93615.92,17.15,2.06,101009.52,32.0,KO54,2244,-122.92230,40.74600
588,2018-08-11 02:55:00,101625.47,NNW,Clear,,KO54 110255Z AUTO 34003KT 10SM CLR 30/04 A3001 RMK AO1,,4.0,,,4.1,10.0,1.0,28.22,340.0,1.0,93647.13,19.21,1.54,101093.51,30.0,KO54,2244,-122.92230,40.74600
589,2018-08-11 03:15:00,101625.47,N,Clear,,KO54 110315Z AUTO 00000KT 9SM CLR 29/05 A3001 RMK AO1,,5.0,,,5.08,9.0,1.0,27.51,0.0,1.0,93647.13,21.83,0.0,101118.9,29.0,KO54,2244,-122.92230,40.74600
590,2018-08-11 03:35:00,101659.34,S,Clear,,KO54 110335Z AUTO 19003KT 10SM CLR 28/06 A3002 RMK AO1,,6.0,,,6.05,10.0,1.0,26.88,190.0,1.0,93678.34,24.79,1.54,101178.17,28.0,KO54,2244,-122.92230,40.74600
591,2018-08-11 03:55:00,101659.34,SSE,Clear,,KO54 110355Z AUTO 15003KT 10SM CLR 26/06 A3002 RMK AO1,,6.0,,,6.01,10.0,1.0,,150.0,1.0,93678.34,27.87,1.54,101229.9,26.0,KO54,2244,-122.92230,40.74600
592,2018-08-11 04:15:00,101693.2,SSE,Clear,,KO54 110415Z AUTO 16004KT 10SM CLR 25/07 A3003 RMK AO1,,7.0,,,7.0,10.0,1.0,,160.0,1.0,93709.54,31.68,2.06,101289.72,25.0,KO54,2244,-122.92230,40.74600
593,2018-08-11 04:35:00,101727.07,S,Clear,,KO54 110435Z AUTO 18003KT 10SM CLR 24/07 A3004 RMK AO1,,7.0,,,6.99,10.0,1.0,,180.0,1.0,93740.75,33.63,1.54,101349.79,24.0,KO54,2244,-122.92230,40.74600
594,2018-08-11 04:55:00,101727.07,N,Clear,,KO54 110455Z AUTO 00000KT 10SM CLR 24/07 A3004 RMK AO1,,7.0,,,6.99,10.0,1.0,,0.0,1.0,93740.75,33.63,0.0,101349.79,24.0,KO54,2244,-122.92230,40.74600
595,2018-08-11 05:15:00,101727.07,N,Clear,,KO54 110515Z AUTO 00000KT 10SM CLR 23/08 A3004 RMK AO1,,8.0,,,7.98,10.0,1.0,,0.0,1.0,93740.75,38.24,0.0,101376.27,23.0,KO54,2244,-122.92230,40.74600
596,2018-08-11 05:35:00,101727.07,N,Clear,,KO54 110535Z AUTO 00000KT 10SM CLR 22/08 A3004 RMK AO1,,8.0,,,7.97,10.0,1.0,,0.0,1.0,93740.75,40.63,0.0,101402.97,22.0,KO54,2244,-122.92230,40.74600
597,2018-08-11 05:55:00,101727.07,N,Clear,,KO54 110555Z AUTO 00000KT 10SM CLR 22/08 A3004 RMK AO1,,8.0,,,7.97,10.0,1.0,,0.0,1.0,93740.75,40.63,0.0,101402.97,22.0,KO54,2244,-122.92230,40.74600
598,2018-08-11 06:15:00,101727.07,N,Clear,,KO54 110615Z AUTO 36003KT 10SM CLR 21/08 A3004 RMK AO1,,8.0,,,7.96,10.0,1.0,,360.0,1.0,93740.75,43.19,1.54,101429.85,21.0,KO54,2244,-122.92230,40.74600
599,2018-08-11 06:35:00,101727.07,NE,Clear,,KO54 110635Z AUTO 04003KT 10SM CLR 20/07 A3004 RMK AO1,,7.0,,,6.95,10.0,1.0,,40.0,1.0,93740.75,42.9,1.54,101456.96,20.0,KO54,2244,-122.92230,40.74600
600,2018-08-11 06:55:00,101727.07,N,Clear,,KO54 110655Z AUTO 00000KT 10SM CLR 20/07 A3004 RMK AO1,,7.0,,,6.95,10.0,1.0,,0.0,1.0,93740.75,42.9,0.0,101456.96,20.0,KO54,2244,-122.92230,40.74600
601,2018-08-11 07:15:00,101727.07,N,Clear,,KO54 110715Z AUTO 00000KT 10SM CLR 20/07 A3004 RMK AO1,,7.0,,,6.95,10.0,1.0,,0.0,1.0,93740.75,42.9,0.0,101456.96,20.0,KO54,2244,-122.92230,40.74600
602,2018-08-11 07:35:00,101727.07,N,Clear,,KO54 110735Z AUTO 36003KT 10SM CLR 20/07 A3004 RMK AO1,,7.0,,,6.95,10.0,1.0,,360.0,1.0,93740.75,42.9,1.54,101456.96,20.0,KO54,2244,-122.92230,40.74600
603,2018-08-11 07:55:00,101727.07,N,Clear,,KO54 110755Z AUTO 01003KT 10SM CLR 19/07 A3004 RMK AO1,,7.0,,,6.95,10.0,1.0,,10.0,1.0,93740.75,45.65,1.54,101484.22,19.0,KO54,2244,-122.92230,40.74600
604,2018-08-11 08:15:00,101727.07,NNE,Clear,,KO54 110815Z AUTO 03003KT 10SM CLR 19/07 A3004 RMK AO1,,7.0,,,6.95,10.0,1.0,,30.0,1.0,93740.75,45.65,1.54,101484.22,19.0,KO54,2244,-122.92230,40.74600
605,2018-08-11 08:35:00,101727.07,NNE,Clear,,KO54 110835Z AUTO 02003KT 10SM CLR 18/08 A3004 RMK AO1,,8.0,,,7.95,10.0,1.0,,20.0,1.0,93740.75,52.03,1.54,101511.65,18.0,KO54,2244,-122.92230,40.74600
606,2018-08-11 08:55:00,101727.07,N,Clear,,KO54 110855Z AUTO 00000KT 10SM CLR 18/07 A3004 RMK AO1,,7.0,,,6.94,10.0,1.0,,0.0,1.0,93740.75,48.59,0.0,101511.68,18.0,KO54,2244,-122.92230,40.74600
607,2018-08-11 09:15:00,101693.2,NNE,Clear,,KO54 110915Z AUTO 02003KT 10SM CLR 18/07 A3003 RMK AO1,,7.0,,,6.94,10.0,1.0,,20.0,1.0,93709.54,48.59,1.54,101477.88,18.0,KO54,2244,-122.92230,40.74600
608,2018-08-11 09:35:00,101727.07,N,Clear,,KO54 110935Z AUTO 00000KT 10SM CLR 17/08 A3004 RMK AO1,,8.0,,,7.94,10.0,1.0,,0.0,1.0,93740.75,55.41,0.0,101539.3,17.0,KO54,2244,-122.92230,40.74600
609,2018-08-11 09:55:00,101727.07,N,Clear,,KO54 110955Z AUTO 00000KT 10SM CLR 17/07 A3004 RMK AO1,,7.0,,,6.94,10.0,1.0,,0.0,1.0,93740.75,51.76,0.0,101539.33,17.0,KO54,2244,-122.92230,40.74600
610,2018-08-11 10:15:00,101727.07,N,Clear,,KO54 111015Z AUTO 00000KT 10SM CLR 17/07 A3004 RMK AO1,,7.0,,,6.94,10.0,1.0,,0.0,1.0,93740.75,51.76,0.0,101539.33,17.0,KO54,2244,-122.92230,40.74600
611,2018-08-11 10:35:00,101727.07,N,Clear,,KO54 111035Z AUTO 00000KT 10SM CLR 16/08 A3004 RMK AO1,,8.0,,,7.94,10.0,1.0,,0.0,1.0,93740.75,59.05,0.0,101567.15,16.0,KO54,2244,-122.92230,40.74600
612,2018-08-11 10:55:00,101727.07,N,Clear,,KO54 111055Z AUTO 00000KT 10SM CLR 16/07 A3004 RMK AO1,,7.0,,,6.94,10.0,1.0,,0.0,1.0,93740.75,55.15,0.0,101567.19,16.0,KO54,2244,-122.92230,40.74600
613,2018-08-11 11:15:00,101727.07,N,Clear,,KO54 111115Z AUTO 00000KT 10SM CLR 15/08 A3004 RMK AO1,,8.0,,,7.95,10.0,1.0,,0.0,1.0,93740.75,62.95,0.0,101595.2,15.0,KO54,2244,-122.92230,40.74600
614,2018-08-11 11:35:00,101727.07,N,Clear,,KO54 111135Z AUTO 00000KT 10SM CLR 15/08 A3004 RMK AO1,,8.0,,,7.95,10.0,1.0,,0.0,1.0,93740.75,62.95,0.0,101595.2,15.0,KO54,2244,-122.92230,40.74600
615,2018-08-11 11:55:00,101727.07,N,Clear,,KO54 111155Z AUTO 00000KT 10SM CLR 15/08 A3004 RMK AO1,,8.0,,,7.95,10.0,1.0,,0.0,1.0,93740.75,62.95,0.0,101595.2,15.0,KO54,2244,-122.92230,40.74600
616,2018-08-11 12:15:00,101727.07,NNE,Clear,,KO54 111215Z AUTO 02003KT 10SM CLR 15/07 A3004 RMK AO1,,7.0,,,6.94,10.0,1.0,,20.0,1.0,93740.75,58.8,1.54,101595.24,15.0,KO54,2244,-122.92230,40.74600
617,2018-08-11 12:35:00,101760.93,NNE,Clear,,KO54 111235Z AUTO 03004KT 10SM CLR 15/07 A3005 RMK AO1,,7.0,,,6.94,10.0,1.0,,30.0,1.0,93771.95,58.8,2.06,101629.05,15.0,KO54,2244,-122.92230,40.74600
618,2018-08-11 12:55:00,101794.79,N,Clear,,KO54 111255Z AUTO 00000KT 10SM CLR 14/07 A3006 RMK AO1,,7.0,,,6.94,10.0,1.0,,0.0,1.0,93803.15,62.72,0.0,101691.14,14.0,KO54,2244,-122.92230,40.74600
619,2018-08-11 13:15:00,101794.79,N,Clear,,KO54 111315Z AUTO 00000KT 10SM CLR 14/07 A3006 RMK AO1,,7.0,,,6.94,10.0,1.0,,0.0,1.0,93803.15,62.72,0.0,101691.14,14.0,KO54,2244,-122.92230,40.74600
620,2018-08-11 13:35:00,101794.79,N,Clear,,KO54 111335Z AUTO 00000KT 10SM CLR 14/07 A3006 RMK AO1,,7.0,,,6.94,10.0,1.0,,0.0,1.0,93803.15,62.72,0.0,101691.14,14.0,KO54,2244,-122.92230,40.74600
621,2018-08-11 13:55:00,101828.66,N,Clear,,KO54 111355Z AUTO 00000KT 10SM CLR 14/08 A3007 RMK AO1,,8.0,,,7.95,10.0,1.0,,0.0,1.0,93834.36,67.15,0.0,101724.94,14.0,KO54,2244,-122.92230,40.74600
622,2018-08-11 14:15:00,101862.52,N,Clear,,KO54 111415Z AUTO 00000KT 10SM CLR 14/08 A3008 RMK AO1,,8.0,,,7.95,10.0,1.0,,0.0,1.0,93865.57,67.15,0.0,101758.77,14.0,KO54,2244,-122.92230,40.74600
623,2018-08-11 14:35:00,101862.52,N,Clear,,KO54 111435Z AUTO 00000KT 9SM CLR 15/08 A3008 RMK AO1,,8.0,,,7.95,9.0,1.0,,0.0,1.0,93865.57,62.95,0.0,101730.48,15.0,KO54,2244,-122.92230,40.74600
624,2018-08-11 14:55:00,101862.52,N,Clear,,KO54 111455Z AUTO 00000KT 10SM CLR 16/09 A3008 RMK AO1,,9.0,,,8.95,10.0,1.0,,0.0,1.0,93865.57,63.18,0.0,101702.36,16.0,KO54,2244,-122.92230,40.74600
625,2018-08-11 15:15:00,101862.52,N,Clear,,KO54 111515Z AUTO 00000KT 10SM CLR 18/09 A3008 RMK AO1,,9.0,,,8.95,10.0,1.0,,0.0,1.0,93865.57,55.67,0.0,101646.78,18.0,KO54,2244,-122.92230,40.74600
626,2018-08-11 15:35:00,101862.52,S,Clear,,KO54 111535Z AUTO 19003KT 10SM CLR 20/08 A3008 RMK AO1,,8.0,,,7.95,10.0,1.0,,190.0,1.0,93865.57,45.93,1.54,101592.02,20.0,KO54,2244,-122.92230,40.74600
627,2018-08-11 15:55:00,101862.52,SSE,Clear,,KO54 111555Z AUTO 16004KT 10SM CLR 21/08 A3008 RMK AO1,,8.0,,,7.96,10.0,1.0,,160.0,1.0,93865.57,43.19,2.06,101564.91,21.0,KO54,2244,-122.92230,40.74600
628,2018-08-11 16:15:00,101862.52,SE,Clear,,KO54 111615Z AUTO 14003KT 10SM CLR 22/08 A3008 RMK AO1,,8.0,,,7.97,10.0,1.0,,140.0,1.0,93865.57,40.63,1.54,101537.99,22.0,KO54,2244,-122.92230,40.74600
629,2018-08-11 16:35:00,101862.52,SSE,Clear,,KO54 111635Z AUTO 15004KT 10SM CLR 23/08 A3008 RMK AO1,,8.0,,,7.98,10.0,1.0,,150.0,1.0,93865.57,38.24,2.06,101511.26,23.0,KO54,2244,-122.92230,40.74600
630,2018-08-11 16:55:00,101862.52,S,Clear,,KO54 111655Z AUTO 18005KT 10SM CLR 24/07 A3008 RMK AO1,,7.0,,,6.99,10.0,1.0,,180.0,1.0,93865.57,33.63,2.57,101484.74,24.0,KO54,2244,-122.92230,40.74600
631,2018-08-11 17:15:00,101862.52,SSW,Clear,,KO54 111715Z AUTO 20008KT 10SM CLR 24/06 A3008 RMK AO1,,6.0,,,5.99,10.0,1.0,,200.0,1.0,93865.57,31.39,4.12,101484.77,24.0,KO54,2244,-122.92230,40.74600
632,2018-08-11 17:35:00,101862.52,SW,Clear,,KO54 111735Z AUTO 22009KT 10SM CLR 25/05 A3008 RMK AO1,,5.0,,,5.0,10.0,1.0,,220.0,1.0,93865.57,27.59,4.63,101458.43,25.0,KO54,2244,-122.92230,40.74600
633,2018-08-11 17:55:00,101862.52,SW,Clear,7.72,KO54 111755Z AUTO 23008G15KT 10SM CLR 27/04 A3008 RMK AO1,,4.0,,,4.04,10.0,1.0,26.35,230.0,1.0,93865.57,22.86,4.12,101406.27,27.0,KO54,2244,-122.92230,40.74600
634,2018-08-11 18:15:00,101828.66,SW,Clear,,KO54 111815Z AUTO 22009KT 10SM CLR 28/02 A3007 RMK AO1,,2.0,,,2.07,10.0,1.0,26.71,220.0,1.0,93834.36,18.72,4.63,101346.78,28.0,KO54,2244,-122.92230,40.74600
635,2018-08-11 18:35:00,101828.66,SSW,Clear,,KO54 111835Z AUTO 21009KT 10SM CLR 28/02 A3007 RMK AO1,,2.0,,,2.07,10.0,1.0,26.71,210.0,1.0,93834.36,18.72,4.63,101346.78,28.0,KO54,2244,-122.92230,40.74600
636,2018-08-11 18:55:00,101828.66,SW,Clear,,KO54 111855Z AUTO 22007KT 170V230 10SM CLR 29/00 A3007 RMK AO1,,0.0,,,0.11,10.0,1.0,27.38,220.0,1.0,93834.36,15.29,3.6,101321.18,29.0,KO54,2244,-122.92230,40.74600
637,2018-08-11 19:15:00,101794.79,W,Clear,,KO54 111915Z AUTO 28008KT 10SM CLR 30/M06 A3006 RMK AO1,,-6.0,,,-5.8,10.0,1.0,27.8,280.0,1.0,93803.15,9.23,4.12,101262.12,30.0,KO54,2244,-122.92230,40.74600
638,2018-08-11 19:35:00,101760.93,W,Clear,,KO54 111935Z AUTO 26009KT 230V300 10SM CLR 30/M07 A3005 RMK AO1,,-7.0,,,-6.79,10.0,1.0,27.75,260.0,1.0,93771.95,8.55,4.63,101228.45,30.0,KO54,2244,-122.92230,40.74600
639,2018-08-11 19:55:00,101760.93,WSW,Clear,,KO54 111955Z AUTO 24007KT 10SM CLR 30/M03 A3005 RMK AO1,,-3.0,,,-2.84,10.0,1.0,28.0,240.0,1.0,93771.95,11.58,3.6,101228.39,30.0,KO54,2244,-122.92230,40.74600
640,2018-08-11 20:15:00,101727.07,W,Clear,,KO54 112015Z AUTO 28006KT 10SM CLR 32/M02 A3004 RMK AO1,,-2.0,,,-1.79,10.0,1.0,29.54,280.0,1.0,93740.75,11.13,3.09,101144.33,32.0,KO54,2244,-122.92230,40.74600
641,2018-08-11 20:35:00,101693.2,W,Clear,,KO54 112035Z AUTO 28008KT 260V320 10SM CLR 32/M02 A3003 RMK AO1,,-2.0,,,-1.79,10.0,1.0,29.54,280.0,1.0,93709.54,11.13,4.12,101110.65,32.0,KO54,2244,-122.92230,40.74600
642,2018-08-11 20:55:00,101659.34,W,Clear,,KO54 112055Z AUTO 26006KT 240V320 10SM CLR 33/M02 A3002 RMK AO1,,-2.0,,,-1.76,10.0,1.0,30.3,260.0,1.0,93678.34,10.52,3.09,101052.08,33.0,KO54,2244,-122.92230,40.74600
643,2018-08-11 21:15:00,101659.34,WSW,Clear,7.2,KO54 112115Z AUTO 24010G14KT 10SM CLR 33/M03 A3002 RMK AO1,,-3.0,,,-2.75,10.0,1.0,30.2,240.0,1.0,93678.34,9.77,5.14,101052.09,33.0,KO54,2244,-122.92230,40.74600
644,2018-08-11 21:35:00,101625.47,WSW,Clear,,KO54 112135Z AUTO 24004KT 10SM CLR 33/M04 A3001 RMK AO1,,-4.0,,,-3.74,10.0,1.0,30.12,240.0,1.0,93647.13,9.06,2.06,101018.44,33.0,KO54,2244,-122.92230,40.74600
645,2018-08-11 21:55:00,101591.61,WSW,Clear,,KO54 112155Z AUTO 24009KT 10SM CLR 33/M04 A3000 RMK AO1,,-4.0,,,-3.74,10.0,1.0,30.12,240.0,1.0,93615.92,9.06,4.63,100984.78,33.0,KO54,2244,-122.92230,40.74600
646,2018-08-11 22:15:00,101591.61,WNW,Clear,,KO54 112215Z AUTO 29008KT 10SM CLR 34/M04 A3000 RMK AO1,,-4.0,,,-3.71,10.0,1.0,30.87,290.0,1.0,93615.92,8.57,4.12,100960.05,34.0,KO54,2244,-122.92230,40.74600
647,2018-08-11 22:35:00,101557.75,W,Clear,7.2,KO54 112235Z AUTO 27007G14KT 10SM CLR 33/M03 A2999 RMK AO1,,-3.0,,,-2.75,10.0,1.0,30.2,270.0,1.0,93584.72,9.77,3.6,100951.1,33.0,KO54,2244,-122.92230,40.74600
648,2018-08-11 22:55:00,101523.88,W,Clear,,KO54 112255Z AUTO 27009KT 10SM CLR 34/M04 A2998 RMK AO1,,-4.0,,,-3.71,10.0,1.0,30.87,270.0,1.0,93553.51,8.57,4.63,100892.74,34.0,KO54,2244,-122.92230,40.74600
649,2018-08-11 23:15:00,101490.02,W,Clear,,KO54 112315Z AUTO 27007KT 10SM CLR 34/M03 A2997 RMK AO1,,-3.0,,,-2.72,10.0,1.0,30.96,270.0,1.0,93522.31,9.24,3.6,100859.08,34.0,KO54,2244,-122.92230,40.74600
650,2018-08-11 23:35:00,101456.15,W,Clear,,KO54 112335Z AUTO 27006KT 230V290 10SM CLR 34/M03 A2996 RMK AO1,,-3.0,,,-2.72,10.0,1.0,30.96,270.0,1.0,93491.1,9.24,3.09,100825.42,34.0,KO54,2244,-122.92230,40.74600
651,2018-08-11 23:55:00,101456.15,WSW,Clear,,KO54 112355Z AUTO 25005KT 10SM CLR 34/M03 A2996 RMK AO1,,-3.0,,,-2.72,10.0,1.0,30.96,250.0,1.0,93491.1,9.24,2.57,100825.42,34.0,KO54,2244,-122.92230,40.74600
652,2018-08-12 00:15:00,101456.15,W,Clear,,KO54 120015Z AUTO 26006KT 10SM CLR 34/M02 A2996 RMK AO1,,-2.0,,,-1.73,10.0,1.0,31.06,260.0,1.0,93491.1,9.95,3.09,100825.4,34.0,KO54,2244,-122.92230,40.74600
653,2018-08-12 00:35:00,101422.29,SW,Clear,,KO54 120035Z AUTO 22007KT 10SM CLR 33/M01 A2995 RMK AO1,,-1.0,,,-0.78,10.0,1.0,30.4,220.0,1.0,93459.9,11.32,3.6,100816.43,33.0,KO54,2244,-122.92230,40.74600
654,2018-08-12 00:55:00,101422.29,SSW,Clear,,KO54 120055Z AUTO 21005KT 10SM CLR 33/00 A2995 RMK AO1,,0.0,,,0.21,10.0,1.0,30.51,210.0,1.0,93459.9,12.18,2.57,100816.41,33.0,KO54,2244,-122.92230,40.74600
655,2018-08-12 01:15:00,101422.29,SW,Clear,,KO54 120115Z AUTO 22006KT 10SM CLR 33/02 A2995 RMK AO1,,2.0,,,2.19,10.0,1.0,30.65,220.0,1.0,93459.9,14.07,3.09,100816.37,33.0,KO54,2244,-122.92230,40.74600
656,2018-08-12 01:35:00,101422.29,W,Clear,,KO54 120135Z AUTO 26007KT 230V300 10SM CLR 32/02 A2995 RMK AO1,,2.0,,,2.16,10.0,1.0,29.79,260.0,1.0,93459.9,14.88,3.6,100841.22,32.0,KO54,2244,-122.92230,40.74600
657,2018-08-12 01:55:00,101422.29,W,Clear,,KO54 120155Z AUTO 27006KT 10SM CLR 32/04 A2995 RMK AO1,,4.0,,,4.15,10.0,1.0,29.85,270.0,1.0,93459.9,17.15,3.09,100841.18,32.0,KO54,2244,-122.92230,40.74600
658,2018-08-12 02:15:00,101422.29,WSW,Clear,,KO54 120215Z AUTO 25007KT 230V300 10SM CLR 30/06 A2995 RMK AO1,,6.0,,,6.09,10.0,1.0,28.31,250.0,1.0,93459.9,22.09,3.6,100891.34,30.0,KO54,2244,-122.92230,40.74600
659,2018-08-12 02:35:00,101456.15,SW,Clear,,KO54 120235Z AUTO 22007KT 10SM CLR 29/07 A2996 RMK AO1,,7.0,,,7.06,10.0,1.0,27.63,220.0,1.0,93491.1,25.06,3.6,100950.37,29.0,KO54,2244,-122.92230,40.74600
660,2018-08-12 02:55:00,101456.15,SSW,Clear,,KO54 120255Z AUTO 21007KT 9SM CLR 28/07 A2996 RMK AO1,,7.0,,,7.05,9.0,1.0,26.95,210.0,1.0,93491.1,26.56,3.6,100975.91,28.0,KO54,2244,-122.92230,40.74600
661,2018-08-12 03:15:00,101490.02,SSW,Clear,,KO54 120315Z AUTO 21009KT 10SM CLR 27/07 A2997 RMK AO1,,7.0,,,7.03,10.0,1.0,26.49,210.0,1.0,93522.31,28.15,4.63,101035.35,27.0,KO54,2244,-122.92230,40.74600
662,2018-08-12 03:35:00,101523.88,SW,Clear,7.72,KO54 120335Z AUTO 22009G15KT 10SM CLR 27/07 A2998 RMK AO1,,7.0,,,7.03,10.0,1.0,26.49,220.0,1.0,93553.51,28.15,4.63,101069.06,27.0,KO54,2244,-122.92230,40.74600
663,2018-08-12 03:55:00,101557.75,SW,Clear,8.23,KO54 120355Z AUTO 23009G16KT 10SM CLR 26/07 A2999 RMK AO1,,7.0,,,7.01,10.0,1.0,,230.0,1.0,93584.72,29.86,4.63,101128.7,26.0,KO54,2244,-122.92230,40.74600
664,2018-08-12 04:15:00,101591.61,SSW,Clear,,KO54 120415Z AUTO 21009KT 10SM CLR 25/07 A3000 RMK AO1,,7.0,,,7.0,10.0,1.0,,210.0,1.0,93615.92,31.68,4.63,101188.53,25.0,KO54,2244,-122.92230,40.74600
665,2018-08-12 04:35:00,101625.47,SSW,Clear,7.2,KO54 120435Z AUTO 21007G14KT 180V240 10SM CLR 25/07 A3001 RMK AO1,,7.0,,,7.0,10.0,1.0,,210.0,1.0,93647.13,31.68,3.6,101222.26,25.0,KO54,2244,-122.92230,40.74600
666,2018-08-12 04:55:00,101625.47,SW,Clear,,KO54 120455Z AUTO 22009KT 10SM CLR 24/07 A3001 RMK AO1,,7.0,,,6.99,10.0,1.0,,220.0,1.0,93647.13,33.63,4.63,101248.57,24.0,KO54,2244,-122.92230,40.74600
667,2018-08-12 05:15:00,101659.34,SW,Clear,7.72,KO54 120515Z AUTO 23006G15KT 170V270 10SM CLR 24/07 A3002 RMK AO1,,7.0,,,6.99,10.0,1.0,,230.0,1.0,93678.34,33.63,3.09,101282.31,24.0,KO54,2244,-122.92230,40.74600
668,2018-08-12 05:35:00,101659.34,SSW,Clear,7.2,KO54 120535Z AUTO 21010G14KT 10SM CLR 23/07 A3002 RMK AO1,,7.0,,,6.98,10.0,1.0,,210.0,1.0,93678.34,35.72,5.14,101308.8,23.0,KO54,2244,-122.92230,40.74600
669,2018-08-12 05:55:00,101693.2,SSW,Clear,7.72,KO54 120555Z AUTO 21008G15KT 10SM CLR 23/07 A3003 RMK AO1,,7.0,,,6.98,10.0,1.0,,210.0,1.0,93709.54,35.72,4.12,101342.55,23.0,KO54,2244,-122.92230,40.74600
670,2018-08-12 06:15:00,101693.2,N,Clear,,KO54 120615Z AUTO 36004KT 10SM CLR 22/06 A3003 RMK AO1,,6.0,,,5.96,10.0,1.0,,360.0,1.0,93709.54,35.42,2.06,101369.26,22.0,KO54,2244,-122.92230,40.74600
671,2018-08-12 06:35:00,101693.2,NNE,Clear,,KO54 120635Z AUTO 02003KT 10SM CLR 18/05 A3003 RMK AO1,,5.0,,,4.93,10.0,1.0,,20.0,1.0,93709.54,42.32,1.54,101477.94,18.0,KO54,2244,-122.92230,40.74600
672,2018-08-12 06:55:00,101693.2,N,Clear,,KO54 120655Z AUTO 00000KT 10SM CLR 17/05 A3003 RMK AO1,,5.0,,,4.93,10.0,1.0,,0.0,1.0,93709.54,45.07,0.0,101505.58,17.0,KO54,2244,-122.92230,40.74600
673,2018-08-12 07:15:00,101693.2,N,Clear,,KO54 120715Z AUTO 01003KT 10SM CLR 17/05 A3003 RMK AO1,,5.0,,,4.93,10.0,1.0,,10.0,1.0,93709.54,45.07,1.54,101505.58,17.0,KO54,2244,-122.92230,40.74600
674,2018-08-12 07:35:00,101727.07,N,Clear,,KO54 120735Z AUTO 01003KT 10SM CLR 16/05 A3004 RMK AO1,,5.0,,,4.93,10.0,1.0,,10.0,1.0,93740.75,48.03,1.54,101567.24,16.0,KO54,2244,-122.92230,40.74600
675,2018-08-12 07:55:00,101727.07,N,Clear,,KO54 120755Z AUTO 00000KT 10SM CLR 16/05 A3004 RMK AO1,,5.0,,,4.93,10.0,1.0,,0.0,1.0,93740.75,48.03,0.0,101567.24,16.0,KO54,2244,-122.92230,40.74600
676,2018-08-12 08:15:00,101727.07,N,Clear,,KO54 120815Z AUTO 01003KT 10SM CLR 15/05 A3004 RMK AO1,,5.0,,,4.93,10.0,1.0,,10.0,1.0,93740.75,51.21,1.54,101595.29,15.0,KO54,2244,-122.92230,40.74600
677,2018-08-12 08:35:00,101727.07,N,Mostly Clear,,KO54 120835Z AUTO 00000KT 10SM FEW060 15/05 A3004 RMK AO1,,5.0,,,4.93,10.0,606.0,,0.0,1.0,93740.75,51.21,0.0,101595.29,15.0,KO54,2244,-122.92230,40.74600
678,2018-08-12 08:55:00,101727.07,ENE,Mostly Clear,,KO54 120855Z AUTO 06003KT 10SM FEW050 14/06 A3004 RMK AO1,,6.0,,,5.94,10.0,506.0,,60.0,1.0,93740.75,58.55,1.54,101623.52,14.0,KO54,2244,-122.92230,40.74600
679,2018-08-12 09:15:00,101727.07,ENE,Mostly Clear,,KO54 120915Z AUTO 07003KT 10SM FEW050 14/06 A3004 RMK AO1,,6.0,,,5.94,10.0,506.0,,70.0,1.0,93740.75,58.55,1.54,101623.52,14.0,KO54,2244,-122.92230,40.74600
680,2018-08-12 09:35:00,101727.07,N,Clear,,KO54 120935Z AUTO 00000KT 10SM CLR 14/06 A3004 RMK AO1,,6.0,,,5.94,10.0,1.0,,0.0,1.0,93740.75,58.55,0.0,101623.52,14.0,KO54,2244,-122.92230,40.74600
681,2018-08-12 09:55:00,101727.07,N,Clear,,KO54 120955Z AUTO 00000KT 10SM CLR 14/06 A3004 RMK AO1,,6.0,,,5.94,10.0,1.0,,0.0,1.0,93740.75,58.55,0.0,101623.52,14.0,KO54,2244,-122.92230,40.74600
682,2018-08-12 10:15:00,101760.93,N,Clear,,KO54 121015Z AUTO 00000KT 10SM CLR 13/06 A3005 RMK AO1,,6.0,,,5.94,10.0,1.0,,0.0,1.0,93771.95,62.48,0.0,101685.81,13.0,KO54,2244,-122.92230,40.74600
683,2018-08-12 10:35:00,101727.07,N,Mostly Cloudy,,KO54 121035Z AUTO 00000KT 10SM BKN031 13/06 A3004 RMK AO1,944.88,6.0,,,5.94,10.0,313.0,,0.0,1.0,93740.75,62.48,0.0,101651.98,13.0,KO54,2244,-122.92230,40.74600
684,2018-08-12 10:55:00,101760.93,N,Overcast,,KO54 121055Z AUTO 00000KT 10SM OVC033 13/06 A3005 RMK AO1,1005.84,6.0,,,5.94,10.0,334.0,,0.0,1.0,93771.95,62.48,0.0,101685.81,13.0,KO54,2244,-122.92230,40.74600
685,2018-08-12 11:15:00,101727.07,N,Overcast,,KO54 121115Z AUTO 00000KT 10SM OVC035 12/06 A3004 RMK AO1,1066.8,6.0,,,5.94,10.0,354.0,,0.0,1.0,93740.75,66.71,0.0,101680.64,12.0,KO54,2244,-122.92230,40.74600
686,2018-08-12 11:35:00,101727.07,N,Overcast,,KO54 121135Z AUTO 00000KT 10SM OVC035 12/06 A3004 RMK AO1,1066.8,6.0,,,5.94,10.0,354.0,,0.0,1.0,93740.75,66.71,0.0,101680.64,12.0,KO54,2244,-122.92230,40.74600
687,2018-08-12 11:55:00,101760.93,N,Overcast,,KO54 121155Z AUTO 00000KT 10SM OVC035 12/05 A3005 RMK AO1,1066.8,5.0,,,4.93,10.0,354.0,,0.0,1.0,93771.95,62.24,0.0,101714.51,12.0,KO54,2244,-122.92230,40.74600
688,2018-08-12 12:15:00,101760.93,N,Overcast,,KO54 121215Z AUTO 00000KT 10SM OVC033 12/06 A3005 RMK AO1,1005.84,6.0,,,5.94,10.0,334.0,,0.0,1.0,93771.95,66.71,0.0,101714.48,12.0,KO54,2244,-122.92230,40.74600
689,2018-08-12 12:35:00,101760.93,N,Overcast,,KO54 121235Z AUTO 00000KT 10SM OVC031 12/06 A3005 RMK AO1,944.88,6.0,,,5.94,10.0,314.0,,0.0,1.0,93771.95,66.71,0.0,101714.48,12.0,KO54,2244,-122.92230,40.74600
690,2018-08-12 12:55:00,101760.93,N,Overcast,,KO54 121255Z AUTO 00000KT 10SM OVC031 11/06 A3005 RMK AO1,944.88,6.0,,,5.95,10.0,314.0,,0.0,1.0,93771.95,71.27,0.0,101743.36,11.0,KO54,2244,-122.92230,40.74600
691,2018-08-12 13:15:00,101794.79,N,Overcast,,KO54 121315Z AUTO 00000KT 10SM OVC031 11/06 A3006 RMK AO1,944.88,6.0,,,5.95,10.0,314.0,,0.0,1.0,93803.15,71.27,0.0,101777.21,11.0,KO54,2244,-122.92230,40.74600
692,2018-08-12 13:35:00,101794.79,N,Overcast,,KO54 121335Z AUTO 00000KT 10SM OVC031 11/06 A3006 RMK AO1,944.88,6.0,,,5.95,10.0,314.0,,0.0,1.0,93803.15,71.27,0.0,101777.21,11.0,KO54,2244,-122.92230,40.74600
693,2018-08-12 13:55:00,101794.79,N,Mostly Cloudy,,KO54 121355Z AUTO 00000KT 10SM BKN031 11/06 A3006 RMK AO1,944.88,6.0,,,5.95,10.0,313.0,,0.0,1.0,93803.15,71.27,0.0,101777.21,11.0,KO54,2244,-122.92230,40.74600
694,2018-08-12 14:15:00,101828.66,N,Mostly Cloudy,,KO54 121415Z AUTO 00000KT 10SM SCT031 BKN041 11/06 A3007 RMK AO1,1249.68,6.0,413.0,,5.95,10.0,312.0,,0.0,1.0,93834.36,71.27,0.0,101811.08,11.0,KO54,2244,-122.92230,40.74600
695,2018-08-12 14:35:00,101828.66,N,Mostly Cloudy,,KO54 121435Z AUTO 00000KT 10SM BKN029 12/07 A3007 RMK AO1,883.92,7.0,,,6.95,10.0,293.0,,0.0,1.0,93834.36,71.47,0.0,101782.15,12.0,KO54,2244,-122.92230,40.74600
696,2018-08-12 14:55:00,101828.66,N,Mostly Cloudy,,KO54 121455Z AUTO 00000KT 10SM BKN029 13/07 A3007 RMK AO1,883.92,7.0,,,6.94,10.0,293.0,,0.0,1.0,93834.36,66.93,0.0,101753.46,13.0,KO54,2244,-122.92230,40.74600
697,2018-08-12 15:15:00,101828.66,N,Mostly Clear,,KO54 121515Z AUTO 00000KT 10SM FEW029 14/07 A3007 RMK AO1,,7.0,,,6.94,10.0,296.0,,0.0,1.0,93834.36,62.72,0.0,101724.97,14.0,KO54,2244,-122.92230,40.74600
698,2018-08-12 15:35:00,101828.66,N,Partly Cloudy,,KO54 121535Z AUTO 00000KT 10SM SCT027 15/07 A3007 RMK AO1,,7.0,,,6.94,10.0,272.0,,0.0,1.0,93834.36,58.8,0.0,101696.69,15.0,KO54,2244,-122.92230,40.74600
699,2018-08-12 15:55:00,101828.66,N,Mostly Cloudy,,KO54 121555Z AUTO 00000KT 10SM BKN027 16/07 A3007 RMK AO1,822.96,7.0,,,6.94,10.0,273.0,,0.0,1.0,93834.36,55.15,0.0,101668.61,16.0,KO54,2244,-122.92230,40.74600
700,2018-08-12 16:15:00,101794.79,N,Mostly Cloudy,,KO54 121615Z AUTO 00000KT 10SM BKN027 17/07 A3006 RMK AO1,822.96,7.0,,,6.94,10.0,273.0,,0.0,1.0,93803.15,51.76,0.0,101606.92,17.0,KO54,2244,-122.92230,40.74600
701,2018-08-12 16:35:00,101794.79,N,Mostly Cloudy,,KO54 121635Z AUTO 00000KT 10SM BKN027 18/07 A3006 RMK AO1,822.96,7.0,,,6.94,10.0,273.0,,0.0,1.0,93803.15,48.59,0.0,101579.25,18.0,KO54,2244,-122.92230,40.74600
702,2018-08-12 16:55:00,101760.93,SSW,Mostly Clear,,KO54 121655Z AUTO 20003KT 10SM FEW025 19/07 A3005 RMK AO1,,7.0,,,6.95,10.0,256.0,,200.0,1.0,93771.95,45.65,1.54,101518.0,19.0,KO54,2244,-122.92230,40.74600
703,2018-08-12 17:15:00,101727.07,SSW,Mostly Clear,,KO54 121715Z AUTO 21004KT 10SM FEW023 20/07 A3004 RMK AO1,,7.0,,,6.95,10.0,236.0,,210.0,1.0,93740.75,42.9,2.06,101456.96,20.0,KO54,2244,-122.92230,40.74600
704,2018-08-12 17:35:00,101727.07,SW,Mostly Cloudy,,KO54 121735Z AUTO 23003KT 10SM BKN021 22/07 A3004 RMK AO1,640.08,7.0,,,6.97,10.0,213.0,,230.0,1.0,93740.75,37.95,1.54,101403.0,22.0,KO54,2244,-122.92230,40.74600
705,2018-08-12 17:55:00,101727.07,S,Partly Cloudy,,KO54 121755Z AUTO 19004KT 10SM SCT021 23/08 A3004 RMK AO1,,8.0,,,7.98,10.0,212.0,,190.0,1.0,93740.75,38.24,2.06,101376.27,23.0,KO54,2244,-122.92230,40.74600
706,2018-08-12 18:15:00,101693.2,S,Partly Cloudy,,KO54 121815Z AUTO 19003KT 10SM SCT019 23/08 A3003 RMK AO1,,8.0,,,7.98,10.0,192.0,,190.0,1.0,93709.54,38.24,1.54,101342.52,23.0,KO54,2244,-122.92230,40.74600
707,2018-08-12 18:35:00,101693.2,N,Mostly Clear,,KO54 121835Z AUTO 00000KT 10SM FEW017 24/08 A3003 RMK AO1,,8.0,,,7.99,10.0,176.0,,0.0,1.0,93709.54,36.01,0.0,101316.01,24.0,KO54,2244,-122.92230,40.74600
708,2018-08-12 18:55:00,101659.34,SSW,Clear,,KO54 121855Z AUTO 21003KT 10SM CLR 25/08 A3002 RMK AO1,,8.0,,,8.0,10.0,1.0,,210.0,1.0,93678.34,33.92,1.54,101255.97,25.0,KO54,2244,-122.92230,40.74600
709,2018-08-12 19:15:00,101625.47,N,Clear,,KO54 121915Z AUTO 00000KT 10SM CLR 27/08 A3001 RMK AO1,,8.0,,,8.02,10.0,1.0,26.54,0.0,1.0,93647.13,30.14,0.0,101170.17,27.0,KO54,2244,-122.92230,40.74600
710,2018-08-12 19:35:00,101591.61,N,Clear,,KO54 121935Z AUTO 00000KT 10SM CLR 27/08 A3000 RMK AO1,,8.0,,,8.02,10.0,1.0,26.54,0.0,1.0,93615.92,30.14,0.0,101136.45,27.0,KO54,2244,-122.92230,40.74600
711,2018-08-12 19:55:00,101557.75,N,Clear,,KO54 121955Z AUTO 00000KT 7SM CLR 29/07 A2999 RMK AO1,,7.0,,,7.06,7.0,1.0,27.63,0.0,1.0,93584.72,25.06,0.0,101051.46,29.0,KO54,2244,-122.92230,40.74600
712,2018-08-12 20:15:00,101523.88,N,Clear,,KO54 122015Z AUTO 00000KT 5SM CLR 30/07 A2998 RMK AO1,,7.0,,,7.08,5.0,1.0,28.38,0.0,1.0,93553.51,23.66,0.0,100992.37,30.0,KO54,2244,-122.92230,40.74600
713,2018-08-12 20:35:00,101490.02,NE,Clear,,KO54 122035Z AUTO 05003KT 5SM CLR 31/04 A2997 RMK AO1,,4.0,,,4.13,5.0,1.0,29.01,50.0,1.0,93522.31,18.15,1.54,100933.56,31.0,KO54,2244,-122.92230,40.74600
714,2018-08-12 20:55:00,101490.02,SW,Clear,,KO54 122055Z AUTO 22006KT 8SM CLR 32/02 A2997 RMK AO1,,2.0,,,2.16,8.0,1.0,29.79,220.0,1.0,93522.31,14.88,3.09,100908.56,32.0,KO54,2244,-122.92230,40.74600
715,2018-08-12 21:15:00,101456.15,SSW,Clear,,KO54 122115Z AUTO 20004KT 6SM CLR 33/00 A2996 RMK AO1,,0.0,,,0.21,6.0,1.0,30.51,200.0,1.0,93491.1,12.18,2.06,100850.07,33.0,KO54,2244,-122.92230,40.74600
716,2018-08-12 21:35:00,101422.29,S,Clear,,KO54 122135Z AUTO 17003KT 8SM CLR 33/00 A2995 RMK AO1,,0.0,,,0.21,8.0,1.0,30.51,170.0,1.0,93459.9,12.18,1.54,100816.41,33.0,KO54,2244,-122.92230,40.74600
717,2018-08-12 21:55:00,101388.43,S,Clear,,KO54 122155Z AUTO 17003KT 7SM CLR 33/02 A2994 RMK AO1,,2.0,,,2.19,7.0,1.0,30.65,170.0,1.0,93428.7,14.07,1.54,100782.71,33.0,KO54,2244,-122.92230,40.74600
718,2018-08-12 22:15:00,101388.43,ESE,Clear,,KO54 122215Z AUTO 12003KT 7SM CLR 34/03 A2994 RMK AO1,,3.0,,,3.21,7.0,1.0,31.57,120.0,1.0,93428.7,14.29,1.54,100758.01,34.0,KO54,2244,-122.92230,40.74600
719,2018-08-12 22:35:00,101354.56,WNW,Clear,,KO54 122235Z AUTO 30003KT 8SM CLR 34/02 A2993 RMK AO1,,2.0,,,2.23,8.0,1.0,31.53,300.0,1.0,93397.49,13.31,1.54,100724.38,34.0,KO54,2244,-122.92230,40.74600
720,2018-08-12 22:55:00,101320.7,W,Clear,,KO54 122255Z AUTO 28004KT 8SM CLR 34/02 A2992 RMK AO1,,2.0,,,2.23,8.0,1.0,31.53,280.0,1.0,93366.28,13.31,2.06,100690.72,34.0,KO54,2244,-122.92230,40.74600
721,2018-08-12 23:15:00,101320.7,N,Clear,,KO54 122315Z AUTO 00000KT 5SM CLR 34/02 A2992 RMK AO1,,2.0,,,2.23,5.0,1.0,31.53,0.0,1.0,93366.28,13.31,0.0,100690.72,34.0,KO54,2244,-122.92230,40.74600
722,2018-08-12 23:35:00,101286.84,SW,Clear,,KO54 122335Z AUTO 22007KT 9SM CLR 34/02 A2991 RMK AO1,,2.0,,,2.23,9.0,1.0,31.53,220.0,1.0,93335.08,13.31,3.6,100657.07,34.0,KO54,2244,-122.92230,40.74600
723,2018-08-12 23:55:00,101286.84,SSW,Clear,,KO54 122355Z AUTO 21007KT 10SM CLR 34/02 A2991 RMK AO1,,2.0,,,2.23,10.0,1.0,31.53,210.0,1.0,93335.08,13.31,3.6,100657.07,34.0,KO54,2244,-122.92230,40.74600
724,2018-08-13 00:15:00,101252.97,SW,Clear,,KO54 130015Z AUTO 22004KT 9SM CLR 34/02 A2990 RMK AO1,,2.0,,,2.23,9.0,1.0,31.53,220.0,1.0,93303.87,13.31,2.06,100623.41,34.0,KO54,2244,-122.92230,40.74600
725,2018-08-13 00:35:00,101252.97,N,Clear,,KO54 130035Z AUTO 00000KT 9SM CLR 34/04 A2990 RMK AO1,,4.0,,,4.2,9.0,1.0,31.62,0.0,1.0,93303.87,15.33,0.0,100623.37,34.0,KO54,2244,-122.92230,40.74600
726,2018-08-13 00:55:00,101252.97,SE,Clear,,KO54 130055Z AUTO 14003KT 8SM CLR 34/05 A2990 RMK AO1,,5.0,,,5.19,8.0,1.0,31.69,140.0,1.0,93303.87,16.44,1.54,100623.34,34.0,KO54,2244,-122.92230,40.74600
727,2018-08-13 01:15:00,101252.97,N,Clear,,KO54 130115Z AUTO 00000KT 9SM CLR 34/05 A2990 RMK AO1,,5.0,,,5.19,9.0,1.0,31.69,0.0,1.0,93303.87,16.44,0.0,100623.34,34.0,KO54,2244,-122.92230,40.74600
728,2018-08-13 01:35:00,101252.97,ESE,Clear,,KO54 130135Z AUTO 12003KT 10SM CLR 33/04 A2990 RMK AO1,,4.0,,,4.17,10.0,1.0,30.73,120.0,1.0,93303.87,16.21,1.54,100648.01,33.0,KO54,2244,-122.92230,40.74600
729,2018-08-13 01:55:00,101286.84,N,Clear,,KO54 130155Z AUTO 00000KT 9SM CLR 33/05 A2991 RMK AO1,,5.0,,,5.17,9.0,1.0,30.78,0.0,1.0,93335.08,17.39,0.0,100681.66,33.0,KO54,2244,-122.92230,40.74600
730,2018-08-13 02:15:00,101286.84,W,Clear,,KO54 130215Z AUTO 26003KT 9SM CLR 32/06 A2991 RMK AO1,,6.0,,,6.13,9.0,1.0,29.96,260.0,1.0,93335.08,19.71,1.54,100706.45,32.0,KO54,2244,-122.92230,40.74600
731,2018-08-13 02:35:00,101320.7,SW,Clear,,KO54 130235Z AUTO 23003KT 10SM CLR 31/07 A2992 RMK AO1,,7.0,,,7.11,10.0,1.0,29.18,230.0,1.0,93366.28,22.35,1.54,100765.08,31.0,KO54,2244,-122.92230,40.74600
732,2018-08-13 02:55:00,101320.7,N,Clear,,KO54 130255Z AUTO 36003KT 10SM CLR 30/08 A2992 RMK AO1,,8.0,,,8.08,10.0,1.0,28.46,360.0,1.0,93366.28,25.33,1.54,100790.22,30.0,KO54,2244,-122.92230,40.74600
733,2018-08-13 03:15:00,101354.56,N,Clear,,KO54 130315Z AUTO 00000KT 10SM CLR 26/09 A2993 RMK AO1,,9.0,,,9.01,10.0,1.0,,0.0,1.0,93397.49,34.21,0.0,100926.32,26.0,KO54,2244,-122.92230,40.74600
734,2018-08-13 03:35:00,101388.43,NNE,Clear,,KO54 130335Z AUTO 02003KT 10SM CLR 25/08 A2994 RMK AO1,,8.0,,,8.0,10.0,1.0,,20.0,1.0,93428.7,33.92,1.54,100986.13,25.0,KO54,2244,-122.92230,40.74600
735,2018-08-13 03:55:00,101388.43,NNE,Clear,,KO54 130355Z AUTO 03003KT 9SM CLR 24/08 A2994 RMK AO1,,8.0,,,7.99,9.0,1.0,,30.0,1.0,93428.7,36.01,1.54,101012.37,24.0,KO54,2244,-122.92230,40.74600
736,2018-08-13 04:15:00,101422.29,N,Clear,,KO54 130415Z AUTO 00000KT 10SM CLR 22/08 A2995 RMK AO1,,8.0,,,7.97,10.0,1.0,,0.0,1.0,93459.9,40.63,0.0,101099.16,22.0,KO54,2244,-122.92230,40.74600
737,2018-08-13 04:35:00,101456.15,NE,Clear,,KO54 130435Z AUTO 05005KT 10SM CLR 22/08 A2996 RMK AO1,,8.0,,,7.97,10.0,1.0,,50.0,1.0,93491.1,40.63,2.57,101132.91,22.0,KO54,2244,-122.92230,40.74600
738,2018-08-13 04:55:00,101490.02,N,Clear,,KO54 130455Z AUTO 00000KT 10SM CLR 21/08 A2997 RMK AO1,,8.0,,,7.96,10.0,1.0,,0.0,1.0,93522.31,43.19,0.0,101193.49,21.0,KO54,2244,-122.92230,40.74600
739,2018-08-13 05:15:00,101490.02,NNE,Clear,,KO54 130515Z AUTO 02003KT 10SM CLR 20/08 A2997 RMK AO1,,8.0,,,7.95,10.0,1.0,,20.0,1.0,93522.31,45.93,1.54,101220.5,20.0,KO54,2244,-122.92230,40.74600
740,2018-08-13 05:35:00,101490.02,NNE,Mostly Clear,,KO54 130535Z AUTO 02004KT 10SM FEW060 20/07 A2997 RMK AO1,,7.0,,,6.95,10.0,606.0,,20.0,1.0,93522.31,42.9,2.06,101220.53,20.0,KO54,2244,-122.92230,40.74600
741,2018-08-13 05:55:00,101523.88,N,Mostly Cloudy,,KO54 130555Z AUTO 01004KT 10SM BKN060 19/07 A2998 RMK AO1,1828.8,7.0,,,6.95,10.0,603.0,,10.0,1.0,93553.51,45.65,2.06,101281.51,19.0,KO54,2244,-122.92230,40.74600
742,2018-08-13 06:15:00,101523.88,N,Partly Cloudy,,KO54 130615Z AUTO 00000KT 10SM SCT060 19/07 A2998 RMK AO1,,7.0,,,6.95,10.0,602.0,,0.0,1.0,93553.51,45.65,0.0,101281.51,19.0,KO54,2244,-122.92230,40.74600
743,2018-08-13 06:35:00,101557.75,N,Mostly Clear,,KO54 130635Z AUTO 00000KT 10SM FEW060 19/08 A2999 RMK AO1,,8.0,,,7.95,10.0,606.0,,0.0,1.0,93584.72,48.87,0.0,101315.27,19.0,KO54,2244,-122.92230,40.74600
744,2018-08-13 06:55:00,101557.75,NE,Mostly Clear,,KO54 130655Z AUTO 05003KT 10SM FEW060 18/08 A2999 RMK AO1,,8.0,,,7.95,10.0,606.0,,50.0,1.0,93584.72,52.03,1.54,101342.68,18.0,KO54,2244,-122.92230,40.74600
745,2018-08-13 07:15:00,101591.61,N,Clear,,KO54 130715Z AUTO 00000KT 10SM CLR 18/08 A3000 RMK AO1,,8.0,,,7.95,10.0,1.0,,0.0,1.0,93615.92,52.03,0.0,101376.47,18.0,KO54,2244,-122.92230,40.74600
746,2018-08-13 07:35:00,101591.61,N,Clear,,KO54 130735Z AUTO 00000KT 10SM CLR 18/08 A3000 RMK AO1,,8.0,,,7.95,10.0,1.0,,0.0,1.0,93615.92,52.03,0.0,101376.47,18.0,KO54,2244,-122.92230,40.74600
747,2018-08-13 07:55:00,101591.61,N,Clear,,KO54 130755Z AUTO 00000KT 10SM CLR 17/08 A3000 RMK AO1,,8.0,,,7.94,10.0,1.0,,0.0,1.0,93615.92,55.41,0.0,101404.09,17.0,KO54,2244,-122.92230,40.74600
748,2018-08-13 08:15:00,101591.61,N,Clear,,KO54 130815Z AUTO 00000KT 10SM CLR 16/08 A3000 RMK AO1,,8.0,,,7.94,10.0,1.0,,0.0,1.0,93615.92,59.05,0.0,101431.9,16.0,KO54,2244,-122.92230,40.74600
749,2018-08-13 08:35:00,101591.61,NE,Clear,,KO54 130835Z AUTO 04003KT 10SM CLR 17/07 A3000 RMK AO1,,7.0,,,6.94,10.0,1.0,,40.0,1.0,93615.92,51.76,1.54,101404.12,17.0,KO54,2244,-122.92230,40.74600
750,2018-08-13 08:55:00,101591.61,NE,Clear,,KO54 130855Z AUTO 05003KT 10SM CLR 16/07 A3000 RMK AO1,,7.0,,,6.94,10.0,1.0,,50.0,1.0,93615.92,55.15,1.54,101431.93,16.0,KO54,2244,-122.92230,40.74600
751,2018-08-13 09:15:00,101591.61,N,Mostly Clear,,KO54 130915Z AUTO 00000KT 10SM FEW070 15/07 A3000 RMK AO1,,7.0,,,6.94,10.0,706.0,,0.0,1.0,93615.92,58.8,0.0,101459.95,15.0,KO54,2244,-122.92230,40.74600
752,2018-08-13 09:35:00,101591.61,N,Mostly Cloudy,,KO54 130935Z AUTO 00000KT 10SM BKN070 15/07 A3000 RMK AO1,2133.6,7.0,,,6.94,10.0,703.0,,0.0,1.0,93615.92,58.8,0.0,101459.95,15.0,KO54,2244,-122.92230,40.74600
753,2018-08-13 09:55:00,101591.61,N,Overcast,,KO54 130955Z AUTO 00000KT 10SM SCT021 OVC070 15/07 A3000 RMK AO1,2133.6,7.0,704.0,,6.94,10.0,212.0,,0.0,1.0,93615.92,58.8,0.0,101459.95,15.0,KO54,2244,-122.92230,40.74600
754,2018-08-13 10:15:00,101591.61,N,Overcast,,KO54 131015Z AUTO 00000KT 10SM OVC021 14/07 A3000 RMK AO1,640.08,7.0,,,6.94,10.0,214.0,,0.0,1.0,93615.92,62.72,0.0,101488.16,14.0,KO54,2244,-122.92230,40.74600
755,2018-08-13 10:35:00,101591.61,N,Overcast,,KO54 131035Z AUTO 00000KT 10SM BKN021 OVC065 14/07 A3000 RMK AO1,640.08,7.0,654.0,,6.94,10.0,213.0,,0.0,1.0,93615.92,62.72,0.0,101488.16,14.0,KO54,2244,-122.92230,40.74600
756,2018-08-13 10:55:00,101591.61,N,Overcast,,KO54 131055Z AUTO 00000KT 10SM FEW021 OVC065 14/07 A3000 RMK AO1,1981.2,7.0,654.0,,6.94,10.0,216.0,,0.0,1.0,93615.92,62.72,0.0,101488.16,14.0,KO54,2244,-122.92230,40.74600
757,2018-08-13 11:15:00,101591.61,N,Overcast,,KO54 131115Z AUTO 00000KT 10SM BKN019 OVC065 14/07 A3000 RMK AO1,579.12,7.0,654.0,,6.94,10.0,193.0,,0.0,1.0,93615.92,62.72,0.0,101488.16,14.0,KO54,2244,-122.92230,40.74600
758,2018-08-13 11:35:00,101591.61,N,Overcast,,KO54 131135Z AUTO 00000KT 10SM OVC019 13/07 A3000 RMK AO1,579.12,7.0,,,6.94,10.0,194.0,,0.0,1.0,93615.92,66.93,0.0,101516.58,13.0,KO54,2244,-122.92230,40.74600
759,2018-08-13 11:55:00,101625.47,N,Overcast,,KO54 131155Z AUTO 00000KT 10SM OVC019 13/07 A3001 RMK AO1,579.12,7.0,,,6.94,10.0,194.0,,0.0,1.0,93647.13,66.93,0.0,101550.42,13.0,KO54,2244,-122.92230,40.74600
760,2018-08-13 12:15:00,101625.47,N,Overcast,,KO54 131215Z AUTO 00000KT 10SM BKN019 OVC055 13/07 A3001 RMK AO1,579.12,7.0,554.0,,6.94,10.0,193.0,,0.0,1.0,93647.13,66.93,0.0,101550.42,13.0,KO54,2244,-122.92230,40.74600
761,2018-08-13 12:35:00,101625.47,N,Overcast,,KO54 131235Z AUTO 00000KT 10SM SCT019 OVC050 13/07 A3001 RMK AO1,1524.0,7.0,504.0,,6.94,10.0,192.0,,0.0,1.0,93647.13,66.93,0.0,101550.42,13.0,KO54,2244,-122.92230,40.74600
762,2018-08-13 12:55:00,101625.47,N,Overcast,,KO54 131255Z AUTO 00000KT 9SM SCT017 OVC050 12/07 A3001 RMK AO1,1524.0,7.0,504.0,,6.95,9.0,172.0,,0.0,1.0,93647.13,71.47,0.0,101579.06,12.0,KO54,2244,-122.92230,40.74600
763,2018-08-13 13:15:00,101625.47,N,Overcast,,KO54 131315Z AUTO 00000KT 9SM FEW017 OVC050 12/07 A3001 RMK AO1,1524.0,7.0,504.0,,6.95,9.0,176.0,,0.0,1.0,93647.13,71.47,0.0,101579.06,12.0,KO54,2244,-122.92230,40.74600
764,2018-08-13 13:35:00,101659.34,N,Mostly Cloudy,,KO54 131335Z AUTO 00000KT 7SM BKN050 12/07 A3002 RMK AO1,1524.0,7.0,,,6.95,7.0,503.0,,0.0,1.0,93678.34,71.47,0.0,101612.91,12.0,KO54,2244,-122.92230,40.74600
765,2018-08-13 13:55:00,101659.34,N,Clear,,KO54 131355Z AUTO 00000KT 5SM CLR 12/07 A3002 RMK AO1,,7.0,,,6.95,5.0,1.0,,0.0,1.0,93678.34,71.47,0.0,101612.91,12.0,KO54,2244,-122.92230,40.74600
766,2018-08-13 14:15:00,101693.2,N,Clear,,KO54 131415Z AUTO 00000KT 5SM CLR 12/07 A3003 RMK AO1,,7.0,,,6.95,5.0,1.0,,0.0,1.0,93709.54,71.47,0.0,101646.75,12.0,KO54,2244,-122.92230,40.74600
767,2018-08-13 14:35:00,101693.2,N,Clear,,KO54 131435Z AUTO 00000KT 5SM CLR 13/07 A3003 RMK AO1,,7.0,,,6.94,5.0,1.0,,0.0,1.0,93709.54,66.93,0.0,101618.1,13.0,KO54,2244,-122.92230,40.74600
768,2018-08-13 14:55:00,101693.2,N,Mostly Cloudy,,KO54 131455Z AUTO 00000KT 5SM BKN023 14/08 A3003 RMK AO1,701.04,8.0,,,7.95,5.0,233.0,,0.0,1.0,93709.54,67.15,0.0,101589.62,14.0,KO54,2244,-122.92230,40.74600
769,2018-08-13 15:15:00,101693.2,N,Partly Cloudy,,KO54 131515Z AUTO 00000KT 5SM SCT023 14/08 A3003 RMK AO1,,8.0,,,7.95,5.0,232.0,,0.0,1.0,93709.54,67.15,0.0,101589.62,14.0,KO54,2244,-122.92230,40.74600
770,2018-08-13 15:35:00,101693.2,N,Partly Cloudy,,KO54 131535Z AUTO 00000KT 5SM SCT021 15/08 A3003 RMK AO1,,8.0,,,7.95,5.0,212.0,,0.0,1.0,93709.54,62.95,0.0,101561.38,15.0,KO54,2244,-122.92230,40.74600
771,2018-08-13 15:55:00,101693.2,N,Mostly Clear,,KO54 131555Z AUTO 00000KT 8SM FEW021 17/08 A3003 RMK AO1,,8.0,,,7.94,8.0,216.0,,0.0,1.0,93709.54,55.41,0.0,101505.5,17.0,KO54,2244,-122.92230,40.74600
772,2018-08-13 16:15:00,101693.2,N,Mostly Clear,,KO54 131615Z AUTO 00000KT 8SM FEW021 18/08 A3003 RMK AO1,,8.0,,,7.95,8.0,216.0,,0.0,1.0,93709.54,52.03,0.0,101477.85,18.0,KO54,2244,-122.92230,40.74600
773,2018-08-13 16:35:00,101659.34,N,Clear,,KO54 131635Z AUTO 00000KT 9SM CLR 19/08 A3002 RMK AO1,,8.0,,,7.95,9.0,1.0,,0.0,1.0,93678.34,48.87,0.0,101416.62,19.0,KO54,2244,-122.92230,40.74600
774,2018-08-13 16:55:00,101659.34,N,Clear,,KO54 131655Z AUTO 00000KT 5SM CLR 20/08 A3002 RMK AO1,,8.0,,,7.95,5.0,1.0,,0.0,1.0,93678.34,45.93,0.0,101389.38,20.0,KO54,2244,-122.92230,40.74600
775,2018-08-13 17:15:00,101659.34,N,Clear,,KO54 131715Z AUTO 00000KT 4SM CLR 21/08 A3002 RMK AO1,,8.0,,,7.96,4.0,1.0,,0.0,1.0,93678.34,43.19,0.0,101362.32,21.0,KO54,2244,-122.92230,40.74600
776,2018-08-13 17:35:00,101659.34,N,Clear,,KO54 131735Z AUTO 00000KT 4SM CLR 22/08 A3002 RMK AO1,,8.0,,,7.97,4.0,1.0,,0.0,1.0,93678.34,40.63,0.0,101335.45,22.0,KO54,2244,-122.92230,40.74600
777,2018-08-13 17:55:00,101625.47,S,Clear,,KO54 131755Z AUTO 19003KT 4SM CLR 23/08 A3001 RMK AO1,,8.0,,,7.98,4.0,1.0,,190.0,1.0,93647.13,38.24,1.54,101275.02,23.0,KO54,2244,-122.92230,40.74600
778,2018-08-13 18:15:00,101625.47,S,Clear,,KO54 131815Z AUTO 18003KT 3SM CLR 25/08 A3001 RMK AO1,,8.0,,,8.0,3.0,1.0,,180.0,1.0,93647.13,33.92,1.54,101222.23,25.0,KO54,2244,-122.92230,40.74600
779,2018-08-13 18:35:00,101591.61,N,Clear,,KO54 131835Z AUTO 00000KT 3SM CLR 26/08 A3000 RMK AO1,,8.0,,,8.01,3.0,1.0,,0.0,1.0,93615.92,31.97,0.0,101162.39,26.0,KO54,2244,-122.92230,40.74600
780,2018-08-13 18:55:00,101591.61,SSW,Clear,,KO54 131855Z AUTO 21003KT 3SM CLR 28/08 A3000 RMK AO1,,8.0,,,8.04,3.0,1.0,27.03,210.0,1.0,93615.92,28.43,1.54,101110.7,28.0,KO54,2244,-122.92230,40.74600
781,2018-08-13 19:15:00,101557.75,SW,Clear,,KO54 131915Z AUTO 22003KT 4SM CLR 29/05 A2999 RMK AO1,,5.0,,,5.08,4.0,1.0,27.51,220.0,1.0,93584.72,21.83,1.54,101051.51,29.0,KO54,2244,-122.92230,40.74600
782,2018-08-13 19:35:00,101523.88,N,Clear,,KO54 131935Z AUTO 00000KT 4SM CLR 30/05 A2998 RMK AO1,,5.0,,,5.1,4.0,1.0,28.26,0.0,1.0,93553.51,20.61,0.0,100992.42,30.0,KO54,2244,-122.92230,40.74600
783,2018-08-13 19:55:00,101523.88,N,Clear,,KO54 131955Z AUTO 00000KT 5SM CLR 31/03 A2998 RMK AO1,,3.0,,,3.13,5.0,1.0,28.98,0.0,1.0,93553.51,16.91,0.0,100967.25,31.0,KO54,2244,-122.92230,40.74600
784,2018-08-13 20:15:00,101490.02,N,Clear,,KO54 132015Z AUTO 00000KT 7SM CLR 32/M03 A2997 RMK AO1,,-3.0,,,-2.79,7.0,1.0,29.46,0.0,1.0,93522.31,10.33,0.0,100908.65,32.0,KO54,2244,-122.92230,40.74600
785,2018-08-13 20:35:00,101456.15,S,Clear,,KO54 132035Z AUTO 17005KT 6SM CLR 32/01 A2996 RMK AO1,,1.0,,,1.17,6.0,1.0,29.77,170.0,1.0,93491.1,13.85,2.57,100874.91,32.0,KO54,2244,-122.92230,40.74600
786,2018-08-13 20:55:00,101456.15,SSW,Clear,,KO54 132055Z AUTO 21005KT 5SM CLR 33/02 A2996 RMK AO1,,2.0,,,2.19,5.0,1.0,30.65,210.0,1.0,93491.1,14.07,2.57,100850.03,33.0,KO54,2244,-122.92230,40.74600
787,2018-08-13 21:15:00,101422.29,S,Clear,,KO54 132115Z AUTO 19006KT 6SM CLR 33/03 A2995 RMK AO1,,3.0,,,3.19,6.0,1.0,30.68,190.0,1.0,93459.9,15.11,3.09,100816.35,33.0,KO54,2244,-122.92230,40.74600
788,2018-08-13 21:35:00,101388.43,SW,Clear,,KO54 132135Z AUTO 23004KT 6SM CLR 33/02 A2994 RMK AO1,,2.0,,,2.19,6.0,1.0,30.65,230.0,1.0,93428.7,14.07,2.06,100782.71,33.0,KO54,2244,-122.92230,40.74600
789,2018-08-13 21:55:00,101388.43,WSW,Clear,,KO54 132155Z AUTO 25003KT 8SM CLR 34/02 A2994 RMK AO1,,2.0,,,2.23,8.0,1.0,31.53,250.0,1.0,93428.7,13.31,1.54,100758.04,34.0,KO54,2244,-122.92230,40.74600
790,2018-08-13 22:15:00,101354.56,SW,Clear,,KO54 132215Z AUTO 23004KT 10SM CLR 34/00 A2993 RMK AO1,,0.0,,,0.24,10.0,1.0,31.29,230.0,1.0,93397.49,11.52,2.06,100724.42,34.0,KO54,2244,-122.92230,40.74600
791,2018-08-13 22:35:00,101320.7,NW,Clear,,KO54 132235Z AUTO 32004KT 9SM CLR 35/02 A2992 RMK AO1,,2.0,,,2.25,9.0,1.0,32.37,320.0,1.0,93366.28,12.59,2.06,100666.22,35.0,KO54,2244,-122.92230,40.74600
792,2018-08-13 22:55:00,101286.84,N,Clear,,KO54 132255Z AUTO 01004KT 8SM CLR 35/02 A2991 RMK AO1,,2.0,,,2.25,8.0,1.0,32.37,10.0,1.0,93335.08,12.59,2.06,100632.58,35.0,KO54,2244,-122.92230,40.74600
793,2018-08-13 23:15:00,101252.97,SE,Clear,,KO54 132315Z AUTO 14003KT 5SM CLR 34/03 A2990 RMK AO1,,3.0,,,3.21,5.0,1.0,31.57,140.0,1.0,93303.87,14.29,1.54,100623.39,34.0,KO54,2244,-122.92230,40.74600
794,2018-08-13 23:35:00,101252.97,N,Clear,,KO54 132335Z AUTO 00000KT 6SM CLR 35/04 A2990 RMK AO1,,4.0,,,4.24,6.0,1.0,32.54,0.0,1.0,93303.87,14.51,0.0,100598.89,35.0,KO54,2244,-122.92230,40.74600
795,2018-08-13 23:55:00,101252.97,ESE,Clear,,KO54 132355Z AUTO 11003KT 6SM CLR 35/03 A2990 RMK AO1,,3.0,,,3.24,6.0,1.0,32.48,110.0,1.0,93303.87,13.52,1.54,100598.91,35.0,KO54,2244,-122.92230,40.74600
796,2018-08-14 00:15:00,101219.11,SSW,Clear,,KO54 140015Z AUTO 20003KT 7SM CLR 35/03 A2989 RMK AO1,,3.0,,,3.24,7.0,1.0,32.48,200.0,1.0,93272.67,13.52,1.54,100565.27,35.0,KO54,2244,-122.92230,40.74600
797,2018-08-14 00:35:00,101219.11,SE,Clear,,KO54 140035Z AUTO 13003KT 7SM CLR 34/04 A2989 RMK AO1,,4.0,,,4.2,7.0,1.0,31.62,130.0,1.0,93272.67,15.33,1.54,100589.72,34.0,KO54,2244,-122.92230,40.74600
798,2018-08-14 00:55:00,101252.97,SE,Clear,,KO54 140055Z AUTO 13003KT 8SM CLR 34/04 A2990 RMK AO1,,4.0,,,4.2,8.0,1.0,31.62,130.0,1.0,93303.87,15.33,1.54,100623.37,34.0,KO54,2244,-122.92230,40.74600
799,2018-08-14 01:15:00,101252.97,SE,Clear,,KO54 140115Z AUTO 14005KT 8SM CLR 33/04 A2990 RMK AO1,,4.0,,,4.17,8.0,1.0,30.73,140.0,1.0,93303.87,16.21,2.57,100648.01,33.0,KO54,2244,-122.92230,40.74600
800,2018-08-14 01:35:00,101252.97,N,Clear,,KO54 140135Z AUTO 00000KT 9SM CLR 33/04 A2990 RMK AO1,,4.0,,,4.17,9.0,1.0,30.73,0.0,1.0,93303.87,16.21,0.0,100648.01,33.0,KO54,2244,-122.92230,40.74600
801,2018-08-14 01:55:00,101252.97,N,Clear,,KO54 140155Z AUTO 00000KT 10SM CLR 32/04 A2990 RMK AO1,,4.0,,,4.15,10.0,1.0,29.85,0.0,1.0,93303.87,17.15,0.0,100672.83,32.0,KO54,2244,-122.92230,40.74600
802,2018-08-14 02:15:00,101252.97,N,Clear,,KO54 140215Z AUTO 00000KT 10SM CLR 31/04 A2990 RMK AO1,,4.0,,,4.13,10.0,1.0,29.01,0.0,1.0,93303.87,18.15,0.0,100697.81,31.0,KO54,2244,-122.92230,40.74600
803,2018-08-14 02:35:00,101252.97,NNE,Clear,,KO54 140235Z AUTO 02003KT 10SM CLR 30/06 A2990 RMK AO1,,6.0,,,6.09,10.0,1.0,28.31,20.0,1.0,93303.87,22.09,1.54,100722.91,30.0,KO54,2244,-122.92230,40.74600
804,2018-08-14 02:55:00,101286.84,NE,Clear,,KO54 140255Z AUTO 05003KT 10SM CLR 27/07 A2991 RMK AO1,,7.0,,,7.03,10.0,1.0,26.49,50.0,1.0,93335.08,28.15,1.54,100833.08,27.0,KO54,2244,-122.92230,40.74600
805,2018-08-14 03:15:00,101286.84,NNE,Clear,,KO54 140315Z AUTO 03004KT 10SM CLR 26/06 A2991 RMK AO1,,6.0,,,6.01,10.0,1.0,,30.0,1.0,93335.08,27.87,2.06,100858.96,26.0,KO54,2244,-122.92230,40.74600
806,2018-08-14 03:35:00,101286.84,N,Clear,,KO54 140335Z AUTO 00000KT 10SM CLR 24/05 A2991 RMK AO1,,5.0,,,4.99,10.0,1.0,,0.0,1.0,93335.08,29.29,0.0,100911.24,24.0,KO54,2244,-122.92230,40.74600
807,2018-08-14 03:55:00,101320.7,N,Clear,,KO54 140355Z AUTO 00000KT 10SM CLR 23/06 A2992 RMK AO1,,6.0,,,5.98,10.0,1.0,,0.0,1.0,93366.28,33.34,0.0,100971.35,23.0,KO54,2244,-122.92230,40.74600
808,2018-08-14 04:15:00,101354.56,N,Clear,,KO54 140415Z AUTO 00000KT 10SM CLR 22/05 A2993 RMK AO1,,5.0,,,4.97,10.0,1.0,,0.0,1.0,93397.49,33.05,0.0,101031.73,22.0,KO54,2244,-122.92230,40.74600
809,2018-08-14 04:35:00,101388.43,N,Clear,,KO54 140435Z AUTO 36003KT 10SM CLR 22/05 A2994 RMK AO1,,5.0,,,4.97,10.0,1.0,,360.0,1.0,93428.7,33.05,1.54,101065.49,22.0,KO54,2244,-122.92230,40.74600
810,2018-08-14 04:55:00,101388.43,N,Clear,,KO54 140455Z AUTO 00000KT 10SM CLR 20/05 A2994 RMK AO1,,5.0,,,4.95,10.0,1.0,,0.0,1.0,93428.7,37.36,0.0,101119.27,20.0,KO54,2244,-122.92230,40.74600
811,2018-08-14 05:15:00,101422.29,NNE,Clear,,KO54 140515Z AUTO 02003KT 10SM CLR 20/05 A2995 RMK AO1,,5.0,,,4.95,10.0,1.0,,20.0,1.0,93459.9,37.36,1.54,101153.04,20.0,KO54,2244,-122.92230,40.74600
812,2018-08-14 05:35:00,101422.29,NNE,Clear,,KO54 140535Z AUTO 03003KT 10SM CLR 19/04 A2995 RMK AO1,,4.0,,,3.94,10.0,1.0,,30.0,1.0,93459.9,37.07,1.54,101180.25,19.0,KO54,2244,-122.92230,40.74600
813,2018-08-14 05:55:00,101422.29,NNE,Clear,,KO54 140555Z AUTO 03003KT 10SM CLR 18/04 A2995 RMK AO1,,4.0,,,3.93,10.0,1.0,,30.0,1.0,93459.9,39.46,1.54,101207.63,18.0,KO54,2244,-122.92230,40.74600
814,2018-08-14 06:15:00,101422.29,N,Clear,,KO54 140615Z AUTO 00000KT 10SM CLR 18/04 A2995 RMK AO1,,4.0,,,3.93,10.0,1.0,,0.0,1.0,93459.9,39.46,0.0,101207.63,18.0,KO54,2244,-122.92230,40.74600
815,2018-08-14 06:35:00,101456.15,NE,Clear,,KO54 140635Z AUTO 04003KT 10SM CLR 18/04 A2996 RMK AO1,,4.0,,,3.93,10.0,1.0,,40.0,1.0,93491.1,39.46,1.54,101241.42,18.0,KO54,2244,-122.92230,40.74600
816,2018-08-14 06:55:00,101456.15,N,Partly Cloudy,,KO54 140655Z AUTO 00000KT 10SM SCT023 17/05 A2996 RMK AO1,,5.0,,,4.93,10.0,232.0,,0.0,1.0,93491.1,45.07,0.0,101268.97,17.0,KO54,2244,-122.92230,40.74600
817,2018-08-14 07:15:00,101490.02,NNE,Mostly Cloudy,,KO54 140715Z AUTO 03003KT 10SM BKN023 BKN060 17/05 A2997 RMK AO1,701.04,5.0,603.0,,4.93,10.0,233.0,,30.0,1.0,93522.31,45.07,1.54,101302.78,17.0,KO54,2244,-122.92230,40.74600
818,2018-08-14 07:35:00,101490.02,NE,Overcast,,KO54 140735Z AUTO 05003KT 10SM OVC021 16/05 A2997 RMK AO1,640.08,5.0,,,4.93,10.0,214.0,,50.0,1.0,93522.31,48.03,1.54,101330.56,16.0,KO54,2244,-122.92230,40.74600
819,2018-08-14 07:55:00,101490.02,N,Overcast,,KO54 140755Z AUTO 00000KT 10SM OVC021 16/05 A2997 RMK AO1,640.08,5.0,,,4.93,10.0,214.0,,0.0,1.0,93522.31,48.03,0.0,101330.56,16.0,KO54,2244,-122.92230,40.74600
820,2018-08-14 08:15:00,101490.02,N,Overcast,,KO54 140815Z AUTO 00000KT 10SM OVC021 15/05 A2997 RMK AO1,640.08,5.0,,,4.93,10.0,214.0,,0.0,1.0,93522.31,51.21,0.0,101358.55,15.0,KO54,2244,-122.92230,40.74600
821,2018-08-14 08:35:00,101490.02,N,Overcast,,KO54 140835Z AUTO 00000KT 10SM BKN018 OVC036 15/05 A2997 RMK AO1,548.64,5.0,364.0,,4.93,10.0,183.0,,0.0,1.0,93522.31,51.21,0.0,101358.55,15.0,KO54,2244,-122.92230,40.74600
822,2018-08-14 08:55:00,101490.02,N,Overcast,,KO54 140855Z AUTO 00000KT 9SM BKN018 OVC037 14/05 A2997 RMK AO1,548.64,5.0,374.0,,4.93,9.0,183.0,,0.0,1.0,93522.31,54.62,0.0,101386.74,14.0,KO54,2244,-122.92230,40.74600
823,2018-08-14 09:15:00,101490.02,N,Overcast,,KO54 140915Z AUTO 00000KT 9SM OVC018 14/05 A2997 RMK AO1,548.64,5.0,,,4.93,9.0,184.0,,0.0,1.0,93522.31,54.62,0.0,101386.74,14.0,KO54,2244,-122.92230,40.74600
824,2018-08-14 09:35:00,101490.02,N,Overcast,,KO54 140935Z AUTO 00000KT 9SM SCT018 OVC070 14/05 A2997 RMK AO1,2133.6,5.0,704.0,,4.93,9.0,182.0,,0.0,1.0,93522.31,54.62,0.0,101386.74,14.0,KO54,2244,-122.92230,40.74600
825,2018-08-14 09:55:00,101490.02,N,Overcast,,KO54 140955Z AUTO 00000KT 8SM FEW020 BKN029 OVC070 14/05 A2997 RMK AO1,883.92,5.0,293.0,704.0,4.93,8.0,206.0,,0.0,1.0,93522.31,54.62,0.0,101386.74,14.0,KO54,2244,-122.92230,40.74600
826,2018-08-14 10:15:00,101490.02,N,Overcast,,KO54 141015Z AUTO 01003KT 7SM FEW018 OVC029 14/05 A2997 RMK AO1,883.92,5.0,294.0,,4.93,7.0,186.0,,10.0,1.0,93522.31,54.62,1.54,101386.74,14.0,KO54,2244,-122.92230,40.74600
827,2018-08-14 10:35:00,101456.15,N,Overcast,,KO54 141035Z AUTO 00000KT 7SM SCT023 OVC029 13/05 A2996 RMK AO1,883.92,5.0,294.0,,4.93,7.0,232.0,,0.0,1.0,93491.1,58.29,0.0,101381.28,13.0,KO54,2244,-122.92230,40.74600
828,2018-08-14 10:55:00,101456.15,N,Overcast,,KO54 141055Z AUTO 00000KT 7SM OVC021 13/05 A2996 RMK AO1,640.08,5.0,,,4.93,7.0,214.0,,0.0,1.0,93491.1,58.29,0.0,101381.28,13.0,KO54,2244,-122.92230,40.74600
829,2018-08-14 11:15:00,101456.15,N,Overcast,,KO54 141115Z AUTO 00000KT 7SM OVC021 13/05 A2996 RMK AO1,640.08,5.0,,,4.93,7.0,214.0,,0.0,1.0,93491.1,58.29,0.0,101381.28,13.0,KO54,2244,-122.92230,40.74600
830,2018-08-14 11:35:00,101456.15,N,Overcast,,KO54 141135Z AUTO 00000KT 6SM OVC021 13/05 A2996 RMK AO1,640.08,5.0,,,4.93,6.0,214.0,,0.0,1.0,93491.1,58.29,0.0,101381.28,13.0,KO54,2244,-122.92230,40.74600
831,2018-08-14 11:55:00,101456.15,N,Overcast,,KO54 141155Z AUTO 00000KT 7SM OVC021 12/05 A2996 RMK AO1,640.08,5.0,,,4.93,7.0,214.0,,0.0,1.0,93491.1,62.24,0.0,101409.87,12.0,KO54,2244,-122.92230,40.74600
832,2018-08-14 12:15:00,101456.15,N,Overcast,,KO54 141215Z AUTO 00000KT 7SM OVC021 12/05 A2996 RMK AO1,640.08,5.0,,,4.93,7.0,214.0,,0.0,1.0,93491.1,62.24,0.0,101409.87,12.0,KO54,2244,-122.92230,40.74600
833,2018-08-14 12:35:00,101490.02,N,Overcast,,KO54 141235Z AUTO 00000KT 6SM BKN023 BKN028 OVC060 12/05 A2997 RMK AO1,701.04,5.0,283.0,604.0,4.93,6.0,233.0,,0.0,1.0,93522.31,62.24,0.0,101443.72,12.0,KO54,2244,-122.92230,40.74600
834,2018-08-14 12:55:00,101490.02,N,Overcast,,KO54 141255Z AUTO 00000KT 5SM BKN019 OVC028 12/05 A2997 RMK AO1,579.12,5.0,284.0,,4.93,5.0,193.0,,0.0,1.0,93522.31,62.24,0.0,101443.72,12.0,KO54,2244,-122.92230,40.74600
835,2018-08-14 13:15:00,101490.02,N,Overcast,,KO54 141315Z AUTO 00000KT 6SM OVC019 11/05 A2997 RMK AO1,579.12,5.0,,,4.94,6.0,194.0,,0.0,1.0,93522.31,66.49,0.0,101472.53,11.0,KO54,2244,-122.92230,40.74600
836,2018-08-14 13:35:00,101490.02,N,Overcast,,KO54 141335Z AUTO 00000KT 4SM OVC019 11/05 A2997 RMK AO1,579.12,5.0,,,4.94,4.0,194.0,,0.0,1.0,93522.31,66.49,0.0,101472.53,11.0,KO54,2244,-122.92230,40.74600
837,2018-08-14 13:55:00,101523.88,N,Overcast,,KO54 141355Z AUTO 00000KT 4SM OVC021 11/05 A2998 RMK AO1,640.08,5.0,,,4.94,4.0,214.0,,0.0,1.0,93553.51,66.49,0.0,101506.38,11.0,KO54,2244,-122.92230,40.74600
838,2018-08-14 14:15:00,101523.88,N,Mostly Cloudy,,KO54 141415Z AUTO 00000KT 4SM BKN021 11/05 A2998 RMK AO1,640.08,5.0,,,4.94,4.0,213.0,,0.0,1.0,93553.51,66.49,0.0,101506.38,11.0,KO54,2244,-122.92230,40.74600
839,2018-08-14 14:35:00,101523.88,N,Mostly Cloudy,,KO54 141435Z AUTO 00000KT 4SM BKN021 12/05 A2998 RMK AO1,640.08,5.0,,,4.93,4.0,213.0,,0.0,1.0,93553.51,62.24,0.0,101477.57,12.0,KO54,2244,-122.92230,40.74600
840,2018-08-14 14:55:00,101557.75,N,Mostly Cloudy,,KO54 141455Z AUTO 00000KT 5SM BKN021 13/05 A2999 RMK AO1,640.08,5.0,,,4.93,5.0,213.0,,0.0,1.0,93584.72,58.29,0.0,101482.8,13.0,KO54,2244,-122.92230,40.74600
841,2018-08-14 15:15:00,101557.75,N,Partly Cloudy,,KO54 141515Z AUTO 00000KT 4SM SCT021 14/06 A2999 RMK AO1,,6.0,,,5.94,4.0,212.0,,0.0,1.0,93584.72,58.55,0.0,101454.37,14.0,KO54,2244,-122.92230,40.74600
842,2018-08-14 15:35:00,101557.75,N,Partly Cloudy,,KO54 141535Z AUTO 00000KT 5SM SCT021 15/06 A2999 RMK AO1,,6.0,,,5.93,5.0,212.0,,0.0,1.0,93584.72,54.89,0.0,101426.16,15.0,KO54,2244,-122.92230,40.74600
843,2018-08-14 15:55:00,101557.75,N,Mostly Clear,,KO54 141555Z AUTO 00000KT 5SM FEW021 16/05 A2999 RMK AO1,,5.0,,,4.93,5.0,216.0,,0.0,1.0,93584.72,48.03,0.0,101398.18,16.0,KO54,2244,-122.92230,40.74600
844,2018-08-14 16:15:00,101557.75,N,Mostly Clear,,KO54 141615Z AUTO 00000KT 5SM FEW019 18/05 A2999 RMK AO1,,5.0,,,4.93,5.0,196.0,,0.0,1.0,93584.72,42.32,0.0,101342.77,18.0,KO54,2244,-122.92230,40.74600
845,2018-08-14 16:35:00,101523.88,N,Clear,,KO54 141635Z AUTO 00000KT 5SM CLR 19/05 A2998 RMK AO1,,5.0,,,4.94,5.0,1.0,,0.0,1.0,93553.51,39.75,0.0,101281.57,19.0,KO54,2244,-122.92230,40.74600
846,2018-08-14 16:55:00,101523.88,S,Clear,,KO54 141655Z AUTO 18003KT 5SM CLR 20/06 A2998 RMK AO1,,6.0,,,5.95,5.0,1.0,,180.0,1.0,93553.51,40.05,1.54,101254.33,20.0,KO54,2244,-122.92230,40.74600
847,2018-08-14 17:15:00,101490.02,N,Clear,,KO54 141715Z AUTO 00000KT 4SM CLR 22/05 A2997 RMK AO1,,5.0,,,4.97,4.0,1.0,,0.0,1.0,93522.31,33.05,0.0,101166.76,22.0,KO54,2244,-122.92230,40.74600
848,2018-08-14 17:35:00,101490.02,N,Clear,,KO54 141735Z AUTO 00000KT 4SM CLR 22/06 A2997 RMK AO1,,6.0,,,5.96,4.0,1.0,,0.0,1.0,93522.31,35.42,0.0,101166.73,22.0,KO54,2244,-122.92230,40.74600
849,2018-08-14 17:55:00,101490.02,S,Clear,,KO54 141755Z AUTO 17003KT 4SM CLR 23/06 A2997 RMK AO1,,6.0,,,5.98,4.0,1.0,,170.0,1.0,93522.31,33.34,1.54,101140.09,23.0,KO54,2244,-122.92230,40.74600
850,2018-08-14 18:15:00,101456.15,N,Clear,,KO54 141815Z AUTO 00000KT 3SM CLR 24/05 A2996 RMK AO1,,5.0,,,4.99,3.0,1.0,,0.0,1.0,93491.1,29.29,0.0,101079.93,24.0,KO54,2244,-122.92230,40.74600
851,2018-08-14 18:35:00,101456.15,N,Clear,,KO54 141835Z AUTO 00000KT 3SM CLR 26/07 A2996 RMK AO1,,7.0,,,7.01,3.0,1.0,,0.0,1.0,93491.1,29.86,0.0,101027.53,26.0,KO54,2244,-122.92230,40.74600
852,2018-08-14 18:55:00,101422.29,N,Clear,,KO54 141855Z AUTO 00000KT 3SM CLR 27/07 A2995 RMK AO1,,7.0,,,7.03,3.0,1.0,26.49,0.0,1.0,93459.9,28.15,0.0,100967.93,27.0,KO54,2244,-122.92230,40.74600
853,2018-08-14 19:15:00,101388.43,N,Clear,,KO54 141915Z AUTO 00000KT 3SM CLR 29/08 A2994 RMK AO1,,8.0,,,8.06,3.0,1.0,27.71,0.0,1.0,93428.7,26.83,0.0,100882.96,29.0,KO54,2244,-122.92230,40.74600
854,2018-08-14 19:35:00,101388.43,NW,Clear,,KO54 141935Z AUTO 32004KT 3SM CLR 30/05 A2994 RMK AO1,,5.0,,,5.1,3.0,1.0,28.26,320.0,1.0,93428.7,20.61,2.06,100857.69,30.0,KO54,2244,-122.92230,40.74600
855,2018-08-14 19:55:00,101354.56,SSW,Clear,,KO54 141955Z AUTO 20004KT 4SM CLR 32/04 A2993 RMK AO1,,4.0,,,4.15,4.0,1.0,29.85,200.0,1.0,93397.49,17.15,2.06,100773.84,32.0,KO54,2244,-122.92230,40.74600
856,2018-08-14 20:15:00,101320.7,NE,Clear,,KO54 142015Z AUTO 04004KT 5SM CLR 33/04 A2992 RMK AO1,,4.0,,,4.17,5.0,1.0,30.73,40.0,1.0,93366.28,16.21,2.06,100715.34,33.0,KO54,2244,-122.92230,40.74600
857,2018-08-14 20:35:00,101320.7,N,Clear,,KO54 142035Z AUTO 36004KT 5SM CLR 33/02 A2992 RMK AO1,,2.0,,,2.19,5.0,1.0,30.65,360.0,1.0,93366.28,14.07,2.06,100715.38,33.0,KO54,2244,-122.92230,40.74600
858,2018-08-14 20:55:00,101286.84,WNW,Clear,,KO54 142055Z AUTO 30004KT 6SM CLR 33/03 A2991 RMK AO1,,3.0,,,3.19,6.0,1.0,30.68,300.0,1.0,93335.08,15.11,2.06,100681.7,33.0,KO54,2244,-122.92230,40.74600
859,2018-08-14 21:15:00,101252.97,N,Clear,,KO54 142115Z AUTO 00000KT 7SM CLR 34/02 A2990 RMK AO1,,2.0,,,2.23,7.0,1.0,31.53,0.0,1.0,93303.87,13.31,0.0,100623.41,34.0,KO54,2244,-122.92230,40.74600
860,2018-08-14 21:35:00,101252.97,S,Clear,,KO54 142135Z AUTO 19005KT 7SM CLR 34/02 A2990 RMK AO1,,2.0,,,2.23,7.0,1.0,31.53,190.0,1.0,93303.87,13.31,2.57,100623.41,34.0,KO54,2244,-122.92230,40.74600
861,2018-08-14 21:55:00,101219.11,NNW,Clear,,KO54 142155Z AUTO 33005KT 8SM CLR 34/01 A2989 RMK AO1,,1.0,,,1.23,8.0,1.0,31.42,330.0,1.0,93272.67,12.38,2.57,100589.78,34.0,KO54,2244,-122.92230,40.74600
862,2018-08-14 22:15:00,101185.24,N,Clear,,KO54 142215Z AUTO 00000KT 7SM CLR 34/02 A2988 RMK AO1,,2.0,,,2.23,7.0,1.0,31.53,0.0,1.0,93241.46,13.31,0.0,100556.11,34.0,KO54,2244,-122.92230,40.74600
863,2018-08-14 22:35:00,101151.38,SSE,Clear,,KO54 142235Z AUTO 15005KT 7SM CLR 35/01 A2987 RMK AO1,,1.0,,,1.27,7.0,1.0,32.21,150.0,1.0,93210.26,11.72,2.57,100498.02,35.0,KO54,2244,-122.92230,40.74600
864,2018-08-14 22:55:00,101151.38,S,Clear,,KO54 142255Z AUTO 18003KT 8SM CLR 35/00 A2987 RMK AO1,,0.0,,,0.28,8.0,1.0,32.07,180.0,1.0,93210.26,10.9,1.54,100498.04,35.0,KO54,2244,-122.92230,40.74600
865,2018-08-14 23:15:00,101117.52,N,Clear,,KO54 142315Z AUTO 00000KT 8SM CLR 35/00 A2986 RMK AO1,,0.0,,,0.28,8.0,1.0,32.07,0.0,1.0,93179.05,10.9,0.0,100464.39,35.0,KO54,2244,-122.92230,40.74600
866,2018-08-14 23:35:00,101117.52,SSE,Clear,,KO54 142335Z AUTO 15005KT 9SM CLR 36/00 A2986 RMK AO1,,0.0,,,0.31,9.0,1.0,32.89,150.0,1.0,93179.05,10.32,2.57,100440.11,36.0,KO54,2244,-122.92230,40.74600
867,2018-08-14 23:55:00,101117.52,N,Clear,,KO54 142355Z AUTO 00000KT 10SM CLR 35/00 A2986 RMK AO1,,0.0,,,0.28,10.0,1.0,32.07,0.0,1.0,93179.05,10.9,0.0,100464.39,35.0,KO54,2244,-122.92230,40.74600
868,2018-08-15 00:15:00,101083.65,N,Clear,,KO54 150015Z AUTO 00000KT 10SM CLR 35/00 A2985 RMK AO1,,0.0,,,0.28,10.0,1.0,32.07,0.0,1.0,93147.84,10.9,0.0,100430.74,35.0,KO54,2244,-122.92230,40.74600
869,2018-08-15 00:35:00,101083.65,N,Clear,,KO54 150035Z AUTO 00000KT 10SM CLR 35/M01 A2985 RMK AO1,,-1.0,,,-0.72,10.0,1.0,31.94,0.0,1.0,93147.84,10.13,0.0,100430.76,35.0,KO54,2244,-122.92230,40.74600
870,2018-08-15 00:55:00,101117.52,SE,Clear,,KO54 150055Z AUTO 14004KT 10SM CLR 34/00 A2986 RMK AO1,,0.0,,,0.24,10.0,1.0,31.29,140.0,1.0,93179.05,11.52,2.06,100488.84,34.0,KO54,2244,-122.92230,40.74600
871,2018-08-15 01:15:00,101117.52,N,Clear,,KO54 150115Z AUTO 00000KT 10SM CLR 34/01 A2986 RMK AO1,,1.0,,,1.23,10.0,1.0,31.42,0.0,1.0,93179.05,12.38,0.0,100488.82,34.0,KO54,2244,-122.92230,40.74600
872,2018-08-15 01:35:00,101117.52,N,Clear,,KO54 150135Z AUTO 00000KT 10SM CLR 33/02 A2986 RMK AO1,,2.0,,,2.19,10.0,1.0,30.65,0.0,1.0,93179.05,14.07,0.0,100513.41,33.0,KO54,2244,-122.92230,40.74600
873,2018-08-15 01:55:00,101117.52,N,Clear,,KO54 150155Z AUTO 00000KT 10SM CLR 33/02 A2986 RMK AO1,,2.0,,,2.19,10.0,1.0,30.65,0.0,1.0,93179.05,14.07,0.0,100513.41,33.0,KO54,2244,-122.92230,40.74600
874,2018-08-15 02:15:00,101117.52,N,Clear,,KO54 150215Z AUTO 00000KT 10SM CLR 32/00 A2986 RMK AO1,,0.0,,,0.19,10.0,1.0,29.75,0.0,1.0,93179.05,12.89,0.0,100538.23,32.0,KO54,2244,-122.92230,40.74600
875,2018-08-15 02:35:00,101151.38,N,Clear,,KO54 150235Z AUTO 35003KT 10SM CLR 30/03 A2987 RMK AO1,,3.0,,,3.11,10.0,1.0,28.18,350.0,1.0,93210.26,17.91,1.54,100621.93,30.0,KO54,2244,-122.92230,40.74600
876,2018-08-15 02:55:00,101185.24,N,Clear,,KO54 150255Z AUTO 00000KT 10SM CLR 28/05 A2988 RMK AO1,,5.0,,,5.06,10.0,1.0,26.83,0.0,1.0,93241.46,23.13,0.0,100706.34,28.0,KO54,2244,-122.92230,40.74600
877,2018-08-15 03:15:00,101185.24,NE,Clear,,KO54 150315Z AUTO 04003KT 10SM CLR 25/05 A2988 RMK AO1,,5.0,,,5.0,10.0,1.0,,40.0,1.0,93241.46,27.59,1.54,100783.83,25.0,KO54,2244,-122.92230,40.74600
878,2018-08-15 03:35:00,101219.11,NNE,Clear,,KO54 150335Z AUTO 03003KT 10SM CLR 25/04 A2989 RMK AO1,,4.0,,,4.01,10.0,1.0,,30.0,1.0,93272.67,25.73,1.54,100817.59,25.0,KO54,2244,-122.92230,40.74600
879,2018-08-15 03:55:00,101252.97,N,Clear,,KO54 150355Z AUTO 00000KT 10SM CLR 23/03 A2990 RMK AO1,,3.0,,,2.98,10.0,1.0,,0.0,1.0,93303.87,27.03,0.0,100903.94,23.0,KO54,2244,-122.92230,40.74600
880,2018-08-15 04:15:00,101252.97,N,Clear,,KO54 150415Z AUTO 00000KT 10SM CLR 22/03 A2990 RMK AO1,,3.0,,,2.97,10.0,1.0,,0.0,1.0,93303.87,28.72,0.0,100930.51,22.0,KO54,2244,-122.92230,40.74600
881,2018-08-15 04:35:00,101286.84,N,Clear,,KO54 150435Z AUTO 00000KT 10SM CLR 22/03 A2991 RMK AO1,,3.0,,,2.97,10.0,1.0,,0.0,1.0,93335.08,28.72,0.0,100964.27,22.0,KO54,2244,-122.92230,40.74600
882,2018-08-15 04:55:00,101286.84,N,Clear,,KO54 150455Z AUTO 00000KT 10SM CLR 21/02 A2991 RMK AO1,,2.0,,,1.96,10.0,1.0,,0.0,1.0,93335.08,28.43,0.0,100991.06,21.0,KO54,2244,-122.92230,40.74600
883,2018-08-15 05:15:00,101320.7,N,Clear,,KO54 150515Z AUTO 00000KT 10SM CLR 20/03 A2992 RMK AO1,,3.0,,,2.94,10.0,1.0,,0.0,1.0,93366.28,32.46,0.0,101051.77,20.0,KO54,2244,-122.92230,40.74600
884,2018-08-15 05:35:00,101320.7,N,Clear,,KO54 150535Z AUTO 00000KT 10SM CLR 20/03 A2992 RMK AO1,,3.0,,,2.94,10.0,1.0,,0.0,1.0,93366.28,32.46,0.0,101051.77,20.0,KO54,2244,-122.92230,40.74600
885,2018-08-15 05:55:00,101320.7,N,Clear,,KO54 150555Z AUTO 00000KT 10SM CLR 19/03 A2992 RMK AO1,,3.0,,,2.94,10.0,1.0,,0.0,1.0,93366.28,34.54,0.0,101078.92,19.0,KO54,2244,-122.92230,40.74600
886,2018-08-15 06:15:00,101320.7,N,Clear,,KO54 150615Z AUTO 00000KT 10SM CLR 18/03 A2992 RMK AO1,,3.0,,,2.93,10.0,1.0,,0.0,1.0,93366.28,36.77,0.0,101106.27,18.0,KO54,2244,-122.92230,40.74600
887,2018-08-15 06:35:00,101354.56,NNE,Clear,,KO54 150635Z AUTO 02004KT 10SM CLR 19/03 A2993 RMK AO1,,3.0,,,2.94,10.0,1.0,,20.0,1.0,93397.49,34.54,2.06,101112.71,19.0,KO54,2244,-122.92230,40.74600
888,2018-08-15 06:55:00,101354.56,N,Mostly Clear,,KO54 150655Z AUTO 00000KT 10SM FEW090 18/03 A2993 RMK AO1,,3.0,,,2.93,10.0,906.0,,0.0,1.0,93397.49,36.77,0.0,101140.07,18.0,KO54,2244,-122.92230,40.74600
889,2018-08-15 07:15:00,101354.56,N,Partly Cloudy,,KO54 150715Z AUTO 00000KT 10SM SCT090 17/04 A2993 RMK AO1,,4.0,,,3.93,10.0,902.0,,0.0,1.0,93397.49,42.03,0.0,101167.6,17.0,KO54,2244,-122.92230,40.74600
890,2018-08-15 07:35:00,101388.43,N,Mostly Cloudy,,KO54 150735Z AUTO 00000KT 10SM BKN090 18/04 A2994 RMK AO1,2743.2,4.0,,,3.93,10.0,903.0,,0.0,1.0,93428.7,39.46,0.0,101173.84,18.0,KO54,2244,-122.92230,40.74600
891,2018-08-15 07:55:00,101388.43,N,Overcast,,KO54 150755Z AUTO 00000KT 10SM SCT015 OVC090 16/03 A2994 RMK AO1,2743.2,3.0,904.0,,2.92,10.0,152.0,,0.0,1.0,93428.7,41.73,0.0,101229.19,16.0,KO54,2244,-122.92230,40.74600
892,2018-08-15 08:15:00,101388.43,N,Overcast,,KO54 150815Z AUTO 00000KT 10SM BKN017 OVC080 16/04 A2994 RMK AO1,518.16,4.0,804.0,,3.92,10.0,173.0,,0.0,1.0,93428.7,44.78,0.0,101229.16,16.0,KO54,2244,-122.92230,40.74600
893,2018-08-15 08:35:00,101388.43,N,Mostly Cloudy,,KO54 150835Z AUTO 00000KT 10SM BKN019 BKN080 15/04 A2994 RMK AO1,579.12,4.0,803.0,,3.92,10.0,193.0,,0.0,1.0,93428.7,47.75,0.0,101257.12,15.0,KO54,2244,-122.92230,40.74600
894,2018-08-15 08:55:00,101388.43,N,Mostly Cloudy,,KO54 150855Z AUTO 00000KT 10SM FEW021 BKN080 15/04 A2994 RMK AO1,2438.4,4.0,803.0,,3.92,10.0,216.0,,0.0,1.0,93428.7,47.75,0.0,101257.12,15.0,KO54,2244,-122.92230,40.74600
895,2018-08-15 09:15:00,101422.29,N,Overcast,,KO54 150915Z AUTO 00000KT 10SM SCT027 OVC080 15/04 A2995 RMK AO1,2438.4,4.0,804.0,,3.92,10.0,272.0,,0.0,1.0,93459.9,47.75,0.0,101290.94,15.0,KO54,2244,-122.92230,40.74600
896,2018-08-15 09:35:00,101388.43,N,Overcast,,KO54 150935Z AUTO 00000KT 10SM OVC024 15/04 A2994 RMK AO1,731.52,4.0,,,3.92,10.0,244.0,,0.0,1.0,93428.7,47.75,0.0,101257.12,15.0,KO54,2244,-122.92230,40.74600
897,2018-08-15 09:55:00,101422.29,N,Overcast,,KO54 150955Z AUTO 00000KT 10SM OVC021 14/04 A2995 RMK AO1,640.08,4.0,,,3.92,10.0,214.0,,0.0,1.0,93459.9,50.93,0.0,101319.1,14.0,KO54,2244,-122.92230,40.74600
898,2018-08-15 10:15:00,101422.29,N,Overcast,,KO54 151015Z AUTO 00000KT 10SM OVC023 14/04 A2995 RMK AO1,701.04,4.0,,,3.92,10.0,234.0,,0.0,1.0,93459.9,50.93,0.0,101319.1,14.0,KO54,2244,-122.92230,40.74600
899,2018-08-15 10:35:00,101422.29,N,Overcast,,KO54 151035Z AUTO 00000KT 10SM SCT019 OVC025 14/04 A2995 RMK AO1,762.0,4.0,254.0,,3.92,10.0,192.0,,0.0,1.0,93459.9,50.93,0.0,101319.1,14.0,KO54,2244,-122.92230,40.74600
900,2018-08-15 10:55:00,101422.29,N,Overcast,,KO54 151055Z AUTO 00000KT 10SM SCT014 BKN019 OVC029 14/04 A2995 RMK AO1,579.12,4.0,193.0,294.0,3.92,10.0,142.0,,0.0,1.0,93459.9,50.93,0.0,101319.1,14.0,KO54,2244,-122.92230,40.74600
901,2018-08-15 11:15:00,101422.29,N,Overcast,,KO54 151115Z AUTO 00000KT 9SM FEW014 OVC029 13/04 A2995 RMK AO1,883.92,4.0,294.0,,3.92,9.0,146.0,,0.0,1.0,93459.9,54.35,0.0,101347.48,13.0,KO54,2244,-122.92230,40.74600
902,2018-08-15 11:35:00,101422.29,N,Overcast,,KO54 151135Z AUTO 00000KT 8SM SCT014 OVC029 13/04 A2995 RMK AO1,883.92,4.0,294.0,,3.92,8.0,142.0,,0.0,1.0,93459.9,54.35,0.0,101347.48,13.0,KO54,2244,-122.92230,40.74600
903,2018-08-15 11:55:00,101456.15,N,Overcast,,KO54 151155Z AUTO 00000KT 8SM BKN014 OVC029 13/04 A2996 RMK AO1,426.72,4.0,294.0,,3.92,8.0,143.0,,0.0,1.0,93491.1,54.35,0.0,101381.31,13.0,KO54,2244,-122.92230,40.74600
904,2018-08-15 12:15:00,101456.15,N,Overcast,,KO54 151215Z AUTO 00000KT 8SM FEW014 OVC029 13/04 A2996 RMK AO1,883.92,4.0,294.0,,3.92,8.0,146.0,,0.0,1.0,93491.1,54.35,0.0,101381.31,13.0,KO54,2244,-122.92230,40.74600
905,2018-08-15 12:35:00,101456.15,N,Overcast,,KO54 151235Z AUTO 00000KT 7SM SCT021 OVC029 12/04 A2996 RMK AO1,883.92,4.0,294.0,,3.92,7.0,212.0,,0.0,1.0,93491.1,58.03,0.0,101409.9,12.0,KO54,2244,-122.92230,40.74600
906,2018-08-15 12:55:00,101456.15,N,Overcast,,KO54 151255Z AUTO 00000KT 7SM BKN017 BKN021 OVC029 12/04 A2996 RMK AO1,518.16,4.0,213.0,294.0,3.92,7.0,173.0,,0.0,1.0,93491.1,58.03,0.0,101409.9,12.0,KO54,2244,-122.92230,40.74600
907,2018-08-15 13:15:00,101490.02,N,Overcast,,KO54 151315Z AUTO 00000KT 8SM BKN017 OVC029 12/04 A2997 RMK AO1,518.16,4.0,294.0,,3.92,8.0,173.0,,0.0,1.0,93522.31,58.03,0.0,101443.75,12.0,KO54,2244,-122.92230,40.74600
908,2018-08-15 13:35:00,101490.02,N,Overcast,,KO54 151335Z AUTO 00000KT 6SM OVC017 12/04 A2997 RMK AO1,518.16,4.0,,,3.92,6.0,174.0,,0.0,1.0,93522.31,58.03,0.0,101443.75,12.0,KO54,2244,-122.92230,40.74600
909,2018-08-15 13:55:00,101523.88,N,Overcast,,KO54 151355Z AUTO 00000KT 6SM OVC017 12/04 A2998 RMK AO1,518.16,4.0,,,3.92,6.0,174.0,,0.0,1.0,93553.51,58.03,0.0,101477.59,12.0,KO54,2244,-122.92230,40.74600
910,2018-08-15 14:15:00,101523.88,N,Overcast,,KO54 151415Z AUTO 00000KT 7SM OVC019 12/04 A2998 RMK AO1,579.12,4.0,,,3.92,7.0,194.0,,0.0,1.0,93553.51,58.03,0.0,101477.59,12.0,KO54,2244,-122.92230,40.74600
911,2018-08-15 14:35:00,101557.75,N,Mostly Cloudy,,KO54 151435Z AUTO 00000KT 6SM BKN019 12/04 A2999 RMK AO1,579.12,4.0,,,3.92,6.0,193.0,,0.0,1.0,93584.72,58.03,0.0,101511.45,12.0,KO54,2244,-122.92230,40.74600
912,2018-08-15 14:55:00,101557.75,N,Partly Cloudy,,KO54 151455Z AUTO 00000KT 5SM SCT021 14/05 A2999 RMK AO1,,5.0,,,4.93,5.0,212.0,,0.0,1.0,93584.72,54.62,0.0,101454.4,14.0,KO54,2244,-122.92230,40.74600
913,2018-08-15 15:15:00,101591.61,N,Mostly Clear,,KO54 151515Z AUTO 00000KT 6SM FEW021 14/05 A3000 RMK AO1,,5.0,,,4.93,6.0,216.0,,0.0,1.0,93615.92,54.62,0.0,101488.22,14.0,KO54,2244,-122.92230,40.74600
914,2018-08-15 15:35:00,101591.61,N,Mostly Cloudy,,KO54 151535Z AUTO 00000KT 7SM SCT022 BKN027 16/05 A3000 RMK AO1,822.96,5.0,273.0,,4.93,7.0,222.0,,0.0,1.0,93615.92,48.03,0.0,101431.99,16.0,KO54,2244,-122.92230,40.74600
915,2018-08-15 15:55:00,101591.61,N,Overcast,,KO54 151555Z AUTO 00000KT 7SM OVC022 17/04 A3000 RMK AO1,670.56,4.0,,,3.93,7.0,224.0,,0.0,1.0,93615.92,42.03,0.0,101404.2,17.0,KO54,2244,-122.92230,40.74600
916,2018-08-15 16:15:00,101591.61,N,Mostly Cloudy,,KO54 151615Z AUTO 00000KT 8SM BKN022 18/05 A3000 RMK AO1,670.56,5.0,,,4.93,8.0,223.0,,0.0,1.0,93615.92,42.32,0.0,101376.56,18.0,KO54,2244,-122.92230,40.74600
917,2018-08-15 16:35:00,101591.61,N,Mostly Cloudy,,KO54 151635Z AUTO 00000KT 9SM BKN022 19/04 A3000 RMK AO1,670.56,4.0,,,3.94,9.0,223.0,,0.0,1.0,93615.92,37.07,0.0,101349.16,19.0,KO54,2244,-122.92230,40.74600
918,2018-08-15 16:55:00,101591.61,N,Partly Cloudy,,KO54 151655Z AUTO 00000KT 8SM SCT020 20/03 A3000 RMK AO1,,3.0,,,2.94,8.0,202.0,,0.0,1.0,93615.92,32.46,0.0,101321.96,20.0,KO54,2244,-122.92230,40.74600
919,2018-08-15 17:15:00,101591.61,S,Mostly Clear,,KO54 151715Z AUTO 18003KT 5SM FEW020 22/04 A3000 RMK AO1,,4.0,,,3.97,5.0,206.0,,180.0,1.0,93615.92,30.82,1.54,101268.04,22.0,KO54,2244,-122.92230,40.74600
920,2018-08-15 17:35:00,101557.75,SSW,Clear,,KO54 151735Z AUTO 21003KT 5SM CLR 22/04 A2999 RMK AO1,,4.0,,,3.97,5.0,1.0,,210.0,1.0,93584.72,30.82,1.54,101234.29,22.0,KO54,2244,-122.92230,40.74600
921,2018-08-15 17:55:00,101557.75,N,Clear,,KO54 151755Z AUTO 00000KT 5SM CLR 24/05 A2999 RMK AO1,,5.0,,,4.99,5.0,1.0,,0.0,1.0,93584.72,29.29,0.0,101181.15,24.0,KO54,2244,-122.92230,40.74600
922,2018-08-15 18:15:00,101557.75,N,Clear,,KO54 151815Z AUTO 00000KT 4SM CLR 25/05 A2999 RMK AO1,,5.0,,,5.0,4.0,1.0,,0.0,1.0,93584.72,27.59,0.0,101154.86,25.0,KO54,2244,-122.92230,40.74600
923,2018-08-15 18:35:00,101523.88,SSW,Clear,,KO54 151835Z AUTO 21003KT 3SM CLR 26/05 A2998 RMK AO1,,5.0,,,5.02,3.0,1.0,,210.0,1.0,93553.51,26.0,1.54,101095.03,26.0,KO54,2244,-122.92230,40.74600
924,2018-08-15 18:55:00,101490.02,SSW,Clear,,KO54 151855Z AUTO 20003KT 3SM CLR 28/05 A2997 RMK AO1,,5.0,,,5.06,3.0,1.0,26.83,200.0,1.0,93522.31,23.13,1.54,101009.68,28.0,KO54,2244,-122.92230,40.74600
925,2018-08-15 19:15:00,101490.02,SSW,Clear,,KO54 151915Z AUTO 21003KT 3SM CLR 29/05 A2997 RMK AO1,,5.0,,,5.08,3.0,1.0,27.51,210.0,1.0,93522.31,21.83,1.54,100984.12,29.0,KO54,2244,-122.92230,40.74600
926,2018-08-15 19:35:00,101456.15,SSW,Clear,,KO54 151935Z AUTO 21005KT 3SM CLR 30/05 A2996 RMK AO1,,5.0,,,5.1,3.0,1.0,28.26,210.0,1.0,93491.1,20.61,2.57,100925.05,30.0,KO54,2244,-122.92230,40.74600
927,2018-08-15 19:55:00,101456.15,NNW,Clear,,KO54 151955Z AUTO 34003KT 3SM CLR 31/04 A2996 RMK AO1,,4.0,,,4.13,3.0,1.0,29.01,340.0,1.0,93491.1,18.15,1.54,100899.87,31.0,KO54,2244,-122.92230,40.74600
928,2018-08-15 20:15:00,101422.29,NNE,Clear,,KO54 152015Z AUTO 02005KT 3SM CLR 32/05 A2995 RMK AO1,,5.0,,,5.14,3.0,1.0,29.9,20.0,1.0,93459.9,18.39,2.57,100841.15,32.0,KO54,2244,-122.92230,40.74600
929,2018-08-15 20:35:00,101388.43,N,Clear,,KO54 152035Z AUTO 01007KT 4SM CLR 33/04 A2994 RMK AO1,,4.0,,,4.17,4.0,1.0,30.73,10.0,1.0,93428.7,16.21,3.6,100782.67,33.0,KO54,2244,-122.92230,40.74600
930,2018-08-15 20:55:00,101388.43,S,Clear,,KO54 152055Z AUTO 19005KT 3SM CLR 34/05 A2994 RMK AO1,,5.0,,,5.19,3.0,1.0,31.69,190.0,1.0,93428.7,16.44,2.57,100757.97,34.0,KO54,2244,-122.92230,40.74600
931,2018-08-15 21:15:00,101354.56,N,Clear,,KO54 152115Z AUTO 00000KT 4SM CLR 33/04 A2993 RMK AO1,,4.0,,,4.17,4.0,1.0,30.73,0.0,1.0,93397.49,16.21,0.0,100749.0,33.0,KO54,2244,-122.92230,40.74600
932,2018-08-15 21:35:00,101354.56,S,Clear,,KO54 152135Z AUTO 19003KT 4SM CLR 33/05 A2993 RMK AO1,,5.0,,,5.17,4.0,1.0,30.78,190.0,1.0,93397.49,17.39,1.54,100748.98,33.0,KO54,2244,-122.92230,40.74600
933,2018-08-15 21:55:00,101354.56,ENE,Clear,,KO54 152155Z AUTO 07005KT 5SM CLR 33/04 A2993 RMK AO1,,4.0,,,4.17,5.0,1.0,30.73,70.0,1.0,93397.49,16.21,2.57,100749.0,33.0,KO54,2244,-122.92230,40.74600
934,2018-08-15 22:15:00,101320.7,N,Clear,,KO54 152215Z AUTO 01004KT 8SM CLR 34/04 A2992 RMK AO1,,4.0,,,4.2,8.0,1.0,31.62,10.0,1.0,93366.28,15.33,2.06,100690.67,34.0,KO54,2244,-122.92230,40.74600
935,2018-08-15 22:35:00,101286.84,NNE,Clear,,KO54 152235Z AUTO 02005KT 10SM CLR 35/04 A2991 RMK AO1,,4.0,,,4.24,10.0,1.0,32.54,20.0,1.0,93335.08,14.51,2.57,100632.54,35.0,KO54,2244,-122.92230,40.74600
936,2018-08-15 22:55:00,101286.84,N,Clear,,KO54 152255Z AUTO 00000KT 10SM CLR 35/03 A2991 RMK AO1,,3.0,,,3.24,10.0,1.0,32.48,0.0,1.0,93335.08,13.52,0.0,100632.56,35.0,KO54,2244,-122.92230,40.74600
937,2018-08-15 23:15:00,101252.97,SE,Clear,,KO54 152315Z AUTO 13003KT 10SM CLR 35/03 A2990 RMK AO1,,3.0,,,3.24,10.0,1.0,32.48,130.0,1.0,93303.87,13.52,1.54,100598.91,35.0,KO54,2244,-122.92230,40.74600
938,2018-08-15 23:35:00,101252.97,SSE,Clear,,KO54 152335Z AUTO 16004KT 10SM CLR 35/03 A2990 RMK AO1,,3.0,,,3.24,10.0,1.0,32.48,160.0,1.0,93303.87,13.52,2.06,100598.91,35.0,KO54,2244,-122.92230,40.74600
939,2018-08-15 23:55:00,101252.97,N,Clear,,KO54 152355Z AUTO 00000KT 10SM CLR 35/02 A2990 RMK AO1,,2.0,,,2.25,10.0,1.0,32.37,0.0,1.0,93303.87,12.59,0.0,100598.93,35.0,KO54,2244,-122.92230,40.74600
940,2018-08-16 00:15:00,101252.97,SE,Clear,,KO54 160015Z AUTO 13004KT 10SM CLR 35/02 A2990 RMK AO1,,2.0,,,2.25,10.0,1.0,32.37,130.0,1.0,93303.87,12.59,2.06,100598.93,35.0,KO54,2244,-122.92230,40.74600
941,2018-08-16 00:35:00,101252.97,SSE,Clear,,KO54 160035Z AUTO 15005KT 10SM CLR 35/02 A2990 RMK AO1,,2.0,,,2.25,10.0,1.0,32.37,150.0,1.0,93303.87,12.59,2.57,100598.93,35.0,KO54,2244,-122.92230,40.74600
942,2018-08-16 00:55:00,101252.97,ESE,Clear,,KO54 160055Z AUTO 11003KT 10SM CLR 34/02 A2990 RMK AO1,,2.0,,,2.23,10.0,1.0,31.53,110.0,1.0,93303.87,13.31,1.54,100623.41,34.0,KO54,2244,-122.92230,40.74600
943,2018-08-16 01:15:00,101252.97,SE,Clear,,KO54 160115Z AUTO 14003KT 10SM CLR 34/02 A2990 RMK AO1,,2.0,,,2.23,10.0,1.0,31.53,140.0,1.0,93303.87,13.31,1.54,100623.41,34.0,KO54,2244,-122.92230,40.74600
944,2018-08-16 01:35:00,101252.97,N,Clear,,KO54 160135Z AUTO 00000KT 10SM CLR 33/02 A2990 RMK AO1,,2.0,,,2.19,10.0,1.0,30.65,0.0,1.0,93303.87,14.07,0.0,100648.06,33.0,KO54,2244,-122.92230,40.74600
945,2018-08-16 01:55:00,101252.97,N,Clear,,KO54 160155Z AUTO 00000KT 10SM CLR 32/02 A2990 RMK AO1,,2.0,,,2.16,10.0,1.0,29.79,0.0,1.0,93303.87,14.88,0.0,100672.87,32.0,KO54,2244,-122.92230,40.74600
946,2018-08-16 02:15:00,101286.84,S,Clear,,KO54 160215Z AUTO 17003KT 10SM CLR 32/00 A2991 RMK AO1,,0.0,,,0.19,10.0,1.0,29.75,170.0,1.0,93335.08,12.89,1.54,100706.58,32.0,KO54,2244,-122.92230,40.74600
947,2018-08-16 02:35:00,101320.7,N,Clear,,KO54 160235Z AUTO 00000KT 10SM CLR 30/01 A2992 RMK AO1,,1.0,,,1.12,10.0,1.0,28.15,0.0,1.0,93366.28,15.52,0.0,100790.39,30.0,KO54,2244,-122.92230,40.74600
948,2018-08-16 02:55:00,101320.7,NE,Clear,,KO54 160255Z AUTO 04003KT 10SM CLR 29/03 A2992 RMK AO1,,3.0,,,3.09,10.0,1.0,27.44,40.0,1.0,93366.28,18.97,1.54,100815.69,29.0,KO54,2244,-122.92230,40.74600
949,2018-08-16 03:15:00,101354.56,NE,Clear,,KO54 160315Z AUTO 04003KT 10SM CLR 26/05 A2993 RMK AO1,,5.0,,,5.02,10.0,1.0,,40.0,1.0,93397.49,26.0,1.54,100926.43,26.0,KO54,2244,-122.92230,40.74600
950,2018-08-16 03:35:00,101388.43,NE,Clear,,KO54 160335Z AUTO 05003KT 10SM CLR 24/04 A2994 RMK AO1,,4.0,,,3.99,10.0,1.0,,50.0,1.0,93428.7,27.31,1.54,101012.49,24.0,KO54,2244,-122.92230,40.74600
951,2018-08-16 03:55:00,101422.29,N,Clear,,KO54 160355Z AUTO 00000KT 10SM CLR 23/03 A2995 RMK AO1,,3.0,,,2.98,10.0,1.0,,0.0,1.0,93459.9,27.03,0.0,101072.68,23.0,KO54,2244,-122.92230,40.74600
952,2018-08-16 04:15:00,101456.15,N,Clear,,KO54 160415Z AUTO 00000KT 10SM CLR 22/03 A2996 RMK AO1,,3.0,,,2.97,10.0,1.0,,0.0,1.0,93491.1,28.72,0.0,101133.04,22.0,KO54,2244,-122.92230,40.74600
953,2018-08-16 04:35:00,101456.15,N,Clear,,KO54 160435Z AUTO 00000KT 10SM CLR 21/04 A2996 RMK AO1,,4.0,,,3.96,10.0,1.0,,0.0,1.0,93491.1,32.76,0.0,101159.83,21.0,KO54,2244,-122.92230,40.74600
954,2018-08-16 04:55:00,101490.02,N,Clear,,KO54 160455Z AUTO 00000KT 10SM CLR 20/04 A2997 RMK AO1,,4.0,,,3.95,10.0,1.0,,0.0,1.0,93522.31,34.84,0.0,101220.62,20.0,KO54,2244,-122.92230,40.74600
955,2018-08-16 05:15:00,101523.88,N,Clear,,KO54 160515Z AUTO 00000KT 10SM CLR 20/04 A2998 RMK AO1,,4.0,,,3.95,10.0,1.0,,0.0,1.0,93553.51,34.84,0.0,101254.38,20.0,KO54,2244,-122.92230,40.74600
956,2018-08-16 05:35:00,101523.88,N,Clear,,KO54 160535Z AUTO 00000KT 10SM CLR 20/04 A2998 RMK AO1,,4.0,,,3.95,10.0,1.0,,0.0,1.0,93553.51,34.84,0.0,101254.38,20.0,KO54,2244,-122.92230,40.74600
957,2018-08-16 05:55:00,101523.88,NNE,Clear,,KO54 160555Z AUTO 02003KT 10SM CLR 19/04 A2998 RMK AO1,,4.0,,,3.94,10.0,1.0,,20.0,1.0,93553.51,37.07,1.54,101281.6,19.0,KO54,2244,-122.92230,40.74600
958,2018-08-16 06:15:00,101557.75,N,Clear,,KO54 160615Z AUTO 00000KT 10SM CLR 19/03 A2999 RMK AO1,,3.0,,,2.94,10.0,1.0,,0.0,1.0,93584.72,34.54,0.0,101315.41,19.0,KO54,2244,-122.92230,40.74600
959,2018-08-16 06:35:00,101557.75,N,Mostly Clear,,KO54 160635Z AUTO 00000KT 10SM FEW080 17/04 A2999 RMK AO1,,4.0,,,3.93,10.0,806.0,,0.0,1.0,93584.72,42.03,0.0,101370.41,17.0,KO54,2244,-122.92230,40.74600
960,2018-08-16 06:55:00,101557.75,N,Mostly Cloudy,,KO54 160655Z AUTO 00000KT 10SM FEW080 BKN090 17/04 A2999 RMK AO1,2743.2,4.0,903.0,,3.93,10.0,806.0,,0.0,1.0,93584.72,42.03,0.0,101370.41,17.0,KO54,2244,-122.92230,40.74600
961,2018-08-16 07:15:00,101591.61,N,Overcast,,KO54 160715Z AUTO 00000KT 10SM OVC090 17/04 A3000 RMK AO1,2743.2,4.0,,,3.93,10.0,904.0,,0.0,1.0,93615.92,42.03,0.0,101404.2,17.0,KO54,2244,-122.92230,40.74600
962,2018-08-16 07:35:00,101591.61,N,Overcast,,KO54 160735Z AUTO 01003KT 10SM OVC090 16/04 A3000 RMK AO1,2743.2,4.0,,,3.92,10.0,904.0,,10.0,1.0,93615.92,44.78,1.54,101432.02,16.0,KO54,2244,-122.92230,40.74600
963,2018-08-16 07:55:00,101625.47,N,Overcast,,KO54 160755Z AUTO 00000KT 10SM OVC080 16/04 A3001 RMK AO1,2438.4,4.0,,,3.92,10.0,804.0,,0.0,1.0,93647.13,44.78,0.0,101465.83,16.0,KO54,2244,-122.92230,40.74600
964,2018-08-16 08:15:00,101625.47,NNE,Overcast,,KO54 160815Z AUTO 02004KT 10SM BKN070 OVC080 16/04 A3001 RMK AO1,2133.6,4.0,804.0,,3.92,10.0,703.0,,20.0,1.0,93647.13,44.78,2.06,101465.83,16.0,KO54,2244,-122.92230,40.74600
965,2018-08-16 08:35:00,101625.47,N,Overcast,,KO54 160835Z AUTO 00000KT 10SM OVC060 15/04 A3001 RMK AO1,1828.8,4.0,,,3.92,10.0,604.0,,0.0,1.0,93647.13,47.75,0.0,101493.85,15.0,KO54,2244,-122.92230,40.74600
966,2018-08-16 08:55:00,101625.47,N,Mostly Cloudy,,KO54 160855Z AUTO 36003KT 10SM FEW013 SCT021 BKN060 15/04 A3001 RMK AO1,1828.8,4.0,212.0,603.0,3.92,10.0,136.0,,360.0,1.0,93647.13,47.75,1.54,101493.85,15.0,KO54,2244,-122.92230,40.74600
967,2018-08-16 09:15:00,101659.34,N,Mostly Cloudy,,KO54 160915Z AUTO 00000KT 10SM SCT015 BKN020 BKN050 15/04 A3002 RMK AO1,609.6,4.0,203.0,503.0,3.92,10.0,152.0,,0.0,1.0,93678.34,47.75,0.0,101527.68,15.0,KO54,2244,-122.92230,40.74600
968,2018-08-16 09:35:00,101659.34,N,Mostly Cloudy,,KO54 160935Z AUTO 00000KT 10SM BKN015 BKN020 BKN050 14/04 A3002 RMK AO1,457.2,4.0,203.0,503.0,3.92,10.0,153.0,,0.0,1.0,93678.34,50.93,0.0,101555.91,14.0,KO54,2244,-122.92230,40.74600
969,2018-08-16 09:55:00,101659.34,N,Overcast,,KO54 160955Z AUTO 00000KT 10SM BKN015 OVC050 14/04 A3002 RMK AO1,457.2,4.0,504.0,,3.92,10.0,153.0,,0.0,1.0,93678.34,50.93,0.0,101555.91,14.0,KO54,2244,-122.92230,40.74600
970,2018-08-16 10:15:00,101693.2,N,Mostly Cloudy,,KO54 161015Z AUTO 00000KT 10SM BKN015 BKN050 14/04 A3003 RMK AO1,457.2,4.0,503.0,,3.92,10.0,153.0,,0.0,1.0,93709.54,50.93,0.0,101589.74,14.0,KO54,2244,-122.92230,40.74600
971,2018-08-16 10:35:00,101693.2,N,Partly Cloudy,,KO54 161035Z AUTO 00000KT 10SM FEW015 SCT022 14/04 A3003 RMK AO1,,4.0,222.0,,3.92,10.0,156.0,,0.0,1.0,93709.54,50.93,0.0,101589.74,14.0,KO54,2244,-122.92230,40.74600
972,2018-08-16 10:55:00,101693.2,N,Mostly Cloudy,,KO54 161055Z AUTO 01003KT 10SM BKN015 14/04 A3003 RMK AO1,457.2,4.0,,,3.92,10.0,153.0,,10.0,1.0,93709.54,50.93,1.54,101589.74,14.0,KO54,2244,-122.92230,40.74600
973,2018-08-16 11:15:00,101693.2,N,Overcast,,KO54 161115Z AUTO 00000KT 10SM OVC015 14/04 A3003 RMK AO1,457.2,4.0,,,3.92,10.0,154.0,,0.0,1.0,93709.54,50.93,0.0,101589.74,14.0,KO54,2244,-122.92230,40.74600
974,2018-08-16 11:35:00,101693.2,N,Overcast,,KO54 161135Z AUTO 00000KT 10SM BKN015 OVC021 13/04 A3003 RMK AO1,457.2,4.0,214.0,,3.92,10.0,153.0,,0.0,1.0,93709.54,54.35,0.0,101618.19,13.0,KO54,2244,-122.92230,40.74600
975,2018-08-16 11:55:00,101727.07,N,Overcast,,KO54 161155Z AUTO 00000KT 9SM BKN019 OVC070 13/04 A3004 RMK AO1,579.12,4.0,704.0,,3.92,9.0,193.0,,0.0,1.0,93740.75,54.35,0.0,101652.03,13.0,KO54,2244,-122.92230,40.74600
976,2018-08-16 12:15:00,101727.07,N,Mostly Cloudy,,KO54 161215Z AUTO 00000KT 9SM BKN020 BKN070 13/04 A3004 RMK AO1,609.6,4.0,703.0,,3.92,9.0,203.0,,0.0,1.0,93740.75,54.35,0.0,101652.03,13.0,KO54,2244,-122.92230,40.74600
977,2018-08-16 12:35:00,101760.93,N,Overcast,,KO54 161235Z AUTO 00000KT 7SM OVC018 13/04 A3005 RMK AO1,548.64,4.0,,,3.92,7.0,184.0,,0.0,1.0,93771.95,54.35,0.0,101685.86,13.0,KO54,2244,-122.92230,40.74600
978,2018-08-16 12:55:00,101760.93,N,Overcast,,KO54 161255Z AUTO 00000KT 6SM OVC020 13/04 A3005 RMK AO1,609.6,4.0,,,3.92,6.0,204.0,,0.0,1.0,93771.95,54.35,0.0,101685.86,13.0,KO54,2244,-122.92230,40.74600
979,2018-08-16 13:15:00,101760.93,N,Overcast,,KO54 161315Z AUTO 00000KT 7SM OVC018 12/04 A3005 RMK AO1,548.64,4.0,,,3.92,7.0,184.0,,0.0,1.0,93771.95,58.03,0.0,101714.54,12.0,KO54,2244,-122.92230,40.74600
980,2018-08-16 13:35:00,101760.93,N,Overcast,,KO54 161335Z AUTO 00000KT 5SM OVC018 12/04 A3005 RMK AO1,548.64,4.0,,,3.92,5.0,184.0,,0.0,1.0,93771.95,58.03,0.0,101714.54,12.0,KO54,2244,-122.92230,40.74600
981,2018-08-16 13:55:00,101794.79,NNE,Mostly Cloudy,,KO54 161355Z AUTO 03003KT 5SM BKN020 12/04 A3006 RMK AO1,609.6,4.0,,,3.92,5.0,203.0,,30.0,1.0,93803.15,58.03,1.54,101748.38,12.0,KO54,2244,-122.92230,40.74600
982,2018-08-16 14:15:00,101828.66,N,Partly Cloudy,,KO54 161415Z AUTO 00000KT 5SM SCT022 12/04 A3007 RMK AO1,,4.0,,,3.92,5.0,222.0,,0.0,1.0,93834.36,58.03,0.0,101782.23,12.0,KO54,2244,-122.92230,40.74600
983,2018-08-16 14:35:00,101862.52,N,Partly Cloudy,,KO54 161435Z AUTO 00000KT 5SM SCT022 12/05 A3008 RMK AO1,,5.0,,,4.93,5.0,222.0,,0.0,1.0,93865.57,62.24,0.0,101816.06,12.0,KO54,2244,-122.92230,40.74600
984,2018-08-16 14:55:00,101862.52,N,Mostly Clear,,KO54 161455Z AUTO 00000KT 5SM FEW022 13/05 A3008 RMK AO1,,5.0,,,4.93,5.0,226.0,,0.0,1.0,93865.57,58.29,0.0,101787.36,13.0,KO54,2244,-122.92230,40.74600
985,2018-08-16 15:15:00,101896.38,N,Clear,,KO54 161515Z AUTO 00000KT 5SM CLR 14/05 A3009 RMK AO1,,5.0,,,4.93,5.0,1.0,,0.0,1.0,93896.77,54.62,0.0,101792.69,14.0,KO54,2244,-122.92230,40.74600
986,2018-08-16 15:35:00,101896.38,N,Clear,,KO54 161535Z AUTO 00000KT 7SM CLR 15/05 A3009 RMK AO1,,5.0,,,4.93,7.0,1.0,,0.0,1.0,93896.77,51.21,0.0,101764.39,15.0,KO54,2244,-122.92230,40.74600
987,2018-08-16 15:55:00,101896.38,N,Clear,,KO54 161555Z AUTO 00000KT 7SM CLR 16/05 A3009 RMK AO1,,5.0,,,4.93,7.0,1.0,,0.0,1.0,93896.77,48.03,0.0,101736.29,16.0,KO54,2244,-122.92230,40.74600
988,2018-08-16 16:15:00,101896.38,N,Clear,,KO54 161615Z AUTO 00000KT 8SM CLR 17/05 A3009 RMK AO1,,5.0,,,4.93,8.0,1.0,,0.0,1.0,93896.77,45.07,0.0,101708.39,17.0,KO54,2244,-122.92230,40.74600
989,2018-08-16 16:35:00,101896.38,N,Mostly Clear,,KO54 161635Z AUTO 00000KT 8SM FEW024 19/04 A3009 RMK AO1,,4.0,,,3.94,8.0,246.0,,0.0,1.0,93896.77,37.07,0.0,101653.21,19.0,KO54,2244,-122.92230,40.74600
990,2018-08-16 16:55:00,101896.38,N,Clear,,KO54 161655Z AUTO 00000KT 8SM CLR 20/05 A3009 RMK AO1,,5.0,,,4.95,8.0,1.0,,0.0,1.0,93896.77,37.36,0.0,101625.87,20.0,KO54,2244,-122.92230,40.74600
991,2018-08-16 17:15:00,101896.38,SW,Clear,,KO54 161715Z AUTO 22003KT 3SM CLR 21/05 A3009 RMK AO1,,5.0,,,4.95,3.0,1.0,,220.0,1.0,93896.77,35.13,1.54,101598.76,21.0,KO54,2244,-122.92230,40.74600
992,2018-08-16 17:35:00,101896.38,S,Clear,,KO54 161735Z AUTO 17003KT 3SM CLR 23/06 A3009 RMK AO1,,6.0,,,5.98,3.0,1.0,,170.0,1.0,93896.77,33.34,1.54,101545.06,23.0,KO54,2244,-122.92230,40.74600
993,2018-08-16 17:55:00,101896.38,N,Clear,,KO54 161755Z AUTO 00000KT 3SM CLR 23/06 A3009 RMK AO1,,6.0,,,5.98,3.0,1.0,,0.0,1.0,93896.77,33.34,0.0,101545.06,23.0,KO54,2244,-122.92230,40.74600
994,2018-08-16 18:15:00,101896.38,N,Clear,,KO54 161815Z AUTO 00000KT 3SM CLR 25/06 A3009 RMK AO1,,6.0,,,6.0,3.0,1.0,,0.0,1.0,93896.77,29.57,0.0,101492.13,25.0,KO54,2244,-122.92230,40.74600
995,2018-08-16 18:35:00,101862.52,N,Clear,,KO54 161835Z AUTO 00000KT 3SM CLR 26/07 A3008 RMK AO1,,7.0,,,7.01,3.0,1.0,,0.0,1.0,93865.57,29.86,0.0,101432.19,26.0,KO54,2244,-122.92230,40.74600
996,2018-08-16 18:55:00,101862.52,SSW,Clear,,KO54 161855Z AUTO 20003KT 2 1/2SM CLR 28/07 A3008 RMK AO1,,7.0,,,7.05,2.5,1.0,26.95,200.0,1.0,93865.57,26.56,1.54,101380.36,28.0,KO54,2244,-122.92230,40.74600
997,2018-08-16 19:15:00,101828.66,N,Clear,,KO54 161915Z AUTO 00000KT 2SM CLR 29/06 A3007 RMK AO1,,6.0,,,6.07,2.0,1.0,27.56,0.0,1.0,93834.36,23.4,0.0,101321.04,29.0,KO54,2244,-122.92230,40.74600
998,2018-08-16 19:35:00,101828.66,SW,Clear,,KO54 161935Z AUTO 23003KT 3SM CLR 30/05 A3007 RMK AO1,,5.0,,,5.1,3.0,1.0,28.26,230.0,1.0,93834.36,20.61,1.54,101295.6,30.0,KO54,2244,-122.92230,40.74600
999,2018-08-16 19:55:00,101828.66,N,Clear,,KO54 161955Z AUTO 00000KT 5SM CLR 31/04 A3007 RMK AO1,,4.0,,,4.13,5.0,1.0,29.01,0.0,1.0,93834.36,18.15,0.0,101270.34,31.0,KO54,2244,-122.92230,40.74600
1000,2018-08-16 20:15:00,101794.79,ESE,Clear,,KO54 162015Z AUTO 11003KT 6SM CLR 32/04 A3006 RMK AO1,,4.0,,,4.15,6.0,1.0,29.85,110.0,1.0,93803.15,17.15,1.54,101211.54,32.0,KO54,2244,-122.92230,40.74600
1001,2018-08-16 20:35:00,101794.79,W,Clear,,KO54 162035Z AUTO 27003KT 7SM CLR 32/05 A3006 RMK AO1,,5.0,,,5.14,7.0,1.0,29.9,270.0,1.0,93803.15,18.39,1.54,101211.51,32.0,KO54,2244,-122.92230,40.74600
1002,2018-08-16 20:55:00,101760.93,NE,Clear,,KO54 162055Z AUTO 04004KT 6SM CLR 32/05 A3005 RMK AO1,,5.0,,,5.14,6.0,1.0,29.9,40.0,1.0,93771.95,18.39,2.06,101177.85,32.0,KO54,2244,-122.92230,40.74600
1003,2018-08-16 21:15:00,101760.93,N,Clear,,KO54 162115Z AUTO 36004KT 7SM CLR 33/05 A3005 RMK AO1,,5.0,,,5.17,7.0,1.0,30.78,360.0,1.0,93771.95,17.39,2.06,101152.91,33.0,KO54,2244,-122.92230,40.74600
1004,2018-08-16 21:35:00,101727.07,WNW,Clear,,KO54 162135Z AUTO 29005KT 8SM CLR 33/05 A3004 RMK AO1,,5.0,,,5.17,8.0,1.0,30.78,290.0,1.0,93740.75,17.39,2.57,101119.26,33.0,KO54,2244,-122.92230,40.74600
1005,2018-08-16 21:55:00,101727.07,SE,Clear,,KO54 162155Z AUTO 14004KT 7SM CLR 34/05 A3004 RMK AO1,,5.0,,,5.19,7.0,1.0,31.69,140.0,1.0,93740.75,16.44,2.06,101094.5,34.0,KO54,2244,-122.92230,40.74600
1006,2018-08-16 22:15:00,101693.2,S,Clear,,KO54 162215Z AUTO 17004KT 7SM CLR 34/04 A3003 RMK AO1,,4.0,,,4.2,7.0,1.0,31.62,170.0,1.0,93709.54,15.33,2.06,101060.86,34.0,KO54,2244,-122.92230,40.74600
1007,2018-08-16 22:35:00,101693.2,SW,Clear,,KO54 162235Z AUTO 23005KT 10SM CLR 34/03 A3003 RMK AO1,,3.0,,,3.21,10.0,1.0,31.57,230.0,1.0,93709.54,14.29,2.57,101060.89,34.0,KO54,2244,-122.92230,40.74600
1008,2018-08-16 22:55:00,101659.34,S,Clear,,KO54 162255Z AUTO 18005KT 10SM CLR 34/04 A3002 RMK AO1,,4.0,,,4.2,10.0,1.0,31.62,180.0,1.0,93678.34,15.33,2.57,101027.22,34.0,KO54,2244,-122.92230,40.74600
1009,2018-08-16 23:15:00,101659.34,SSE,Clear,,KO54 162315Z AUTO 15003KT 10SM CLR 35/04 A3002 RMK AO1,,4.0,,,4.24,10.0,1.0,32.54,150.0,1.0,93678.34,14.51,1.54,101002.64,35.0,KO54,2244,-122.92230,40.74600
1010,2018-08-16 23:35:00,101659.34,ESE,Clear,,KO54 162335Z AUTO 12003KT 10SM CLR 34/04 A3002 RMK AO1,,4.0,,,4.2,10.0,1.0,31.62,120.0,1.0,93678.34,15.33,1.54,101027.22,34.0,KO54,2244,-122.92230,40.74600
1011,2018-08-16 23:55:00,101659.34,ESE,Clear,,KO54 162355Z AUTO 12004KT 10SM CLR 34/04 A3002 RMK AO1,,4.0,,,4.2,10.0,1.0,31.62,120.0,1.0,93678.34,15.33,2.06,101027.22,34.0,KO54,2244,-122.92230,40.74600
1012,2018-08-17 00:15:00,101659.34,ESE,Clear,,KO54 170015Z AUTO 11004KT 10SM CLR 34/03 A3002 RMK AO1,,3.0,,,3.21,10.0,1.0,31.57,110.0,1.0,93678.34,14.29,2.06,101027.24,34.0,KO54,2244,-122.92230,40.74600
1013,2018-08-17 00:35:00,101659.34,ENE,Clear,,KO54 170035Z AUTO 07003KT 10SM CLR 34/02 A3002 RMK AO1,,2.0,,,2.23,10.0,1.0,31.53,70.0,1.0,93678.34,13.31,1.54,101027.26,34.0,KO54,2244,-122.92230,40.74600
1014,2018-08-17 00:55:00,101659.34,N,Clear,,KO54 170055Z AUTO 00000KT 10SM CLR 34/02 A3002 RMK AO1,,2.0,,,2.23,10.0,1.0,31.53,0.0,1.0,93678.34,13.31,0.0,101027.26,34.0,KO54,2244,-122.92230,40.74600
1015,2018-08-17 01:15:00,101659.34,NE,Clear,,KO54 170115Z AUTO 05003KT 10SM CLR 33/02 A3002 RMK AO1,,2.0,,,2.19,10.0,1.0,30.65,50.0,1.0,93678.34,14.07,1.54,101052.0,33.0,KO54,2244,-122.92230,40.74600
1016,2018-08-17 01:35:00,101693.2,N,Clear,,KO54 170135Z AUTO 00000KT 10SM CLR 33/02 A3003 RMK AO1,,2.0,,,2.19,10.0,1.0,30.65,0.0,1.0,93709.54,14.07,0.0,101085.66,33.0,KO54,2244,-122.92230,40.74600
1017,2018-08-17 01:55:00,101693.2,N,Clear,,KO54 170155Z AUTO 00000KT 10SM CLR 33/03 A3003 RMK AO1,,3.0,,,3.19,10.0,1.0,30.68,0.0,1.0,93709.54,15.11,0.0,101085.64,33.0,KO54,2244,-122.92230,40.74600
1018,2018-08-17 02:15:00,101693.2,S,Clear,,KO54 170215Z AUTO 18004KT 10SM CLR 32/04 A3003 RMK AO1,,4.0,,,4.15,10.0,1.0,29.85,180.0,1.0,93709.54,17.15,2.06,101110.54,32.0,KO54,2244,-122.92230,40.74600
1019,2018-08-17 02:35:00,101727.07,SW,Clear,,KO54 170235Z AUTO 23003KT 10SM CLR 31/03 A3004 RMK AO1,,3.0,,,3.13,10.0,1.0,28.98,230.0,1.0,93740.75,16.91,1.54,101169.33,31.0,KO54,2244,-122.92230,40.74600
1020,2018-08-17 02:55:00,101760.93,N,Clear,,KO54 170255Z AUTO 00000KT 10SM CLR 28/07 A3005 RMK AO1,,7.0,,,7.05,10.0,1.0,26.95,0.0,1.0,93771.95,26.56,0.0,101279.25,28.0,KO54,2244,-122.92230,40.74600
1021,2018-08-17 03:15:00,101794.79,N,Clear,,KO54 170315Z AUTO 00000KT 10SM CLR 26/05 A3006 RMK AO1,,5.0,,,5.02,10.0,1.0,,0.0,1.0,93803.15,26.0,0.0,101364.79,26.0,KO54,2244,-122.92230,40.74600
1022,2018-08-17 03:35:00,101794.79,N,Clear,,KO54 170335Z AUTO 00000KT 10SM CLR 24/05 A3006 RMK AO1,,5.0,,,4.99,10.0,1.0,,0.0,1.0,93803.15,29.29,0.0,101417.31,24.0,KO54,2244,-122.92230,40.74600
1023,2018-08-17 03:55:00,101828.66,N,Clear,,KO54 170355Z AUTO 00000KT 10SM CLR 22/05 A3007 RMK AO1,,5.0,,,4.97,10.0,1.0,,0.0,1.0,93834.36,33.05,0.0,101504.31,22.0,KO54,2244,-122.92230,40.74600
1024,2018-08-17 04:15:00,101862.52,N,Clear,,KO54 170415Z AUTO 00000KT 10SM CLR 22/05 A3008 RMK AO1,,5.0,,,4.97,10.0,1.0,,0.0,1.0,93865.57,33.05,0.0,101538.07,22.0,KO54,2244,-122.92230,40.74600
1025,2018-08-17 04:35:00,101896.38,N,Clear,,KO54 170435Z AUTO 00000KT 10SM CLR 21/05 A3009 RMK AO1,,5.0,,,4.95,10.0,1.0,,0.0,1.0,93896.77,35.13,0.0,101598.76,21.0,KO54,2244,-122.92230,40.74600
1026,2018-08-17 04:55:00,101896.38,N,Clear,,KO54 170455Z AUTO 00000KT 10SM CLR 20/05 A3009 RMK AO1,,5.0,,,4.95,10.0,1.0,,0.0,1.0,93896.77,37.36,0.0,101625.87,20.0,KO54,2244,-122.92230,40.74600
1027,2018-08-17 05:15:00,101930.25,NE,Clear,,KO54 170515Z AUTO 04003KT 10SM CLR 19/05 A3010 RMK AO1,,5.0,,,4.94,10.0,1.0,,40.0,1.0,93927.98,39.75,1.54,101686.97,19.0,KO54,2244,-122.92230,40.74600
1028,2018-08-17 05:35:00,101964.11,NNE,Clear,,KO54 170535Z AUTO 03003KT 10SM CLR 19/04 A3011 RMK AO1,,4.0,,,3.94,10.0,1.0,,30.0,1.0,93959.18,37.07,1.54,101720.78,19.0,KO54,2244,-122.92230,40.74600
1029,2018-08-17 05:55:00,101964.11,NNE,Clear,,KO54 170555Z AUTO 02003KT 10SM CLR 19/04 A3011 RMK AO1,,4.0,,,3.94,10.0,1.0,,20.0,1.0,93959.18,37.07,1.54,101720.78,19.0,KO54,2244,-122.92230,40.74600
1030,2018-08-17 06:15:00,101997.98,NNE,Mostly Clear,,KO54 170615Z AUTO 02004KT 10SM FEW055 18/04 A3012 RMK AO1,,4.0,,,3.93,10.0,556.0,,20.0,1.0,93990.39,39.46,2.06,101782.1,18.0,KO54,2244,-122.92230,40.74600
1031,2018-08-17 06:35:00,101997.98,N,Partly Cloudy,,KO54 170635Z AUTO 00000KT 10SM SCT055 17/04 A3012 RMK AO1,,4.0,,,3.93,10.0,552.0,,0.0,1.0,93990.39,42.03,0.0,101809.83,17.0,KO54,2244,-122.92230,40.74600
1032,2018-08-17 06:55:00,101997.98,NNE,Mostly Clear,,KO54 170655Z AUTO 03003KT 10SM FEW055 17/03 A3012 RMK AO1,,3.0,,,2.92,10.0,556.0,,30.0,1.0,93990.39,39.16,1.54,101809.85,17.0,KO54,2244,-122.92230,40.74600
1033,2018-08-17 07:15:00,102031.84,N,Mostly Clear,,KO54 170715Z AUTO 00000KT 10SM FEW055 16/03 A3013 RMK AO1,,3.0,,,2.92,10.0,556.0,,0.0,1.0,94021.59,41.73,0.0,101871.58,16.0,KO54,2244,-122.92230,40.74600
1034,2018-08-17 07:35:00,102031.84,N,Partly Cloudy,,KO54 170735Z AUTO 00000KT 10SM SCT055 15/03 A3013 RMK AO1,,3.0,,,2.92,10.0,552.0,,0.0,1.0,94021.59,44.49,0.0,101899.72,15.0,KO54,2244,-122.92230,40.74600
1035,2018-08-17 07:55:00,102031.84,N,Partly Cloudy,,KO54 170755Z AUTO 01003KT 10SM SCT055 15/03 A3013 RMK AO1,,3.0,,,2.92,10.0,552.0,,10.0,1.0,94021.59,44.49,1.54,101899.72,15.0,KO54,2244,-122.92230,40.74600
1036,2018-08-17 08:15:00,102065.7,N,Mostly Clear,,KO54 170815Z AUTO 00000KT 10SM FEW055 14/03 A3014 RMK AO1,,3.0,,,2.92,10.0,556.0,,0.0,1.0,94052.8,47.46,0.0,101961.89,14.0,KO54,2244,-122.92230,40.74600
1037,2018-08-17 08:35:00,102065.7,N,Clear,,KO54 170835Z AUTO 00000KT 10SM CLR 14/03 A3014 RMK AO1,,3.0,,,2.92,10.0,1.0,,0.0,1.0,94052.8,47.46,0.0,101961.89,14.0,KO54,2244,-122.92230,40.74600
1038,2018-08-17 08:55:00,102065.7,N,Partly Cloudy,,KO54 170855Z AUTO 00000KT 10SM SCT024 14/03 A3014 RMK AO1,,3.0,,,2.92,10.0,242.0,,0.0,1.0,94052.8,47.46,0.0,101961.89,14.0,KO54,2244,-122.92230,40.74600
1039,2018-08-17 09:15:00,102099.57,N,Overcast,,KO54 170915Z AUTO 00000KT 10SM OVC022 13/03 A3015 RMK AO1,670.56,3.0,,,2.92,10.0,224.0,,0.0,1.0,94084.01,50.65,0.0,102024.28,13.0,KO54,2244,-122.92230,40.74600
1040,2018-08-17 09:35:00,102099.57,N,Overcast,,KO54 170935Z AUTO 00000KT 10SM OVC020 13/03 A3015 RMK AO1,609.6,3.0,,,2.92,10.0,204.0,,0.0,1.0,94084.01,50.65,0.0,102024.28,13.0,KO54,2244,-122.92230,40.74600
1041,2018-08-17 09:55:00,102099.57,NNE,Overcast,,KO54 170955Z AUTO 02003KT 10SM OVC022 13/03 A3015 RMK AO1,670.56,3.0,,,2.92,10.0,224.0,,20.0,1.0,94084.01,50.65,1.54,102024.28,13.0,KO54,2244,-122.92230,40.74600
1042,2018-08-17 10:15:00,102099.57,N,Overcast,,KO54 171015Z AUTO 00000KT 10SM BKN022 OVC027 13/03 A3015 RMK AO1,670.56,3.0,274.0,,2.92,10.0,223.0,,0.0,1.0,94084.01,50.65,0.0,102024.28,13.0,KO54,2244,-122.92230,40.74600
1043,2018-08-17 10:35:00,102099.57,N,Overcast,,KO54 171035Z AUTO 00000KT 10SM OVC022 12/03 A3015 RMK AO1,670.56,3.0,,,2.92,10.0,224.0,,0.0,1.0,94084.01,54.08,0.0,102053.05,12.0,KO54,2244,-122.92230,40.74600
1044,2018-08-17 10:55:00,102099.57,N,Overcast,,KO54 171055Z AUTO 00000KT 10SM OVC022 12/03 A3015 RMK AO1,670.56,3.0,,,2.92,10.0,224.0,,0.0,1.0,94084.01,54.08,0.0,102053.05,12.0,KO54,2244,-122.92230,40.74600
1045,2018-08-17 11:15:00,102099.57,N,Mostly Cloudy,,KO54 171115Z AUTO 00000KT 10SM BKN024 12/03 A3015 RMK AO1,731.52,3.0,,,2.92,10.0,243.0,,0.0,1.0,94084.01,54.08,0.0,102053.05,12.0,KO54,2244,-122.92230,40.74600
1046,2018-08-17 11:35:00,102133.43,N,Overcast,,KO54 171135Z AUTO 00000KT 10SM OVC024 12/03 A3016 RMK AO1,731.52,3.0,,,2.92,10.0,244.0,,0.0,1.0,94115.21,54.08,0.0,102086.9,12.0,KO54,2244,-122.92230,40.74600
1047,2018-08-17 11:55:00,102133.43,N,Overcast,,KO54 171155Z AUTO 00000KT 10SM OVC024 12/03 A3016 RMK AO1,731.52,3.0,,,2.92,10.0,244.0,,0.0,1.0,94115.21,54.08,0.0,102086.9,12.0,KO54,2244,-122.92230,40.74600
1048,2018-08-17 12:15:00,102133.43,N,Overcast,,KO54 171215Z AUTO 00000KT 10SM OVC024 11/03 A3016 RMK AO1,731.52,3.0,,,2.92,10.0,244.0,,0.0,1.0,94115.21,57.78,0.0,102115.88,11.0,KO54,2244,-122.92230,40.74600
1049,2018-08-17 12:35:00,102133.43,N,Overcast,,KO54 171235Z AUTO 00000KT 10SM OVC024 10/03 A3016 RMK AO1,731.52,3.0,,,2.93,10.0,244.0,,0.0,1.0,94115.21,61.76,0.0,102145.08,10.0,KO54,2244,-122.92230,40.74600
1050,2018-08-17 12:55:00,102133.43,N,Overcast,,KO54 171255Z AUTO 00000KT 10SM OVC024 11/03 A3016 RMK AO1,731.52,3.0,,,2.92,10.0,244.0,,0.0,1.0,94115.21,57.78,0.0,102115.88,11.0,KO54,2244,-122.92230,40.74600
1051,2018-08-17 13:15:00,102133.43,N,Overcast,,KO54 171315Z AUTO 00000KT 10SM OVC024 10/03 A3016 RMK AO1,731.52,3.0,,,2.93,10.0,244.0,,0.0,1.0,94115.21,61.76,0.0,102145.08,10.0,KO54,2244,-122.92230,40.74600
1052,2018-08-17 13:35:00,102167.3,N,Mostly Cloudy,,KO54 171335Z AUTO 00000KT 10SM BKN022 10/03 A3017 RMK AO1,670.56,3.0,,,2.93,10.0,223.0,,0.0,1.0,94146.42,61.76,0.0,102178.95,10.0,KO54,2244,-122.92230,40.74600
1053,2018-08-17 13:55:00,102167.3,N,Mostly Cloudy,,KO54 171355Z AUTO 00000KT 10SM BKN022 10/04 A3017 RMK AO1,670.56,4.0,,,3.93,10.0,223.0,,0.0,1.0,94146.42,66.27,0.0,102178.93,10.0,KO54,2244,-122.92230,40.74600
1054,2018-08-17 14:15:00,102167.3,N,Mostly Cloudy,,KO54 171415Z AUTO 00000KT 9SM BKN022 11/04 A3017 RMK AO1,670.56,4.0,,,3.93,9.0,223.0,,0.0,1.0,94146.42,62.0,0.0,102149.72,11.0,KO54,2244,-122.92230,40.74600
1055,2018-08-17 14:35:00,102201.16,N,Overcast,,KO54 171435Z AUTO 00000KT 9SM OVC022 12/04 A3018 RMK AO1,670.56,4.0,,,3.92,9.0,224.0,,0.0,1.0,94177.62,58.03,0.0,102154.57,12.0,KO54,2244,-122.92230,40.74600
1056,2018-08-17 14:55:00,102201.16,N,Mostly Cloudy,,KO54 171455Z AUTO 00000KT 9SM BKN022 12/05 A3018 RMK AO1,670.56,5.0,,,4.93,9.0,223.0,,0.0,1.0,94177.62,62.24,0.0,102154.54,12.0,KO54,2244,-122.92230,40.74600
1057,2018-08-17 15:15:00,102201.16,N,Partly Cloudy,,KO54 171515Z AUTO 00000KT 10SM SCT024 14/05 A3018 RMK AO1,,5.0,,,4.93,10.0,242.0,,0.0,1.0,94177.62,54.62,0.0,102097.15,14.0,KO54,2244,-122.92230,40.74600
1058,2018-08-17 15:35:00,102235.02,N,Partly Cloudy,,KO54 171535Z AUTO 00000KT 10SM SCT024 15/03 A3019 RMK AO1,,3.0,,,2.92,10.0,242.0,,0.0,1.0,94208.82,44.49,0.0,102102.64,15.0,KO54,2244,-122.92230,40.74600
1059,2018-08-17 15:55:00,102201.16,N,Mostly Clear,,KO54 171555Z AUTO 00000KT 10SM FEW024 17/04 A3018 RMK AO1,,4.0,,,3.93,10.0,246.0,,0.0,1.0,94177.62,42.03,0.0,102012.63,17.0,KO54,2244,-122.92230,40.74600
1060,2018-08-17 16:15:00,102201.16,SSW,Clear,,KO54 171615Z AUTO 21003KT 10SM CLR 18/04 A3018 RMK AO1,,4.0,,,3.93,10.0,1.0,,210.0,1.0,94177.62,39.46,1.54,101984.85,18.0,KO54,2244,-122.92230,40.74600
1061,2018-08-17 16:35:00,102201.16,N,Clear,,KO54 171635Z AUTO 00000KT 10SM CLR 19/03 A3018 RMK AO1,,3.0,,,2.94,10.0,1.0,,0.0,1.0,94177.62,34.54,0.0,101957.29,19.0,KO54,2244,-122.92230,40.74600
1062,2018-08-17 16:55:00,102201.16,N,Clear,,KO54 171655Z AUTO 00000KT 10SM CLR 19/04 A3018 RMK AO1,,4.0,,,3.94,10.0,1.0,,0.0,1.0,94177.62,37.07,0.0,101957.26,19.0,KO54,2244,-122.92230,40.74600
1063,2018-08-17 17:15:00,102201.16,N,Clear,,KO54 171715Z AUTO 00000KT 9SM CLR 20/04 A3018 RMK AO1,,4.0,,,3.95,9.0,1.0,,0.0,1.0,94177.62,34.84,0.0,101929.87,20.0,KO54,2244,-122.92230,40.74600
1064,2018-08-17 17:35:00,102201.16,N,Mostly Clear,,KO54 171735Z AUTO 00000KT 10SM FEW027 22/05 A3018 RMK AO1,,5.0,,,4.97,10.0,276.0,,0.0,1.0,94177.62,33.05,0.0,101875.63,22.0,KO54,2244,-122.92230,40.74600
1065,2018-08-17 17:55:00,102201.16,N,Mostly Clear,,KO54 171755Z AUTO 00000KT 9SM FEW025 23/04 A3018 RMK AO1,,4.0,,,3.98,9.0,256.0,,0.0,1.0,94177.62,29.0,0.0,101848.84,23.0,KO54,2244,-122.92230,40.74600
1066,2018-08-17 18:15:00,102167.3,N,Clear,,KO54 171815Z AUTO 00000KT 8SM CLR 24/04 A3017 RMK AO1,,4.0,,,3.99,8.0,1.0,,0.0,1.0,94146.42,27.31,0.0,101788.47,24.0,KO54,2244,-122.92230,40.74600
1067,2018-08-17 18:35:00,102167.3,N,Clear,,KO54 171835Z AUTO 00000KT 8SM CLR 25/04 A3017 RMK AO1,,4.0,,,4.01,8.0,1.0,,0.0,1.0,94146.42,25.73,0.0,101762.02,25.0,KO54,2244,-122.92230,40.74600
1068,2018-08-17 18:55:00,102133.43,N,Clear,,KO54 171855Z AUTO 00000KT 7SM CLR 26/04 A3016 RMK AO1,,4.0,,,4.02,7.0,1.0,,0.0,1.0,94115.21,24.25,0.0,101702.04,26.0,KO54,2244,-122.92230,40.74600
1069,2018-08-17 19:15:00,102099.57,N,Clear,,KO54 171915Z AUTO 00000KT 6SM CLR 27/04 A3015 RMK AO1,,4.0,,,4.04,6.0,1.0,26.35,0.0,1.0,94084.01,22.86,0.0,101642.26,27.0,KO54,2244,-122.92230,40.74600
1070,2018-08-17 19:35:00,102065.7,N,Clear,,KO54 171935Z AUTO 00000KT 5SM CLR 28/05 A3014 RMK AO1,,5.0,,,5.06,5.0,1.0,26.83,0.0,1.0,94052.8,23.13,0.0,101582.64,28.0,KO54,2244,-122.92230,40.74600
1071,2018-08-17 19:55:00,102065.7,N,Clear,,KO54 171955Z AUTO 00000KT 7SM CLR 30/06 A3014 RMK AO1,,6.0,,,6.09,7.0,1.0,28.31,0.0,1.0,94052.8,22.09,0.0,101531.39,30.0,KO54,2244,-122.92230,40.74600
1072,2018-08-17 20:15:00,102031.84,S,Clear,,KO54 172015Z AUTO 17003KT 9SM CLR 30/06 A3013 RMK AO1,,6.0,,,6.09,9.0,1.0,28.31,170.0,1.0,94021.59,22.09,1.54,101497.7,30.0,KO54,2244,-122.92230,40.74600
1073,2018-08-17 20:35:00,101997.98,S,Clear,,KO54 172035Z AUTO 17003KT 9SM CLR 32/04 A3012 RMK AO1,,4.0,,,4.15,9.0,1.0,29.85,170.0,1.0,93990.39,17.15,1.54,101413.57,32.0,KO54,2244,-122.92230,40.74600
1074,2018-08-17 20:55:00,101997.98,NE,Clear,,KO54 172055Z AUTO 04003KT 7SM CLR 33/02 A3012 RMK AO1,,2.0,,,2.19,7.0,1.0,30.65,40.0,1.0,93990.39,14.07,1.54,101388.62,33.0,KO54,2244,-122.92230,40.74600
1075,2018-08-17 21:15:00,101964.11,SSW,Clear,,KO54 172115Z AUTO 21003KT 7SM CLR 33/00 A3011 RMK AO1,,0.0,,,0.21,7.0,1.0,30.51,210.0,1.0,93959.18,12.18,1.54,101354.99,33.0,KO54,2244,-122.92230,40.74600
1076,2018-08-17 21:35:00,101964.11,SSW,Clear,,KO54 172135Z AUTO 21004KT 7SM CLR 34/02 A3011 RMK AO1,,2.0,,,2.23,7.0,1.0,31.53,210.0,1.0,93959.18,13.31,2.06,101330.13,34.0,KO54,2244,-122.92230,40.74600
1077,2018-08-17 21:55:00,101930.25,SSW,Clear,,KO54 172155Z AUTO 20004KT 7SM CLR 34/00 A3010 RMK AO1,,0.0,,,0.24,7.0,1.0,31.29,200.0,1.0,93927.98,11.52,2.06,101296.52,34.0,KO54,2244,-122.92230,40.74600
1078,2018-08-17 22:15:00,101896.38,S,Clear,,KO54 172215Z AUTO 19003KT 7SM CLR 34/00 A3009 RMK AO1,,0.0,,,0.24,7.0,1.0,31.29,190.0,1.0,93896.77,11.52,1.54,101262.86,34.0,KO54,2244,-122.92230,40.74600
1079,2018-08-17 22:35:00,101862.52,SW,Clear,,KO54 172235Z AUTO 22005KT 170V250 8SM CLR 35/M03 A3008 RMK AO1,,-3.0,,,-2.69,8.0,1.0,31.72,220.0,1.0,93865.57,8.74,2.57,101204.64,35.0,KO54,2244,-122.92230,40.74600
1080,2018-08-17 22:55:00,101862.52,W,Clear,,KO54 172255Z AUTO 28006KT 7SM CLR 34/M02 A3008 RMK AO1,,-2.0,,,-1.73,7.0,1.0,31.06,280.0,1.0,93865.57,9.95,3.09,101229.25,34.0,KO54,2244,-122.92230,40.74600
1081,2018-08-17 23:15:00,101828.66,WSW,Clear,,KO54 172315Z AUTO 24004KT 7SM CLR 35/M02 A3007 RMK AO1,,-2.0,,,-1.71,7.0,1.0,31.82,240.0,1.0,93834.36,9.41,2.06,101170.97,35.0,KO54,2244,-122.92230,40.74600
1082,2018-08-17 23:35:00,101828.66,N,Clear,,KO54 172335Z AUTO 00000KT 7SM CLR 35/M03 A3007 RMK AO1,,-3.0,,,-2.69,7.0,1.0,31.72,0.0,1.0,93834.36,8.74,0.0,101170.99,35.0,KO54,2244,-122.92230,40.74600
1083,2018-08-17 23:55:00,101828.66,W,Clear,,KO54 172355Z AUTO 26006KT 220V310 8SM CLR 35/M03 A3007 RMK AO1,,-3.0,,,-2.69,8.0,1.0,31.72,260.0,1.0,93834.36,8.74,3.09,101170.99,35.0,KO54,2244,-122.92230,40.74600
1084,2018-08-18 00:15:00,101828.66,WSW,Clear,,KO54 180015Z AUTO 25008KT 7SM CLR 35/M03 A3007 RMK AO1,,-3.0,,,-2.69,7.0,1.0,31.72,250.0,1.0,93834.36,8.74,4.12,101170.99,35.0,KO54,2244,-122.92230,40.74600
1085,2018-08-18 00:35:00,101794.79,SW,Clear,,KO54 180035Z AUTO 23007KT 190V250 7SM CLR 34/M03 A3006 RMK AO1,,-3.0,,,-2.72,7.0,1.0,30.96,230.0,1.0,93803.15,9.24,3.6,101161.95,34.0,KO54,2244,-122.92230,40.74600
1086,2018-08-18 00:55:00,101794.79,SW,Clear,,KO54 180055Z AUTO 23007KT 7SM CLR 34/M02 A3006 RMK AO1,,-2.0,,,-1.73,7.0,1.0,31.06,230.0,1.0,93803.15,9.95,3.6,101161.93,34.0,KO54,2244,-122.92230,40.74600
1087,2018-08-18 01:15:00,101794.79,SW,Clear,,KO54 180115Z AUTO 22005KT 8SM CLR 34/00 A3006 RMK AO1,,0.0,,,0.24,8.0,1.0,31.29,220.0,1.0,93803.15,11.52,2.57,101161.9,34.0,KO54,2244,-122.92230,40.74600
1088,2018-08-18 01:35:00,101794.79,WNW,Clear,,KO54 180135Z AUTO 30005KT 280V340 8SM CLR 33/00 A3006 RMK AO1,,0.0,,,0.21,8.0,1.0,30.51,300.0,1.0,93803.15,12.18,2.57,101186.68,33.0,KO54,2244,-122.92230,40.74600
1089,2018-08-18 01:55:00,101794.79,SSW,Clear,,KO54 180155Z AUTO 21005KT 8SM CLR 33/00 A3006 RMK AO1,,0.0,,,0.21,8.0,1.0,30.51,210.0,1.0,93803.15,12.18,2.57,101186.68,33.0,KO54,2244,-122.92230,40.74600
1090,2018-08-18 02:15:00,101828.66,SSW,Clear,,KO54 180215Z AUTO 21003KT 8SM CLR 32/00 A3007 RMK AO1,,0.0,,,0.19,8.0,1.0,29.75,210.0,1.0,93834.36,12.89,1.54,101245.3,32.0,KO54,2244,-122.92230,40.74600
1091,2018-08-18 02:35:00,101828.66,N,Clear,,KO54 180235Z AUTO 00000KT 8SM CLR 30/03 A3007 RMK AO1,,3.0,,,3.11,8.0,1.0,28.18,0.0,1.0,93834.36,17.91,0.0,101295.65,30.0,KO54,2244,-122.92230,40.74600
1092,2018-08-18 02:55:00,101828.66,N,Clear,,KO54 180255Z AUTO 00000KT 8SM CLR 28/03 A3007 RMK AO1,,3.0,,,3.07,8.0,1.0,26.75,0.0,1.0,93834.36,20.1,0.0,101346.76,28.0,KO54,2244,-122.92230,40.74600
1093,2018-08-18 03:15:00,101862.52,NNE,Clear,,KO54 180315Z AUTO 02004KT 8SM CLR 26/04 A3008 RMK AO1,,4.0,,,4.02,8.0,1.0,,20.0,1.0,93865.57,24.25,2.06,101432.27,26.0,KO54,2244,-122.92230,40.74600
1094,2018-08-18 03:35:00,101896.38,NE,Clear,,KO54 180335Z AUTO 04003KT 10SM CLR 24/04 A3009 RMK AO1,,4.0,,,3.99,10.0,1.0,,40.0,1.0,93896.77,27.31,1.54,101518.55,24.0,KO54,2244,-122.92230,40.74600
1095,2018-08-18 03:55:00,101930.25,NNE,Clear,,KO54 180355Z AUTO 03003KT 10SM CLR 23/04 A3010 RMK AO1,,4.0,,,3.98,10.0,1.0,,30.0,1.0,93927.98,29.0,1.54,101578.86,23.0,KO54,2244,-122.92230,40.74600
1096,2018-08-18 04:15:00,101964.11,N,Clear,,KO54 180415Z AUTO 00000KT 10SM CLR 21/04 A3011 RMK AO1,,4.0,,,3.96,10.0,1.0,,0.0,1.0,93959.18,32.76,0.0,101666.31,21.0,KO54,2244,-122.92230,40.74600
1097,2018-08-18 04:35:00,101997.98,N,Clear,,KO54 180435Z AUTO 00000KT 10SM CLR 21/04 A3012 RMK AO1,,4.0,,,3.96,10.0,1.0,,0.0,1.0,93990.39,32.76,0.0,101700.08,21.0,KO54,2244,-122.92230,40.74600
1098,2018-08-18 04:55:00,101997.98,N,Clear,,KO54 180455Z AUTO 36003KT 10SM CLR 20/03 A3012 RMK AO1,,3.0,,,2.94,10.0,1.0,,360.0,1.0,93990.39,32.46,1.54,101727.25,20.0,KO54,2244,-122.92230,40.74600
1099,2018-08-18 05:15:00,101997.98,N,Clear,,KO54 180515Z AUTO 00000KT 10SM CLR 19/03 A3012 RMK AO1,,3.0,,,2.94,10.0,1.0,,0.0,1.0,93990.39,34.54,0.0,101754.59,19.0,KO54,2244,-122.92230,40.74600
1100,2018-08-18 05:35:00,101997.98,N,Clear,,KO54 180535Z AUTO 00000KT 9SM CLR 18/03 A3012 RMK AO1,,3.0,,,2.93,9.0,1.0,,0.0,1.0,93990.39,36.77,0.0,101782.12,18.0,KO54,2244,-122.92230,40.74600
1101,2018-08-18 05:55:00,101997.98,NNE,Clear,,KO54 180555Z AUTO 02004KT 10SM CLR 19/02 A3012 RMK AO1,,2.0,,,1.94,10.0,1.0,,20.0,1.0,93990.39,32.17,2.06,101754.61,19.0,KO54,2244,-122.92230,40.74600
1102,2018-08-18 06:15:00,102031.84,NE,Clear,,KO54 180615Z AUTO 04005KT 10SM CLR 18/03 A3013 RMK AO1,,3.0,,,2.93,10.0,1.0,,40.0,1.0,94021.59,36.77,2.57,101815.91,18.0,KO54,2244,-122.92230,40.74600
1103,2018-08-18 06:35:00,102031.84,NNE,Clear,,KO54 180635Z AUTO 03004KT 10SM CLR 17/03 A3013 RMK AO1,,3.0,,,2.92,10.0,1.0,,30.0,1.0,94021.59,39.16,2.06,101843.65,17.0,KO54,2244,-122.92230,40.74600
1104,2018-08-18 06:55:00,102065.7,N,Clear,,KO54 180655Z AUTO 00000KT 10SM CLR 17/03 A3014 RMK AO1,,3.0,,,2.92,10.0,1.0,,0.0,1.0,94052.8,39.16,0.0,101877.45,17.0,KO54,2244,-122.92230,40.74600
1105,2018-08-18 07:15:00,102065.7,NNE,Clear,,KO54 180715Z AUTO 02003KT 10SM CLR 16/03 A3014 RMK AO1,,3.0,,,2.92,10.0,1.0,,20.0,1.0,94052.8,41.73,1.54,101905.4,16.0,KO54,2244,-122.92230,40.74600
1106,2018-08-18 07:35:00,102099.57,NE,Clear,,KO54 180735Z AUTO 04003KT 10SM CLR 16/03 A3015 RMK AO1,,3.0,,,2.92,10.0,1.0,,40.0,1.0,94084.01,41.73,1.54,101939.21,16.0,KO54,2244,-122.92230,40.74600
1107,2018-08-18 07:55:00,102099.57,NNE,Clear,,KO54 180755Z AUTO 02003KT 10SM CLR 16/03 A3015 RMK AO1,,3.0,,,2.92,10.0,1.0,,20.0,1.0,94084.01,41.73,1.54,101939.21,16.0,KO54,2244,-122.92230,40.74600
1108,2018-08-18 08:15:00,102099.57,N,Clear,,KO54 180815Z AUTO 00000KT 10SM CLR 15/03 A3015 RMK AO1,,3.0,,,2.92,10.0,1.0,,0.0,1.0,94084.01,44.49,0.0,101967.37,15.0,KO54,2244,-122.92230,40.74600
1109,2018-08-18 08:35:00,102099.57,N,Clear,,KO54 180835Z AUTO 00000KT 10SM CLR 14/03 A3015 RMK AO1,,3.0,,,2.92,10.0,1.0,,0.0,1.0,94084.01,47.46,0.0,101995.72,14.0,KO54,2244,-122.92230,40.74600
1110,2018-08-18 08:55:00,102099.57,N,Clear,,KO54 180855Z AUTO 00000KT 10SM CLR 14/03 A3015 RMK AO1,,3.0,,,2.92,10.0,1.0,,0.0,1.0,94084.01,47.46,0.0,101995.72,14.0,KO54,2244,-122.92230,40.74600
1111,2018-08-18 09:15:00,102099.57,N,Clear,,KO54 180915Z AUTO 00000KT 10SM CLR 14/03 A3015 RMK AO1,,3.0,,,2.92,10.0,1.0,,0.0,1.0,94084.01,47.46,0.0,101995.72,14.0,KO54,2244,-122.92230,40.74600
1112,2018-08-18 09:35:00,102099.57,N,Clear,,KO54 180935Z AUTO 00000KT 10SM CLR 13/03 A3015 RMK AO1,,3.0,,,2.92,10.0,1.0,,0.0,1.0,94084.01,50.65,0.0,102024.28,13.0,KO54,2244,-122.92230,40.74600
1113,2018-08-18 09:55:00,102099.57,N,Clear,,KO54 180955Z AUTO 00000KT 10SM CLR 13/03 A3015 RMK AO1,,3.0,,,2.92,10.0,1.0,,0.0,1.0,94084.01,50.65,0.0,102024.28,13.0,KO54,2244,-122.92230,40.74600
1114,2018-08-18 10:15:00,102099.57,N,Clear,,KO54 181015Z AUTO 00000KT 9SM CLR 13/03 A3015 RMK AO1,,3.0,,,2.92,9.0,1.0,,0.0,1.0,94084.01,50.65,0.0,102024.28,13.0,KO54,2244,-122.92230,40.74600
1115,2018-08-18 10:35:00,102133.43,N,Mostly Clear,,KO54 181035Z AUTO 01003KT 9SM FEW025 13/03 A3016 RMK AO1,,3.0,,,2.92,9.0,256.0,,10.0,1.0,94115.21,50.65,1.54,102058.12,13.0,KO54,2244,-122.92230,40.74600
1116,2018-08-18 10:55:00,102133.43,NNE,Mostly Clear,,KO54 181055Z AUTO 02003KT 8SM FEW028 13/03 A3016 RMK AO1,,3.0,,,2.92,8.0,286.0,,20.0,1.0,94115.21,50.65,1.54,102058.12,13.0,KO54,2244,-122.92230,40.74600
1117,2018-08-18 11:15:00,102099.57,N,Partly Cloudy,,KO54 181115Z AUTO 00000KT 9SM SCT026 12/03 A3015 RMK AO1,,3.0,,,2.92,9.0,262.0,,0.0,1.0,94084.01,54.08,0.0,102053.05,12.0,KO54,2244,-122.92230,40.74600
1118,2018-08-18 11:35:00,102099.57,N,Partly Cloudy,,KO54 181135Z AUTO 00000KT 8SM FEW024 SCT029 SCT050 12/03 A3015 RMK AO1,,3.0,292.0,502.0,2.92,8.0,246.0,,0.0,1.0,94084.01,54.08,0.0,102053.05,12.0,KO54,2244,-122.92230,40.74600
1119,2018-08-18 11:55:00,102099.57,N,Mostly Cloudy,,KO54 181155Z AUTO 00000KT 8SM SCT027 BKN046 12/03 A3015 RMK AO1,1402.08,3.0,463.0,,2.92,8.0,272.0,,0.0,1.0,94084.01,54.08,0.0,102053.05,12.0,KO54,2244,-122.92230,40.74600
1120,2018-08-18 12:15:00,102099.57,N,Mostly Cloudy,,KO54 181215Z AUTO 00000KT 8SM SCT027 BKN046 11/03 A3015 RMK AO1,1402.08,3.0,463.0,,2.92,8.0,272.0,,0.0,1.0,94084.01,57.78,0.0,102082.03,11.0,KO54,2244,-122.92230,40.74600
1121,2018-08-18 12:35:00,102133.43,N,Mostly Cloudy,,KO54 181235Z AUTO 00000KT 8SM FEW025 FEW030 BKN046 12/03 A3016 RMK AO1,1402.08,3.0,306.0,463.0,2.92,8.0,256.0,,0.0,1.0,94115.21,54.08,0.0,102086.9,12.0,KO54,2244,-122.92230,40.74600
1122,2018-08-18 12:55:00,102133.43,N,Overcast,,KO54 181255Z AUTO 00000KT 8SM FEW024 OVC046 11/03 A3016 RMK AO1,1402.08,3.0,464.0,,2.92,8.0,246.0,,0.0,1.0,94115.21,57.78,0.0,102115.88,11.0,KO54,2244,-122.92230,40.74600
1123,2018-08-18 13:15:00,102133.43,N,Overcast,,KO54 181315Z AUTO 00000KT 8SM SCT024 BKN046 OVC055 10/03 A3016 RMK AO1,1402.08,3.0,463.0,554.0,2.93,8.0,242.0,,0.0,1.0,94115.21,61.76,0.0,102145.08,10.0,KO54,2244,-122.92230,40.74600
1124,2018-08-18 13:35:00,102167.3,N,,,KO54 181335Z AUTO 00000KT 8SM SCT024 BKN050 10/03 A3017 RMK AO1,1524.0,3.0,503.0,,2.93,8.0,242.0,,0.0,1.0,94146.42,61.76,0.0,102178.95,10.0,KO54,2244,-122.92230,40.74600
1125,2018-08-18 13:55:00,102167.3,N,,,KO54 181355Z AUTO 00000KT 6SM FEW024 11/03 A3017 RMK AO1,,3.0,,,2.92,6.0,246.0,,0.0,1.0,94146.42,57.78,0.0,102149.75,11.0,KO54,2244,-122.92230,40.74600
1126,2018-08-18 14:15:00,102201.16,N,,,KO54 181415Z AUTO 00000KT 7SM CLR 11/03 A3018 RMK AO1,,3.0,,,2.92,7.0,1.0,,0.0,1.0,94177.62,57.78,0.0,102183.6,11.0,KO54,2244,-122.92230,40.74600
1127,2018-08-18 14:35:00,102201.16,N,,,KO54 181435Z AUTO 00000KT 7SM CLR 12/04 A3018 RMK AO1,,4.0,,,3.92,7.0,1.0,,0.0,1.0,94177.62,58.03,0.0,102154.57,12.0,KO54,2244,-122.92230,40.74600
1128,2018-08-18 14:55:00,102201.16,N,,,KO54 181455Z AUTO 00000KT 6SM CLR 12/04 A3018 RMK AO1,,4.0,,,3.92,6.0,1.0,,0.0,1.0,94177.62,58.03,0.0,102154.57,12.0,KO54,2244,-122.92230,40.74600
1129,2018-08-18 15:15:00,102235.02,N,,,KO54 181515Z AUTO 00000KT 7SM CLR 13/03 A3019 RMK AO1,,3.0,,,2.92,7.0,1.0,,0.0,1.0,94208.82,50.65,0.0,102159.63,13.0,KO54,2244,-122.92230,40.74600
1130,2018-08-18 15:35:00,102235.02,N,,,KO54 181535Z AUTO 00000KT 7SM CLR 14/04 A3019 RMK AO1,,4.0,,,3.92,7.0,1.0,,0.0,1.0,94208.82,50.93,0.0,102131.0,14.0,KO54,2244,-122.92230,40.74600
1131,2018-08-18 15:55:00,102235.02,N,,,KO54 181555Z AUTO 00000KT 7SM CLR 15/04 A3019 RMK AO1,,4.0,,,3.92,7.0,1.0,,0.0,1.0,94208.82,47.75,0.0,102102.61,15.0,KO54,2244,-122.92230,40.74600
1132,2018-08-18 16:15:00,102235.02,N,,,KO54 181615Z AUTO 00000KT 7SM CLR 16/04 A3019 RMK AO1,,4.0,,,3.92,7.0,1.0,,0.0,1.0,94208.82,44.78,0.0,102074.42,16.0,KO54,2244,-122.92230,40.74600
1133,2018-08-18 16:35:00,102235.02,N,,,KO54 181635Z AUTO 00000KT 7SM CLR 18/04 A3019 RMK AO1,,4.0,,,3.93,7.0,1.0,,0.0,1.0,94208.82,39.46,0.0,102018.64,18.0,KO54,2244,-122.92230,40.74600
1134,2018-08-18 16:55:00,102235.02,N,,,KO54 181655Z AUTO 00000KT 7SM CLR 18/04 A3019 RMK AO1,,4.0,,,3.93,7.0,1.0,,0.0,1.0,94208.82,39.46,0.0,102018.64,18.0,KO54,2244,-122.92230,40.74600
1135,2018-08-18 17:15:00,102201.16,N,,,KO54 181715Z AUTO 00000KT 7SM CLR 19/04 A3018 RMK AO1,,4.0,,,3.94,7.0,1.0,,0.0,1.0,94177.62,37.07,0.0,101957.26,19.0,KO54,2244,-122.92230,40.74600
1136,2018-08-18 17:35:00,102201.16,S,,,KO54 181735Z AUTO 19003KT 7SM CLR 21/04 A3018 RMK AO1,,4.0,,,3.96,7.0,1.0,,190.0,1.0,94177.62,32.76,1.54,101902.67,21.0,KO54,2244,-122.92230,40.74600
1137,2018-08-18 17:55:00,102201.16,SW,,,KO54 181755Z AUTO 22003KT 7SM CLR 22/04 A3018 RMK AO1,,4.0,,,3.97,7.0,1.0,,220.0,1.0,94177.62,30.82,1.54,101875.66,22.0,KO54,2244,-122.92230,40.74600
1138,2018-08-18 18:15:00,102167.3,N,,,KO54 181815Z AUTO 00000KT 6SM CLR 23/04 A3017 RMK AO1,,4.0,,,3.98,6.0,1.0,,0.0,1.0,94146.42,29.0,0.0,101815.09,23.0,KO54,2244,-122.92230,40.74600
1139,2018-08-18 18:35:00,102167.3,SSW,,,KO54 181835Z AUTO 20003KT 6SM CLR 24/05 A3017 RMK AO1,,5.0,,,4.99,6.0,1.0,,200.0,1.0,94146.42,29.29,1.54,101788.44,24.0,KO54,2244,-122.92230,40.74600
1140,2018-08-18 18:55:00,102133.43,N,,,KO54 181855Z AUTO 00000KT 6SM CLR 26/05 A3016 RMK AO1,,5.0,,,5.02,6.0,1.0,,0.0,1.0,94115.21,26.0,0.0,101702.01,26.0,KO54,2244,-122.92230,40.74600
1141,2018-08-18 19:15:00,102099.57,N,,,KO54 181915Z AUTO 00000KT 6SM CLR 27/06 A3015 RMK AO1,,6.0,,,6.03,6.0,1.0,26.44,0.0,1.0,94084.01,26.28,0.0,101642.21,27.0,KO54,2244,-122.92230,40.74600
1142,2018-08-18 19:35:00,102065.7,N,,,KO54 181935Z AUTO 00000KT 5SM CLR 28/07 A3014 RMK AO1,,7.0,,,7.05,5.0,1.0,26.95,0.0,1.0,94052.8,26.56,0.0,101582.58,28.0,KO54,2244,-122.92230,40.74600
1143,2018-08-18 19:55:00,102031.84,N,,,KO54 181955Z AUTO 00000KT 6SM CLR 29/07 A3013 RMK AO1,,7.0,,,7.06,6.0,1.0,27.63,0.0,1.0,94021.59,25.06,0.0,101523.18,29.0,KO54,2244,-122.92230,40.74600
1144,2018-08-18 20:15:00,101997.98,N,,,KO54 182015Z AUTO 00000KT 7SM CLR 31/07 A3012 RMK AO1,,7.0,,,7.11,7.0,1.0,29.18,0.0,1.0,93990.39,22.35,0.0,101438.65,31.0,KO54,2244,-122.92230,40.74600
1145,2018-08-18 20:35:00,101964.11,SW,,,KO54 182035Z AUTO 23004KT 8SM CLR 32/07 A3011 RMK AO1,,7.0,,,7.13,8.0,1.0,30.04,230.0,1.0,93959.18,21.12,2.06,101379.81,32.0,KO54,2244,-122.92230,40.74600
1146,2018-08-18 20:55:00,101930.25,N,,,KO54 182055Z AUTO 00000KT 8SM CLR 33/04 A3010 RMK AO1,,4.0,,,4.17,8.0,1.0,30.73,0.0,1.0,93927.98,16.21,0.0,101321.25,33.0,KO54,2244,-122.92230,40.74600
1147,2018-08-18 21:15:00,101930.25,SSE,,,KO54 182115Z AUTO 16005KT 7SM CLR 34/03 A3010 RMK AO1,,3.0,,,3.21,7.0,1.0,31.57,160.0,1.0,93927.98,14.29,2.57,101296.46,34.0,KO54,2244,-122.92230,40.74600
1148,2018-08-18 21:35:00,101896.38,S,,,KO54 182135Z AUTO 19004KT 7SM CLR 34/04 A3009 RMK AO1,,4.0,,,4.2,7.0,1.0,31.62,190.0,1.0,93896.77,15.33,2.06,101262.78,34.0,KO54,2244,-122.92230,40.74600
1149,2018-08-18 21:55:00,101862.52,SSW,,,KO54 182155Z AUTO 20005KT 7SM CLR 34/03 A3008 RMK AO1,,3.0,,,3.21,7.0,1.0,31.57,200.0,1.0,93865.57,14.29,2.57,101229.16,34.0,KO54,2244,-122.92230,40.74600
1150,2018-08-18 22:15:00,101828.66,N,,,KO54 182215Z AUTO 00000KT 7SM CLR 35/02 A3007 RMK AO1,,2.0,,,2.25,7.0,1.0,32.37,0.0,1.0,93834.36,12.59,0.0,101170.9,35.0,KO54,2244,-122.92230,40.74600
1151,2018-08-18 22:35:00,101794.79,N,,,KO54 182235Z AUTO 00000KT 7SM CLR 35/00 A3006 RMK AO1,,0.0,,,0.28,7.0,1.0,32.07,0.0,1.0,93803.15,10.9,0.0,101137.29,35.0,KO54,2244,-122.92230,40.74600
1152,2018-08-18 22:55:00,101760.93,SSW,,,KO54 182255Z AUTO 21004KT 7SM CLR 35/00 A3005 RMK AO1,,0.0,,,0.28,7.0,1.0,32.07,210.0,1.0,93771.95,10.9,2.06,101103.65,35.0,KO54,2244,-122.92230,40.74600
1153,2018-08-18 23:15:00,101727.07,WNW,,,KO54 182315Z AUTO 29003KT 8SM CLR 37/00 A3004 RMK AO1,,0.0,,,0.34,8.0,1.0,33.73,290.0,1.0,93740.75,9.77,1.54,101021.31,37.0,KO54,2244,-122.92230,40.74600
1154,2018-08-18 23:35:00,101727.07,SW,,,KO54 182335Z AUTO 23004KT 8SM CLR 36/00 A3004 RMK AO1,,0.0,,,0.31,8.0,1.0,32.89,230.0,1.0,93740.75,10.32,2.06,101045.58,36.0,KO54,2244,-122.92230,40.74600
1155,2018-08-18 23:55:00,101693.2,WSW,,,KO54 182355Z AUTO 24004KT 7SM CLR 35/00 A3003 RMK AO1,,0.0,,,0.28,7.0,1.0,32.07,240.0,1.0,93709.54,10.9,2.06,101036.36,35.0,KO54,2244,-122.92230,40.74600
1156,2018-08-19 00:15:00,101693.2,SSW,,,KO54 190015Z AUTO 21003KT 8SM CLR 36/00 A3003 RMK AO1,,0.0,,,0.31,8.0,1.0,32.89,210.0,1.0,93709.54,10.32,1.54,101011.94,36.0,KO54,2244,-122.92230,40.74600
1157,2018-08-19 00:35:00,101659.34,WSW,,,KO54 190035Z AUTO 25005KT 8SM CLR 36/00 A3002 RMK AO1,,0.0,,,0.31,8.0,1.0,32.89,250.0,1.0,93678.34,10.32,2.57,100978.3,36.0,KO54,2244,-122.92230,40.74600
1158,2018-08-19 00:55:00,101659.34,WSW,,,KO54 190055Z AUTO 24006KT 8SM CLR 35/M01 A3002 RMK AO1,,-1.0,,,-0.72,8.0,1.0,31.94,240.0,1.0,93678.34,10.13,3.09,101002.74,35.0,KO54,2244,-122.92230,40.74600
1159,2018-08-19 01:15:00,101659.34,W,,,KO54 190115Z AUTO 28005KT 8SM CLR 35/M02 A3002 RMK AO1,,-2.0,,,-1.71,8.0,1.0,31.82,280.0,1.0,93678.34,9.41,2.57,101002.75,35.0,KO54,2244,-122.92230,40.74600
1160,2018-08-19 01:35:00,101659.34,WSW,,,KO54 190135Z AUTO 25004KT 9SM CLR 34/M03 A3002 RMK AO1,,-3.0,,,-2.72,9.0,1.0,30.96,250.0,1.0,93678.34,9.24,2.06,101027.35,34.0,KO54,2244,-122.92230,40.74600
1161,2018-08-19 01:55:00,101659.34,SW,,,KO54 190155Z AUTO 23003KT 9SM CLR 34/M03 A3002 RMK AO1,,-3.0,,,-2.72,9.0,1.0,30.96,230.0,1.0,93678.34,9.24,1.54,101027.35,34.0,KO54,2244,-122.92230,40.74600
1162,2018-08-19 02:15:00,101659.34,W,,,KO54 190215Z AUTO 27004KT 9SM CLR 33/M01 A3002 RMK AO1,,-1.0,,,-0.78,9.0,1.0,30.4,270.0,1.0,93678.34,11.32,2.06,101052.06,33.0,KO54,2244,-122.92230,40.74600
1163,2018-08-19 02:35:00,101693.2,N,,,KO54 190235Z AUTO 00000KT 9SM CLR 32/00 A3003 RMK AO1,,0.0,,,0.19,9.0,1.0,29.75,0.0,1.0,93709.54,12.89,0.0,101110.62,32.0,KO54,2244,-122.92230,40.74600
1164,2018-08-19 02:55:00,101693.2,SW,,,KO54 190255Z AUTO 22003KT 9SM CLR 30/01 A3003 RMK AO1,,1.0,,,1.12,9.0,1.0,28.15,220.0,1.0,93709.54,15.52,1.54,101160.95,30.0,KO54,2244,-122.92230,40.74600
1165,2018-08-19 03:15:00,101727.07,S,,,KO54 190315Z AUTO 18005KT 9SM CLR 28/02 A3004 RMK AO1,,2.0,,,2.07,9.0,1.0,26.71,180.0,1.0,93740.75,18.72,2.57,101245.68,28.0,KO54,2244,-122.92230,40.74600
1166,2018-08-19 03:35:00,101760.93,SSE,,,KO54 190335Z AUTO 16003KT 10SM CLR 29/03 A3005 RMK AO1,,3.0,,,3.09,10.0,1.0,27.44,160.0,1.0,93771.95,18.97,1.54,101253.73,29.0,KO54,2244,-122.92230,40.74600
1167,2018-08-19 03:55:00,101760.93,NNE,,,KO54 190355Z AUTO 03003KT 10SM CLR 24/04 A3005 RMK AO1,,4.0,,,3.99,10.0,1.0,,30.0,1.0,93771.95,27.31,1.54,101383.6,24.0,KO54,2244,-122.92230,40.74600
1168,2018-08-19 04:15:00,101794.79,NE,,,KO54 190415Z AUTO 04004KT 10SM CLR 23/03 A3006 RMK AO1,,3.0,,,2.98,10.0,1.0,,40.0,1.0,93803.15,27.03,2.06,101443.89,23.0,KO54,2244,-122.92230,40.74600
1169,2018-08-19 04:35:00,101794.79,N,,,KO54 190435Z AUTO 36003KT 10SM CLR 22/03 A3006 RMK AO1,,3.0,,,2.97,10.0,1.0,,360.0,1.0,93803.15,28.72,1.54,101470.6,22.0,KO54,2244,-122.92230,40.74600
1170,2018-08-19 04:55:00,101828.66,NE,,,KO54 190455Z AUTO 05003KT 10SM CLR 21/03 A3007 RMK AO1,,3.0,,,2.96,10.0,1.0,,50.0,1.0,93834.36,30.53,1.54,101531.28,21.0,KO54,2244,-122.92230,40.74600
1171,2018-08-19 05:15:00,101828.66,NE,,,KO54 190515Z AUTO 04003KT 10SM CLR 20/03 A3007 RMK AO1,,3.0,,,2.94,10.0,1.0,,40.0,1.0,93834.36,32.46,1.54,101558.38,20.0,KO54,2244,-122.92230,40.74600
1172,2018-08-19 05:35:00,101828.66,N,,,KO54 190535Z AUTO 00000KT 10SM CLR 20/03 A3007 RMK AO1,,3.0,,,2.94,10.0,1.0,,0.0,1.0,93834.36,32.46,0.0,101558.38,20.0,KO54,2244,-122.92230,40.74600
1173,2018-08-19 05:55:00,101828.66,N,,,KO54 190555Z AUTO 00000KT 10SM CLR 19/03 A3007 RMK AO1,,3.0,,,2.94,10.0,1.0,,0.0,1.0,93834.36,34.54,0.0,101585.67,19.0,KO54,2244,-122.92230,40.74600
1174,2018-08-19 06:15:00,101828.66,NE,,,KO54 190615Z AUTO 04003KT 10SM CLR 19/03 A3007 RMK AO1,,3.0,,,2.94,10.0,1.0,,40.0,1.0,93834.36,34.54,1.54,101585.67,19.0,KO54,2244,-122.92230,40.74600
1175,2018-08-19 06:35:00,101862.52,N,,,KO54 190635Z AUTO 00000KT 10SM CLR 18/02 A3008 RMK AO1,,2.0,,,1.93,10.0,1.0,,0.0,1.0,93865.57,34.25,0.0,101646.98,18.0,KO54,2244,-122.92230,40.74600
1176,2018-08-19 06:55:00,101862.52,N,,,KO54 190655Z AUTO 00000KT 10SM CLR 18/02 A3008 RMK AO1,,2.0,,,1.93,10.0,1.0,,0.0,1.0,93865.57,34.25,0.0,101646.98,18.0,KO54,2244,-122.92230,40.74600
1177,2018-08-19 07:15:00,101862.52,N,,,KO54 190715Z AUTO 00000KT 10SM CLR 17/02 A3008 RMK AO1,,2.0,,,1.92,10.0,1.0,,0.0,1.0,93865.57,36.47,0.0,101674.67,17.0,KO54,2244,-122.92230,40.74600
1178,2018-08-19 07:35:00,101862.52,NNE,,,KO54 190735Z AUTO 02003KT 10SM CLR 17/02 A3008 RMK AO1,,2.0,,,1.92,10.0,1.0,,20.0,1.0,93865.57,36.47,1.54,101674.67,17.0,KO54,2244,-122.92230,40.74600
1179,2018-08-19 07:55:00,101862.52,N,,,KO54 190755Z AUTO 00000KT 10SM CLR 17/02 A3008 RMK AO1,,2.0,,,1.92,10.0,1.0,,0.0,1.0,93865.57,36.47,0.0,101674.67,17.0,KO54,2244,-122.92230,40.74600
1180,2018-08-19 08:15:00,101862.52,NNE,,,KO54 190815Z AUTO 03003KT 10SM CLR 16/03 A3008 RMK AO1,,3.0,,,2.92,10.0,1.0,,30.0,1.0,93865.57,41.73,1.54,101702.53,16.0,KO54,2244,-122.92230,40.74600
1181,2018-08-19 08:35:00,101862.52,N,,,KO54 190835Z AUTO 00000KT 10SM CLR 15/03 A3008 RMK AO1,,3.0,,,2.92,10.0,1.0,,0.0,1.0,93865.57,44.49,0.0,101730.62,15.0,KO54,2244,-122.92230,40.74600
1182,2018-08-19 08:55:00,101862.52,NNE,,,KO54 190855Z AUTO 02003KT 10SM CLR 15/03 A3008 RMK AO1,,3.0,,,2.92,10.0,1.0,,20.0,1.0,93865.57,44.49,1.54,101730.62,15.0,KO54,2244,-122.92230,40.74600
1183,2018-08-19 09:15:00,101862.52,NNE,,,KO54 190915Z AUTO 02003KT 10SM CLR 14/03 A3008 RMK AO1,,3.0,,,2.92,10.0,1.0,,20.0,1.0,93865.57,47.46,1.54,101758.91,14.0,KO54,2244,-122.92230,40.74600
1184,2018-08-19 09:35:00,101862.52,N,,,KO54 190935Z AUTO 00000KT 10SM FEW034 14/03 A3008 RMK AO1,,3.0,,,2.92,10.0,346.0,,0.0,1.0,93865.57,47.46,0.0,101758.91,14.0,KO54,2244,-122.92230,40.74600
1185,2018-08-19 09:55:00,101862.52,NNE,,,KO54 190955Z AUTO 03003KT 10SM CLR 14/03 A3008 RMK AO1,,3.0,,,2.92,10.0,1.0,,30.0,1.0,93865.57,47.46,1.54,101758.91,14.0,KO54,2244,-122.92230,40.74600
1186,2018-08-19 10:15:00,101862.52,N,,,KO54 191015Z AUTO 00000KT 10SM SCT034 13/03 A3008 RMK AO1,,3.0,,,2.92,10.0,342.0,,0.0,1.0,93865.57,50.65,0.0,101787.41,13.0,KO54,2244,-122.92230,40.74600
1187,2018-08-19 10:35:00,101862.52,N,,,KO54 191035Z AUTO 00000KT 10SM BKN034 13/03 A3008 RMK AO1,1036.32,3.0,,,2.92,10.0,343.0,,0.0,1.0,93865.57,50.65,0.0,101787.41,13.0,KO54,2244,-122.92230,40.74600
1188,2018-08-19 10:55:00,101862.52,N,,,KO54 191055Z AUTO 00000KT 10SM BKN034 13/03 A3008 RMK AO1,1036.32,3.0,,,2.92,10.0,343.0,,0.0,1.0,93865.57,50.65,0.0,101787.41,13.0,KO54,2244,-122.92230,40.74600
1189,2018-08-19 11:15:00,101862.52,N,,,KO54 191115Z AUTO 00000KT 10SM BKN034 13/03 A3008 RMK AO1,1036.32,3.0,,,2.92,10.0,343.0,,0.0,1.0,93865.57,50.65,0.0,101787.41,13.0,KO54,2244,-122.92230,40.74600
1190,2018-08-19 11:35:00,101862.52,NNE,,,KO54 191135Z AUTO 03003KT 10SM OVC032 12/03 A3008 RMK AO1,975.36,3.0,,,2.92,10.0,324.0,,30.0,1.0,93865.57,54.08,1.54,101816.11,12.0,KO54,2244,-122.92230,40.74600
1191,2018-08-19 11:55:00,101862.52,N,,,KO54 191155Z AUTO 00000KT 10SM BKN032 12/03 A3008 RMK AO1,975.36,3.0,,,2.92,10.0,323.0,,0.0,1.0,93865.57,54.08,0.0,101816.11,12.0,KO54,2244,-122.92230,40.74600
1192,2018-08-19 12:15:00,101862.52,N,,,KO54 191215Z AUTO 00000KT 10SM SCT032 BKN060 12/03 A3008 RMK AO1,1828.8,3.0,603.0,,2.92,10.0,322.0,,0.0,1.0,93865.57,54.08,0.0,101816.11,12.0,KO54,2244,-122.92230,40.74600
1193,2018-08-19 12:35:00,101862.52,NNE,,,KO54 191235Z AUTO 02003KT 10SM FEW034 BKN060 12/03 A3008 RMK AO1,1828.8,3.0,603.0,,2.92,10.0,346.0,,20.0,1.0,93865.57,54.08,1.54,101816.11,12.0,KO54,2244,-122.92230,40.74600
1194,2018-08-19 12:55:00,101862.52,N,,,KO54 191255Z AUTO 00000KT 10SM BKN060 11/03 A3008 RMK AO1,1828.8,3.0,,,2.92,10.0,603.0,,0.0,1.0,93865.57,57.78,0.0,101845.02,11.0,KO54,2244,-122.92230,40.74600
1195,2018-08-19 13:15:00,101862.52,N,,,KO54 191315Z AUTO 00000KT 10SM FEW034 BKN060 11/03 A3008 RMK AO1,1828.8,3.0,603.0,,2.92,10.0,346.0,,0.0,1.0,93865.57,57.78,0.0,101845.02,11.0,KO54,2244,-122.92230,40.74600
1196,2018-08-19 13:35:00,101896.38,N,,,KO54 191335Z AUTO 00000KT 9SM CLR 10/03 A3009 RMK AO1,,3.0,,,2.93,9.0,1.0,,0.0,1.0,93896.77,61.76,0.0,101908.0,10.0,KO54,2244,-122.92230,40.74600
1197,2018-08-19 13:55:00,101896.38,N,,,KO54 191355Z AUTO 00000KT 9SM CLR 11/03 A3009 RMK AO1,,3.0,,,2.92,9.0,1.0,,0.0,1.0,93896.77,57.78,0.0,101878.87,11.0,KO54,2244,-122.92230,40.74600
1198,2018-08-19 14:15:00,101896.38,N,,,KO54 191415Z AUTO 00000KT 9SM CLR 10/03 A3009 RMK AO1,,3.0,,,2.93,9.0,1.0,,0.0,1.0,93896.77,61.76,0.0,101908.0,10.0,KO54,2244,-122.92230,40.74600
1199,2018-08-19 14:35:00,101896.38,N,,,KO54 191435Z AUTO 00000KT 9SM CLR 12/03 A3009 RMK AO1,,3.0,,,2.92,9.0,1.0,,0.0,1.0,93896.77,54.08,0.0,101849.95,12.0,KO54,2244,-122.92230,40.74600
1200,2018-08-19 14:55:00,101896.38,N,,,KO54 191455Z AUTO 00000KT 9SM CLR 12/04 A3009 RMK AO1,,4.0,,,3.92,9.0,1.0,,0.0,1.0,93896.77,58.03,0.0,101849.93,12.0,KO54,2244,-122.92230,40.74600
1201,2018-08-19 15:15:00,101896.38,N,,,KO54 191515Z AUTO 00000KT 10SM CLR 14/05 A3009 RMK AO1,,5.0,,,4.93,10.0,1.0,,0.0,1.0,93896.77,54.62,0.0,101792.69,14.0,KO54,2244,-122.92230,40.74600
1202,2018-08-19 15:35:00,101896.38,N,,,KO54 191535Z AUTO 00000KT 9SM CLR 15/04 A3009 RMK AO1,,4.0,,,3.92,9.0,1.0,,0.0,1.0,93896.77,47.75,0.0,101764.41,15.0,KO54,2244,-122.92230,40.74600
1203,2018-08-19 15:55:00,101896.38,N,,,KO54 191555Z AUTO 00000KT 9SM CLR 16/03 A3009 RMK AO1,,3.0,,,2.92,9.0,1.0,,0.0,1.0,93896.77,41.73,0.0,101736.34,16.0,KO54,2244,-122.92230,40.74600
1204,2018-08-19 16:15:00,101896.38,N,,,KO54 191615Z AUTO 00000KT 10SM CLR 17/03 A3009 RMK AO1,,3.0,,,2.92,10.0,1.0,,0.0,1.0,93896.77,39.16,0.0,101708.44,17.0,KO54,2244,-122.92230,40.74600
1205,2018-08-19 16:35:00,101896.38,N,,,KO54 191635Z AUTO 00000KT 9SM CLR 19/03 A3009 RMK AO1,,3.0,,,2.94,9.0,1.0,,0.0,1.0,93896.77,34.54,0.0,101653.24,19.0,KO54,2244,-122.92230,40.74600
1206,2018-08-19 16:55:00,101862.52,SSW,,,KO54 191655Z AUTO 21003KT 9SM CLR 20/03 A3008 RMK AO1,,3.0,,,2.94,9.0,1.0,,210.0,1.0,93865.57,32.46,1.54,101592.16,20.0,KO54,2244,-122.92230,40.74600
1207,2018-08-19 17:15:00,101828.66,N,,,KO54 191715Z AUTO 00000KT 10SM CLR 21/03 A3007 RMK AO1,,3.0,,,2.96,10.0,1.0,,0.0,1.0,93834.36,30.53,0.0,101531.28,21.0,KO54,2244,-122.92230,40.74600
1208,2018-08-19 17:35:00,101828.66,N,,,KO54 191735Z AUTO 00000KT 9SM CLR 23/03 A3007 RMK AO1,,3.0,,,2.98,9.0,1.0,,0.0,1.0,93834.36,27.03,0.0,101477.64,23.0,KO54,2244,-122.92230,40.74600
1209,2018-08-19 17:55:00,101794.79,S,,,KO54 191755Z AUTO 18003KT 9SM CLR 24/02 A3006 RMK AO1,,2.0,,,2.0,9.0,1.0,,180.0,1.0,93803.15,23.7,1.54,101417.38,24.0,KO54,2244,-122.92230,40.74600
1210,2018-08-19 18:15:00,101760.93,N,,,KO54 191815Z AUTO 00000KT 8SM CLR 25/04 A3005 RMK AO1,,4.0,,,4.01,8.0,1.0,,0.0,1.0,93771.95,25.73,0.0,101357.26,25.0,KO54,2244,-122.92230,40.74600
1211,2018-08-19 18:35:00,101727.07,S,,,KO54 191835Z AUTO 19003KT 9SM CLR 27/04 A3004 RMK AO1,,4.0,,,4.04,9.0,1.0,26.35,190.0,1.0,93740.75,22.86,1.54,101271.42,27.0,KO54,2244,-122.92230,40.74600
