,altimeter_set_1,wind_cardinal_direction_set_1d,wind_gust_set_1,cloud_layer_3_code_set_1,heat_index_set_1d,wind_direction_set_1,sea_level_pressure_set_1d,cloud_layer_1_code_set_1,weather_condition_set_1d,visibility_set_1,pressure_set_1d,metar_set_1,cloud_layer_2_code_set_1,relative_humidity_set_1,wind_speed_set_1,air_temp_set_1,date_time,ceiling_set_1,dew_point_temperature_set_1,dew_point_temperature_set_1d,metar_origin_set_1,weather_cond_code_set_1,_meta_station_id,_meta_elevation,_meta_longitude,_meta_latitude
0,102370.48,W,,,26.71,270.0,100578.86,1.0,Clear,10.0,82341.0,KTRK 010115Z AUTO 27010KT 10SM CLR 28/02 A3023 RMK AO2 LTG DSNT  SE,,18.72,5.14,28.0,2018-08-01 01:15:00,,2.0,2.07,1.0,,KTRK,5899,-120.13333,39.31667
1,102370.48,W,,,26.78,270.0,100578.74,1202.0,Partly Cloudy,10.0,82341.0,KTRK 010130Z 27006KT 10SM SCT120 28/04 A3023 FU,,21.57,3.09,28.0,2018-08-01 01:30:00,,4.0,4.06,1.0,,KTRK,5899,-120.13333,39.31667
2,102370.48,W,,,26.75,260.0,100578.8,1.0,Clear,10.0,82341.0,KTRK 010135Z AUTO 26008KT 10SM CLR 28/03 A3023 RMK AO2 LTG DSNT  SE,,20.1,4.12,28.0,2018-08-01 01:35:00,,3.0,3.07,1.0,,KTRK,5899,-120.13333,39.31667
3,102370.48,W,,,26.4,260.0,100644.45,1.0,Clear,10.0,82341.0,KTRK 010155Z AUTO 26008KT 10SM CLR 27/05 A3023 RMK AO2 LTG DSNT  SE,,24.52,4.12,27.0,2018-08-01 01:55:00,,5.0,5.04,1.0,,KTRK,5899,-120.13333,39.31667
4,102370.48,W,,,,270.0,100710.7,1202.0,Partly Cloudy,10.0,82341.0,KTRK 010215Z AUTO 27008KT 10SM SCT120 26/05 A3023 RMK AO2,,26.0,4.12,26.0,2018-08-01 02:15:00,,5.0,5.02,1.0,,KTRK,5899,-120.13333,39.31667
5,102438.21,WSW,,,,250.0,100777.34,1202.0,Partly Cloudy,10.0,82395.48,KTRK 010235Z AUTO 25005KT 10SM SCT120 26/05 A3025 RMK AO2,,26.0,2.57,26.0,2018-08-01 02:35:00,,5.0,5.02,1.0,,KTRK,5899,-120.13333,39.31667
6,102438.21,W,,,,260.0,100777.26,1202.0,Partly Cloudy,10.0,82395.48,KTRK 010255Z AUTO 26005KT 10SM SCT120 26/06 A3025 RMK AO2,,27.87,2.57,26.0,2018-08-01 02:55:00,,6.0,6.01,1.0,,KTRK,5899,-120.13333,39.31667
7,102438.21,W,,,,260.0,100844.04,1202.0,Partly Cloudy,10.0,82395.48,KTRK 010315Z AUTO 26005KT 10SM SCT120 25/06 A3025 RMK AO2,,29.57,2.57,25.0,2018-08-01 03:15:00,,6.0,6.0,1.0,,KTRK,5899,-120.13333,39.31667
8,102438.21,W,,,,270.0,100911.31,1202.0,Partly Cloudy,10.0,82395.48,KTRK 010335Z AUTO 27004KT 10SM SCT120 24/06 A3025 RMK AO2,,31.39,2.06,24.0,2018-08-01 03:35:00,,6.0,5.99,1.0,,KTRK,5899,-120.13333,39.31667
9,102438.21,N,,,,0.0,101116.07,1103.0,Mostly Cloudy,10.0,82395.48,KTRK 010355Z AUTO 00000KT 10SM BKN110 21/06 A3025 RMK AO2,,37.66,0.0,21.0,2018-08-01 03:55:00,3352.8,6.0,5.96,1.0,,KTRK,5899,-120.13333,39.31667
10,102472.07,ESE,,,,120.0,101218.78,1103.0,Mostly Cloudy,10.0,82422.71,KTRK 010415Z AUTO 12006KT 10SM BKN110 20/06 A3026 RMK AO2,,40.05,3.09,20.0,2018-08-01 04:15:00,3352.8,6.0,5.95,1.0,,KTRK,5899,-120.13333,39.31667
11,102505.93,N,,,,0.0,101322.05,1.0,Clear,10.0,82449.95,KTRK 010435Z AUTO 00000KT 10SM CLR 19/06 A3027 RMK AO2,,42.61,0.0,19.0,2018-08-01 04:35:00,,6.0,5.94,1.0,,KTRK,5899,-120.13333,39.31667
12,102539.8,N,,,,0.0,101355.52,1203.0,Mostly Cloudy,10.0,82477.19,KTRK 010455Z AUTO 00000KT 10SM BKN120 19/06 A3028 RMK AO2,,42.61,0.0,19.0,2018-08-01 04:55:00,3657.6,6.0,5.94,1.0,,KTRK,5899,-120.13333,39.31667
13,102539.8,N,,,,0.0,101425.8,1204.0,Overcast,10.0,82477.19,KTRK 010515Z AUTO 00000KT 10SM OVC120 18/07 A3028 RMK AO2,,48.59,0.0,18.0,2018-08-01 05:15:00,3657.6,7.0,6.94,1.0,,KTRK,5899,-120.13333,39.31667
14,102539.8,S,,,,180.0,101425.8,1204.0,Overcast,7.0,82477.19,KTRK 010535Z AUTO 18003KT 7SM OVC120 18/07 A3028 RMK AO2,,48.59,1.54,18.0,2018-08-01 05:35:00,3657.6,7.0,6.94,1.0,,KTRK,5899,-120.13333,39.31667
15,102539.8,E,,,,100.0,101496.69,1203.0,Mostly Cloudy,10.0,82477.19,KTRK 010555Z AUTO 10003KT 10SM BKN120 17/07 A3028 RMK AO2,,51.76,1.54,17.0,2018-08-01 05:55:00,3657.6,7.0,6.94,1.0,,KTRK,5899,-120.13333,39.31667
16,102539.8,N,,,,0.0,101425.8,1202.0,Partly Cloudy,10.0,82477.19,KTRK 010615Z AUTO 00000KT 10SM SCT120 18/07 A3028 RMK AO2 LTG DSNT  SE,,48.59,0.0,18.0,2018-08-01 06:15:00,,7.0,6.94,1.0,,KTRK,5899,-120.13333,39.31667
17,102539.8,N,,,,0.0,101496.69,1.0,Clear,10.0,82477.19,KTRK 010635Z AUTO 00000KT 10SM CLR 17/07 A3028 RMK AO2 LTG DSNT  SE,,51.76,0.0,17.0,2018-08-01 06:35:00,,7.0,6.94,1.0,,KTRK,5899,-120.13333,39.31667
18,102539.8,N,,,,0.0,101640.06,1.0,Clear,10.0,82477.19,KTRK 010655Z AUTO 00000KT 10SM CLR 15/07 A3028 RMK AO2,,58.8,0.0,15.0,2018-08-01 06:55:00,,7.0,6.94,1.0,,KTRK,5899,-120.13333,39.31667
19,102539.8,N,,,,0.0,101568.11,1.0,Clear,10.0,82477.19,KTRK 010715Z AUTO 00000KT 10SM CLR 16/07 A3028 RMK AO2,,55.15,0.0,16.0,2018-08-01 07:15:00,,7.0,6.94,1.0,,KTRK,5899,-120.13333,39.31667
20,102539.8,N,,,,0.0,101640.06,1.0,Clear,10.0,82477.19,KTRK 010735Z AUTO 00000KT 10SM CLR 15/07 A3028 RMK AO2,,58.8,0.0,15.0,2018-08-01 07:35:00,,7.0,6.94,1.0,,KTRK,5899,-120.13333,39.31667
21,102539.8,N,,,,0.0,101712.56,1.0,Clear,10.0,82477.19,KTRK 010755Z AUTO 00000KT 10SM CLR 14/07 A3028 RMK AO2,,62.72,0.0,14.0,2018-08-01 07:55:00,,7.0,6.94,1.0,,KTRK,5899,-120.13333,39.31667
22,102539.8,N,,,,0.0,101712.56,1202.0,Partly Cloudy,10.0,82477.19,KTRK 010815Z AUTO 00000KT 10SM SCT120 14/07 A3028 RMK AO2,,62.72,0.0,14.0,2018-08-01 08:15:00,,7.0,6.94,1.0,,KTRK,5899,-120.13333,39.31667
23,102539.8,N,,,,0.0,101785.6,1202.0,Partly Cloudy,10.0,82477.19,KTRK 010835Z AUTO 00000KT 10SM SCT120 13/07 A3028 RMK AO2,,66.93,0.0,13.0,2018-08-01 08:35:00,,7.0,6.94,1.0,,KTRK,5899,-120.13333,39.31667
24,102505.93,N,,,,0.0,101678.97,1.0,Clear,10.0,82449.95,KTRK 010855Z AUTO 00000KT 10SM CLR 14/07 A3027 RMK AO2,,62.72,0.0,14.0,2018-08-01 08:55:00,,7.0,6.94,1.0,,KTRK,5899,-120.13333,39.31667
25,102505.93,N,,,,0.0,101606.49,482.0,Partly Cloudy,10.0,82449.95,KTRK 010915Z AUTO 00000KT 10SM SCT048 15/07 A3027 RMK AO2,,58.8,0.0,15.0,2018-08-01 09:15:00,,7.0,6.94,1.0,,KTRK,5899,-120.13333,39.31667
26,102505.93,N,,,,0.0,101825.65,1.0,Clear,10.0,82449.95,KTRK 010935Z AUTO 00000KT 10SM CLR 12/06 A3027 RMK AO2,,66.71,0.0,12.0,2018-08-01 09:35:00,,6.0,5.94,1.0,,KTRK,5899,-120.13333,39.31667
27,102505.93,N,,,,0.0,101825.65,502.0,Partly Cloudy,10.0,82449.95,KTRK 010955Z AUTO 00000KT 10SM SCT050 SCT120 12/06 A3027 RMK AO2,1202.0,66.71,0.0,12.0,2018-08-01 09:55:00,,6.0,5.94,1.0,,KTRK,5899,-120.13333,39.31667
28,102505.93,N,,,,0.0,101825.56,502.0,Partly Cloudy,10.0,82449.95,KTRK 011015Z AUTO 00000KT 10SM SCT050 SCT120 12/07 A3027 RMK AO2,1202.0,71.47,0.0,12.0,2018-08-01 10:15:00,,7.0,6.95,1.0,,KTRK,5899,-120.13333,39.31667
29,102505.93,N,,,,0.0,101678.97,502.0,Partly Cloudy,10.0,82449.95,KTRK 011035Z AUTO 00000KT 10SM SCT050 SCT120 14/07 A3027 RMK AO2,1202.0,62.72,0.0,14.0,2018-08-01 10:35:00,,7.0,6.94,1.0,,KTRK,5899,-120.13333,39.31667
30,102505.93,N,,,,0.0,101825.56,1.0,Clear,10.0,82449.95,KTRK 011055Z AUTO 00000KT 10SM CLR 12/07 A3027 RMK AO2,,71.47,0.0,12.0,2018-08-01 10:55:00,,7.0,6.95,1.0,,KTRK,5899,-120.13333,39.31667
31,102472.07,N,,,,0.0,101792.01,1.0,Clear,10.0,82422.71,KTRK 011115Z AUTO 00000KT 10SM CLR 12/06 A3026 RMK AO2,,66.71,0.0,12.0,2018-08-01 11:15:00,,6.0,5.94,1.0,,KTRK,5899,-120.13333,39.31667
32,102472.07,N,,,,0.0,101791.92,1.0,Clear,10.0,82422.71,KTRK 011135Z AUTO 00000KT 10SM CLR 12/07 A3026 RMK AO2,,71.47,0.0,12.0,2018-08-01 11:35:00,,7.0,6.95,1.0,,KTRK,5899,-120.13333,39.31667
33,102472.07,N,,,,0.0,101866.12,1.0,Clear,10.0,82422.71,KTRK 011155Z AUTO 00000KT 10SM CLR 11/06 A3026 RMK AO2,,71.27,0.0,11.0,2018-08-01 11:55:00,,6.0,5.95,1.0,,KTRK,5899,-120.13333,39.31667
34,102505.93,N,,,,0.0,101899.79,1.0,Clear,10.0,82449.95,KTRK 011215Z AUTO 00000KT 10SM CLR 11/06 A3027 RMK AO2,,71.27,0.0,11.0,2018-08-01 12:15:00,,6.0,5.95,1.0,,KTRK,5899,-120.13333,39.31667
35,102505.93,N,,,,0.0,101899.7,1.0,Clear,10.0,82449.95,KTRK 011235Z AUTO 00000KT 10SM CLR 11/07 A3027 RMK AO2,,76.35,0.0,11.0,2018-08-01 12:35:00,,7.0,6.96,1.0,,KTRK,5899,-120.13333,39.31667
36,102505.93,N,,,,0.0,101974.41,1.0,Clear,10.0,82449.95,KTRK 011255Z AUTO 00000KT 10SM CLR 10/07 A3027 RMK AO2,,81.61,0.0,10.0,2018-08-01 12:55:00,,7.0,6.97,1.0,,KTRK,5899,-120.13333,39.31667
37,102539.8,N,,,,0.0,102008.1,1.0,Clear,7.0,82477.19,KTRK 011315Z AUTO 00000KT 7SM CLR 10/07 A3028 RMK AO2,,81.61,0.0,10.0,2018-08-01 13:15:00,,7.0,6.97,1.0,,KTRK,5899,-120.13333,39.31667
38,102539.8,N,,,,0.0,102008.1,1.0,Clear,10.0,82477.19,KTRK 011335Z AUTO 00000KT 10SM CLR 10/07 A3028 RMK AO2,,81.61,0.0,10.0,2018-08-01 13:35:00,,7.0,6.97,1.0,,KTRK,5899,-120.13333,39.31667
39,102539.8,N,,,,0.0,102008.1,166.0,Mostly Clear,10.0,82477.19,KTRK 011345Z 00000KT 10SM FEW016 10/07 A3028 FU,,81.61,0.0,10.0,2018-08-01 13:45:00,,7.0,6.97,1.0,,KTRK,5899,-120.13333,39.31667
40,102539.8,N,,,,0.0,101785.52,1.0,Clear,10.0,82477.19,KTRK 011445Z 00000KT 10SM SKC 13/08 A3028 FU,,71.66,0.0,13.0,2018-08-01 14:45:00,,8.0,7.95,1.0,,KTRK,5899,-120.13333,39.31667
41,102573.66,N,,,,0.0,101530.12,1.0,Clear,10.0,82504.43,KTRK 011545Z 00000KT 10SM SKC 17/08 A3029 FU,,55.41,0.0,17.0,2018-08-01 15:45:00,,8.0,7.94,1.0,,KTRK,5899,-120.13333,39.31667
42,102505.93,N,,,,0.0,101113.95,1.0,Clear,10.0,82449.95,KTRK 011700Z 00000KT 10SM SKC 22/08 A3027 FU,,40.63,0.0,22.0,2018-08-01 17:00:00,,8.0,7.97,1.0,,KTRK,5899,-120.13333,39.31667
43,102505.93,NNE,,,26.75,20.0,100711.88,1.0,Clear,10.0,82449.95,KTRK 011755Z 02003KT 10SM SKC 28/03 A3027 FU,,20.1,1.54,28.0,2018-08-01 17:55:00,,3.0,3.07,1.0,,KTRK,5899,-120.13333,39.31667
44,102438.21,W,,,28.08,270.0,100515.37,1.0,Clear,10.0,82395.48,KTRK 011955Z 27010KT 10SM SKC 30/M02 A3025 FU,,12.47,5.14,30.0,2018-08-01 19:55:00,,-2.0,-1.85,1.0,,KTRK,5899,-120.13333,39.31667
45,102404.34,WSW,9.77,,28.94,250.0,100417.58,1.0,Clear,10.0,82368.24,KTRK 012055Z 25011G19KT 10SM SKC 31/01 A3024 FU,,14.66,5.66,31.0,2018-08-01 20:55:00,,1.0,1.15,1.0,,KTRK,5899,-120.13333,39.31667
46,102336.62,WSW,7.72,,28.94,250.0,100351.17,1.0,Clear,10.0,82313.77,KTRK 012255Z 25010G15KT 10SM SKC 31/01 A3022 FU,,14.66,5.14,31.0,2018-08-01 22:55:00,,1.0,1.15,1.0,,KTRK,5899,-120.13333,39.31667
47,102336.62,W,9.77,,28.14,280.0,100415.6,1.0,Clear,10.0,82313.77,KTRK 012355Z 28010G19KT 10SM SKC 30/00 A3022 FU,,14.44,5.14,30.0,2018-08-01 23:55:00,,0.0,0.13,1.0,,KTRK,5899,-120.13333,39.31667
48,102302.75,W,,,27.38,270.0,100447.16,1.0,Clear,10.0,82286.52,KTRK 020045Z 27011KT 10SM SKC 29/00 A3021 FU,,15.29,5.66,29.0,2018-08-02 00:45:00,,0.0,0.11,1.0,,KTRK,5899,-120.13333,39.31667
49,102302.75,W,7.2,,26.67,270.0,100512.43,1.0,Clear,10.0,82286.52,KTRK 020115Z AUTO 27007G14KT 10SM CLR 28/00 A3021 RMK AO2 LTG DSNT  SE,,16.2,3.6,28.0,2018-08-02 01:15:00,,0.0,0.08,1.0,,KTRK,5899,-120.13333,39.31667
50,102302.75,WSW,,,26.2,250.0,100578.17,1.0,Thunder,10.0,82286.52,KTRK 020135Z AUTO 25009KT 10SM VCTS CLR 27/00 A3021 RMK AO2 LTG  DSNT SE,,17.18,4.63,27.0,2018-08-02 01:35:00,,0.0,0.06,1.0,5.0,KTRK,5899,-120.13333,39.31667
51,102302.75,W,,,26.2,260.0,100578.17,1.0,Clear,10.0,82286.52,KTRK 020155Z AUTO 26008KT 10SM CLR 27/00 A3021 RMK AO2 LTG DSNT  E,,17.18,4.12,27.0,2018-08-02 01:55:00,,0.0,0.06,1.0,,KTRK,5899,-120.13333,39.31667
52,102336.62,WSW,,,,250.0,100677.71,1.0,Clear,10.0,82313.77,KTRK 020215Z AUTO 25008KT 10SM CLR 26/00 A3022 RMK AO2 LTG DSNT  SE,,18.22,4.12,26.0,2018-08-02 02:15:00,,0.0,0.04,1.0,,KTRK,5899,-120.13333,39.31667
53,102336.62,WSW,,,,250.0,100744.43,1.0,Clear,10.0,82313.77,KTRK 020235Z AUTO 25006KT 10SM CLR 25/00 A3022 RMK AO2,,19.33,3.09,25.0,2018-08-02 02:35:00,,0.0,0.02,1.0,,KTRK,5899,-120.13333,39.31667
54,102370.48,W,,,,270.0,100844.92,1.0,Clear,10.0,82341.0,KTRK 020255Z AUTO 27003KT 10SM CLR 24/01 A3023 RMK AO2,,22.06,1.54,24.0,2018-08-02 02:55:00,,1.0,1.0,1.0,,KTRK,5899,-120.13333,39.31667
55,102370.48,W,,,,260.0,100912.63,1.0,Clear,10.0,82341.0,KTRK 020315Z AUTO 26005KT 10SM CLR 23/01 A3023 RMK AO2,,23.43,2.57,23.0,2018-08-02 03:15:00,,1.0,0.99,1.0,,KTRK,5899,-120.13333,39.31667
56,102370.48,W,,,,260.0,100980.84,1.0,Clear,10.0,82341.0,KTRK 020335Z AUTO 26005KT 10SM CLR 22/01 A3023 RMK AO2,,24.89,2.57,22.0,2018-08-02 03:35:00,,1.0,0.97,1.0,,KTRK,5899,-120.13333,39.31667
57,102370.48,ESE,,,,110.0,101258.75,1.0,Clear,10.0,82341.0,KTRK 020355Z AUTO 11005KT 10SM CLR 18/01 A3023 RMK AO2,,31.88,2.57,18.0,2018-08-02 03:55:00,,1.0,0.93,1.0,,KTRK,5899,-120.13333,39.31667
58,102370.48,SE,,,,130.0,101329.58,1.0,Clear,10.0,82341.0,KTRK 020415Z AUTO 13005KT 10SM CLR 17/00 A3023 RMK AO2,,31.58,2.57,17.0,2018-08-02 04:15:00,,0.0,-0.08,1.0,,KTRK,5899,-120.13333,39.31667
59,102438.21,SSE,,,,160.0,101396.62,1.0,Clear,10.0,82395.48,KTRK 020435Z AUTO 16003KT 10SM CLR 17/00 A3025 RMK AO2,,31.58,1.54,17.0,2018-08-02 04:35:00,,0.0,-0.08,1.0,,KTRK,5899,-120.13333,39.31667
60,102438.21,SE,,,,130.0,101539.85,1.0,Clear,10.0,82395.48,KTRK 020455Z AUTO 13004KT 10SM CLR 15/00 A3025 RMK AO2,,35.88,2.06,15.0,2018-08-02 04:55:00,,0.0,-0.09,1.0,,KTRK,5899,-120.13333,39.31667
61,102438.21,S,,,,170.0,101612.22,1.0,Clear,10.0,82395.48,KTRK 020515Z AUTO 17003KT 10SM CLR 14/01 A3025 RMK AO2,,41.14,1.54,14.0,2018-08-02 05:15:00,,1.0,0.91,1.0,,KTRK,5899,-120.13333,39.31667
62,102438.21,N,,,,0.0,101539.8,1.0,Clear,10.0,82395.48,KTRK 020535Z AUTO 00000KT 10SM CLR 15/01 A3025 RMK AO2,,38.57,0.0,15.0,2018-08-02 05:35:00,,1.0,0.91,1.0,,KTRK,5899,-120.13333,39.31667
63,102438.21,SW,,,,230.0,101612.22,1.0,Clear,10.0,82395.48,KTRK 020555Z AUTO 23003KT 10SM CLR 14/01 A3025 RMK AO2,,41.14,1.54,14.0,2018-08-02 05:55:00,,1.0,0.91,1.0,,KTRK,5899,-120.13333,39.31667
64,102438.21,N,,,,0.0,101758.73,1.0,Clear,10.0,82395.48,KTRK 020615Z AUTO 00000KT 10SM CLR 12/01 A3025 RMK AO2 LTG DSNT  S,,46.88,0.0,12.0,2018-08-02 06:15:00,,1.0,0.9,1.0,,KTRK,5899,-120.13333,39.31667
65,102438.21,N,,,,0.0,101832.88,1.0,Clear,10.0,82395.48,KTRK 020635Z AUTO 00000KT 10SM CLR 11/00 A3025 RMK AO2 LTG DSNT  SE,,46.59,0.0,11.0,2018-08-02 06:35:00,,0.0,-0.1,1.0,,KTRK,5899,-120.13333,39.31667
66,102438.21,N,,,,0.0,101758.73,1.0,Clear,10.0,82395.48,KTRK 020655Z AUTO 00000KT 10SM CLR 12/01 A3025 RMK AO2,,46.88,0.0,12.0,2018-08-02 06:55:00,,1.0,0.9,1.0,,KTRK,5899,-120.13333,39.31667
67,102438.21,N,,,,0.0,101758.73,1.0,Clear,10.0,82395.48,KTRK 020715Z AUTO 00000KT 10SM CLR 12/01 A3025 RMK AO2,,46.88,0.0,12.0,2018-08-02 07:15:00,,1.0,0.9,1.0,,KTRK,5899,-120.13333,39.31667
68,102438.21,N,,,,0.0,101758.79,1.0,Clear,10.0,82395.48,KTRK 020735Z AUTO 00000KT 10SM CLR 12/00 A3025 RMK AO2,,43.61,0.0,12.0,2018-08-02 07:35:00,,0.0,-0.1,1.0,,KTRK,5899,-120.13333,39.31667
69,102438.21,N,,,,0.0,101832.88,1.0,Clear,10.0,82395.48,KTRK 020755Z AUTO 00000KT 10SM CLR 11/00 A3025 RMK AO2,,46.59,0.0,11.0,2018-08-02 07:55:00,,0.0,-0.1,1.0,,KTRK,5899,-120.13333,39.31667
70,102438.21,N,,,,0.0,101907.54,1.0,Clear,10.0,82395.48,KTRK 020815Z AUTO 00000KT 10SM CLR 10/00 A3025 RMK AO2,,49.8,0.0,10.0,2018-08-02 08:15:00,,0.0,-0.1,1.0,,KTRK,5899,-120.13333,39.31667
71,102438.21,N,,,,0.0,101832.88,1.0,Clear,10.0,82395.48,KTRK 020835Z AUTO 00000KT 10SM CLR 11/00 A3025 RMK AO2,,46.59,0.0,11.0,2018-08-02 08:35:00,,0.0,-0.1,1.0,,KTRK,5899,-120.13333,39.31667
72,102438.21,N,,,,0.0,101907.54,1.0,Clear,10.0,82395.48,KTRK 020855Z AUTO 00000KT 10SM CLR 10/00 A3025 RMK AO2,,49.8,0.0,10.0,2018-08-02 08:55:00,,0.0,-0.1,1.0,,KTRK,5899,-120.13333,39.31667
73,102438.21,N,,,,0.0,101907.54,1.0,Clear,10.0,82395.48,KTRK 020915Z AUTO 00000KT 10SM CLR 10/00 A3025 RMK AO2,,49.8,0.0,10.0,2018-08-02 09:15:00,,0.0,-0.1,1.0,,KTRK,5899,-120.13333,39.31667
74,102438.21,N,,,,0.0,101907.54,1.0,Clear,10.0,82395.48,KTRK 020935Z AUTO 00000KT 10SM CLR 10/00 A3025 RMK AO2,,49.8,0.0,10.0,2018-08-02 09:35:00,,0.0,-0.1,1.0,,KTRK,5899,-120.13333,39.31667
75,102438.21,N,,,,0.0,102058.58,1.0,Clear,10.0,82395.48,KTRK 020955Z AUTO 00000KT 10SM CLR 08/00 A3025 RMK AO2,,56.99,0.0,8.0,2018-08-02 09:55:00,,0.0,-0.09,1.0,,KTRK,5899,-120.13333,39.31667
76,102404.34,N,,,,0.0,102024.84,1.0,Clear,10.0,82368.24,KTRK 021015Z AUTO 00000KT 10SM CLR 08/00 A3024 RMK AO2,,56.99,0.0,8.0,2018-08-02 10:15:00,,0.0,-0.09,1.0,,KTRK,5899,-120.13333,39.31667
77,102404.34,N,,,,0.0,102024.84,1.0,Clear,10.0,82368.24,KTRK 021035Z AUTO 00000KT 10SM CLR 08/00 A3024 RMK AO2,,56.99,0.0,8.0,2018-08-02 10:35:00,,0.0,-0.09,1.0,,KTRK,5899,-120.13333,39.31667
78,102370.48,N,,,,0.0,101991.1,1.0,Clear,10.0,82341.0,KTRK 021055Z AUTO 00000KT 10SM CLR 08/00 A3023 RMK AO2,,56.99,0.0,8.0,2018-08-02 10:55:00,,0.0,-0.09,1.0,,KTRK,5899,-120.13333,39.31667
79,102370.48,N,,,,0.0,101840.15,1.0,Clear,10.0,82341.0,KTRK 021115Z AUTO 00000KT 10SM CLR 10/00 A3023 RMK AO2,,49.8,0.0,10.0,2018-08-02 11:15:00,,0.0,-0.1,1.0,,KTRK,5899,-120.13333,39.31667
80,102370.48,N,,,,0.0,101991.1,1.0,Clear,10.0,82341.0,KTRK 021135Z AUTO 00000KT 10SM CLR 08/00 A3023 RMK AO2,,56.99,0.0,8.0,2018-08-02 11:35:00,,0.0,-0.09,1.0,,KTRK,5899,-120.13333,39.31667
81,102370.48,N,,,,0.0,102144.39,1.0,Clear,10.0,82341.0,KTRK 021155Z AUTO 00000KT 10SM CLR 06/00 A3023 RMK AO2,,65.37,0.0,6.0,2018-08-02 11:55:00,,0.0,-0.08,1.0,,KTRK,5899,-120.13333,39.31667
82,102370.48,N,,,,0.0,102144.39,1.0,Clear,10.0,82341.0,KTRK 021215Z AUTO 00000KT 10SM CLR 06/00 A3023 RMK AO2,,65.37,0.0,6.0,2018-08-02 12:15:00,,0.0,-0.08,1.0,,KTRK,5899,-120.13333,39.31667
83,102370.48,N,,,,0.0,102067.5,1.0,Clear,10.0,82341.0,KTRK 021235Z AUTO 00000KT 10SM CLR 07/M01 A3023 RMK AO2,,56.72,0.0,7.0,2018-08-02 12:35:00,,-1.0,-1.09,1.0,,KTRK,5899,-120.13333,39.31667
84,102370.48,N,,,,0.0,102144.39,1.0,Clear,10.0,82341.0,KTRK 021255Z AUTO 00000KT 10SM CLR 06/00 A3023 RMK AO2,,65.37,0.0,6.0,2018-08-02 12:55:00,,0.0,-0.08,1.0,,KTRK,5899,-120.13333,39.31667
85,102404.34,N,,,,0.0,102024.89,1.0,Clear,10.0,82368.24,KTRK 021315Z AUTO 00000KT 10SM CLR 08/M01 A3024 RMK AO2,,52.98,0.0,8.0,2018-08-02 13:15:00,,-1.0,-1.1,1.0,,KTRK,5899,-120.13333,39.31667
86,102404.34,N,,,,0.0,102255.75,1.0,Clear,10.0,82368.24,KTRK 021335Z AUTO 00000KT 10SM CLR 05/00 A3024 RMK AO2,,70.06,0.0,5.0,2018-08-02 13:35:00,,0.0,-0.07,1.0,,KTRK,5899,-120.13333,39.31667
87,102404.34,N,,,,0.0,102178.24,1806.0,Mostly Clear,10.0,82368.24,KTRK 021345Z 00000KT 10SM FEW180 06/M01 A3024,,60.77,0.0,6.0,2018-08-02 13:45:00,,-1.0,-1.09,1.0,,KTRK,5899,-120.13333,39.31667
88,102438.21,N,,,,0.0,101832.88,1806.0,Mostly Clear,10.0,82395.48,KTRK 021445Z 00000KT 10SM FEW180 11/00 A3025,,46.59,0.0,11.0,2018-08-02 14:45:00,,0.0,-0.1,1.0,,KTRK,5899,-120.13333,39.31667
89,102404.34,N,,,,0.0,101363.1,1806.0,Mostly Clear,10.0,82368.24,KTRK 021600Z 00000KT 10SM FEW180 17/00 A3024,,31.58,0.0,17.0,2018-08-02 16:00:00,,0.0,-0.08,1.0,,KTRK,5899,-120.13333,39.31667
90,102370.48,N,,,,0.0,101049.55,1.0,Clear,10.0,82341.0,KTRK 021645Z 00000KT 10SM SKC 21/01 A3023,,26.46,0.0,21.0,2018-08-02 16:45:00,,1.0,0.96,1.0,,KTRK,5899,-120.13333,39.31667
91,102370.48,N,,,26.12,0.0,100644.9,1.0,Clear,10.0,82341.0,KTRK 021745Z 00000KT 10SM SKC 27/M03 A3023,,13.78,0.0,27.0,2018-08-02 17:45:00,,-3.0,-2.91,1.0,,KTRK,5899,-120.13333,39.31667
92,102370.48,WSW,7.72,,26.99,240.0,100513.99,1.0,Clear,10.0,82341.0,KTRK 021845Z 24011G15KT 10SM SKC 29/M08 A3023,,8.38,5.66,29.0,2018-08-02 18:45:00,,-8.0,-7.8,1.0,,KTRK,5899,-120.13333,39.31667
93,102370.48,W,9.26,,26.99,260.0,100513.99,1.0,Clear,10.0,82341.0,KTRK 021945Z 26011G18KT 10SM SKC 29/M08 A3023,,8.38,5.66,29.0,2018-08-02 19:45:00,,-8.0,-7.8,1.0,,KTRK,5899,-120.13333,39.31667
94,102336.62,W,10.29,,27.04,270.0,100480.72,1.0,Clear,10.0,82313.77,KTRK 022055Z 27013G20KT 10SM SKC 29/M07 A3022,,9.06,6.69,29.0,2018-08-02 20:55:00,,-7.0,-6.81,1.0,,KTRK,5899,-120.13333,39.31667
95,102302.75,SSW,8.23,,27.92,210.0,100382.54,1.0,Clear,10.0,82286.52,KTRK 022155Z 21012G16KT 10SM SKC 30/M04 A3021,,10.74,6.17,30.0,2018-08-02 21:55:00,,-4.0,-3.83,1.0,,KTRK,5899,-120.13333,39.31667
96,102268.89,SW,8.75,,27.92,230.0,100349.32,1.0,Clear,10.0,82259.29,KTRK 022245Z 23011G17KT 10SM SKC 30/M04 A3020,,10.74,5.66,30.0,2018-08-02 22:45:00,,-4.0,-3.83,1.0,,KTRK,5899,-120.13333,39.31667
97,102235.02,WSW,8.75,,27.3,250.0,100380.8,1.0,Clear,10.0,82232.04,KTRK 022350Z 25011G17KT 10SM SKC 29/M03 A3019,,12.26,5.66,29.0,2018-08-02 23:50:00,,-3.0,-2.87,1.0,,KTRK,5899,-120.13333,39.31667
98,102235.02,W,8.75,,26.12,260.0,100511.72,1.0,Clear,10.0,82232.04,KTRK 030115Z AUTO 26009G17KT 240V300 10SM CLR 27/M03 A3019 RMK AO2,,13.78,4.63,27.0,2018-08-03 01:15:00,,-3.0,-2.91,1.0,,KTRK,5899,-120.13333,39.31667
99,102201.16,WSW,8.75,,,250.0,100544.59,1.0,Clear,10.0,82204.81,KTRK 030135Z AUTO 25010G17KT 10SM CLR 26/M03 A3018 RMK AO2,,14.61,5.14,26.0,2018-08-03 01:35:00,,-3.0,-2.94,1.0,,KTRK,5899,-120.13333,39.31667
100,102167.3,WSW,7.2,,,240.0,100511.22,1.0,Clear,10.0,82177.57,KTRK 030155Z AUTO 24007G14KT 10SM CLR 26/M02 A3017 RMK AO2,,15.74,3.6,26.0,2018-08-03 01:55:00,,-2.0,-1.94,1.0,,KTRK,5899,-120.13333,39.31667
101,102201.16,WSW,,,,240.0,100611.12,1.0,Clear,10.0,82204.81,KTRK 030215Z AUTO 24006KT 10SM CLR 25/M01 A3018 RMK AO2,,17.97,3.09,25.0,2018-08-03 02:15:00,,-1.0,-0.97,1.0,,KTRK,5899,-120.13333,39.31667
102,102201.16,WSW,,,,240.0,100745.83,1.0,Clear,10.0,82204.81,KTRK 030235Z AUTO 24006KT 10SM CLR 23/M01 A3018 RMK AO2,,20.26,3.09,23.0,2018-08-03 02:35:00,,-1.0,-1.01,1.0,,KTRK,5899,-120.13333,39.31667
103,102235.02,WSW,,,,240.0,100847.37,1.0,Clear,10.0,82232.04,KTRK 030255Z AUTO 24006KT 10SM CLR 22/M02 A3019 RMK AO2,,20.0,3.09,22.0,2018-08-03 02:55:00,,-2.0,-2.02,1.0,,KTRK,5899,-120.13333,39.31667
104,102235.02,WSW,,,,250.0,100916.04,1.0,Clear,10.0,82232.04,KTRK 030315Z AUTO 25006KT 10SM CLR 21/M03 A3019 RMK AO2,,19.74,3.09,21.0,2018-08-03 03:15:00,,-3.0,-3.03,1.0,,KTRK,5899,-120.13333,39.31667
105,102235.02,WSW,,,,250.0,100915.99,1.0,Clear,10.0,82232.04,KTRK 030335Z AUTO 25009KT 10SM CLR 21/M02 A3019 RMK AO2,,21.26,4.63,21.0,2018-08-03 03:35:00,,-2.0,-2.03,1.0,,KTRK,5899,-120.13333,39.31667
106,102235.02,SW,,,,220.0,101124.91,1.0,Clear,10.0,82232.04,KTRK 030355Z AUTO 22007KT 10SM CLR 18/M02 A3019 RMK AO2,,25.61,3.6,18.0,2018-08-03 03:55:00,,-2.0,-2.07,1.0,,KTRK,5899,-120.13333,39.31667
107,102268.89,SSW,,,,210.0,101229.13,1.0,Clear,10.0,82259.29,KTRK 030415Z AUTO 21003KT 10SM CLR 17/M02 A3020 RMK AO2,,27.28,1.54,17.0,2018-08-03 04:15:00,,-2.0,-2.08,1.0,,KTRK,5899,-120.13333,39.31667
108,102336.62,E,,,,100.0,101367.45,1.0,Clear,10.0,82313.77,KTRK 030435Z AUTO 10004KT 10SM CLR 16/M02 A3022 RMK AO2,,29.06,2.06,16.0,2018-08-03 04:35:00,,-2.0,-2.09,1.0,,KTRK,5899,-120.13333,39.31667
109,102336.62,ESE,,,,120.0,101511.62,1.0,Clear,10.0,82313.77,KTRK 030455Z AUTO 12007KT 10SM CLR 14/M02 A3022 RMK AO2,,33.05,3.6,14.0,2018-08-03 04:55:00,,-2.0,-2.1,1.0,,KTRK,5899,-120.13333,39.31667
110,102336.62,SE,,,,130.0,101584.52,1.0,Clear,10.0,82313.77,KTRK 030515Z AUTO 13003KT 10SM CLR 13/M02 A3022 RMK AO2,,35.27,1.54,13.0,2018-08-03 05:15:00,,-2.0,-2.11,1.0,,KTRK,5899,-120.13333,39.31667
111,102336.62,ESE,,,,110.0,101584.52,1.0,Clear,10.0,82313.77,KTRK 030535Z AUTO 11003KT 10SM CLR 13/M02 A3022 RMK AO2,,35.27,1.54,13.0,2018-08-03 05:35:00,,-2.0,-2.11,1.0,,KTRK,5899,-120.13333,39.31667
112,102336.62,SE,,,,130.0,101584.52,1.0,Clear,10.0,82313.77,KTRK 030555Z AUTO 13004KT 10SM CLR 13/M02 A3022 RMK AO2,,35.27,2.06,13.0,2018-08-03 05:55:00,,-2.0,-2.11,1.0,,KTRK,5899,-120.13333,39.31667
113,102370.48,N,,,,0.0,101765.65,1.0,Clear,10.0,82341.0,KTRK 030615Z AUTO 00000KT 10SM CLR 11/M02 A3023 RMK AO2,,40.24,0.0,11.0,2018-08-03 06:15:00,,-2.0,-2.11,1.0,,KTRK,5899,-120.13333,39.31667
114,102370.48,N,,,,0.0,101765.55,1.0,Clear,10.0,82341.0,KTRK 030635Z AUTO 00000KT 10SM CLR 11/00 A3023 RMK AO2,,46.59,0.0,11.0,2018-08-03 06:35:00,,0.0,-0.1,1.0,,KTRK,5899,-120.13333,39.31667
115,102370.48,N,,,,0.0,101840.21,1.0,Clear,10.0,82341.0,KTRK 030655Z AUTO 00000KT 10SM CLR 10/M01 A3023 RMK AO2,,46.29,0.0,10.0,2018-08-03 06:55:00,,-1.0,-1.11,1.0,,KTRK,5899,-120.13333,39.31667
116,102370.48,N,,,,0.0,101915.39,1.0,Clear,10.0,82341.0,KTRK 030715Z AUTO 00000KT 10SM CLR 09/M01 A3023 RMK AO2,,49.51,0.0,9.0,2018-08-03 07:15:00,,-1.0,-1.1,1.0,,KTRK,5899,-120.13333,39.31667
117,102370.48,N,,,,0.0,101915.34,1.0,Clear,10.0,82341.0,KTRK 030735Z AUTO 00000KT 10SM CLR 09/00 A3023 RMK AO2,,53.26,0.0,9.0,2018-08-03 07:35:00,,0.0,-0.09,1.0,,KTRK,5899,-120.13333,39.31667
118,102370.48,N,,,,0.0,101991.1,1.0,Clear,10.0,82341.0,KTRK 030755Z AUTO 00000KT 10SM CLR 08/00 A3023 RMK AO2,,56.99,0.0,8.0,2018-08-03 07:55:00,,0.0,-0.09,1.0,,KTRK,5899,-120.13333,39.31667
119,102370.48,N,,,,0.0,101991.2,1.0,Clear,10.0,82341.0,KTRK 030815Z AUTO 00000KT 10SM CLR 08/M02 A3023 RMK AO2,,49.22,0.0,8.0,2018-08-03 08:15:00,,-2.0,-2.11,1.0,,KTRK,5899,-120.13333,39.31667
120,102370.48,N,,,,0.0,101840.26,1.0,Clear,10.0,82341.0,KTRK 030835Z AUTO 00000KT 10SM CLR 10/M02 A3023 RMK AO2,,43.01,0.0,10.0,2018-08-03 08:35:00,,-2.0,-2.11,1.0,,KTRK,5899,-120.13333,39.31667
121,102370.48,E,,,,90.0,102067.6,1.0,Clear,10.0,82341.0,KTRK 030855Z AUTO 09003KT 10SM CLR 07/M03 A3023 RMK AO2,,48.93,1.54,7.0,2018-08-03 08:55:00,,-3.0,-3.11,1.0,,KTRK,5899,-120.13333,39.31667
122,102370.48,N,,,,0.0,102144.44,1.0,Clear,10.0,82341.0,KTRK 030915Z AUTO 00000KT 10SM CLR 06/M01 A3023 RMK AO2,,60.77,0.0,6.0,2018-08-03 09:15:00,,-1.0,-1.09,1.0,,KTRK,5899,-120.13333,39.31667
123,102370.48,N,,,,0.0,102144.39,1.0,Clear,10.0,82341.0,KTRK 030935Z AUTO 00000KT 10SM CLR 06/00 A3023 RMK AO2,,65.37,0.0,6.0,2018-08-03 09:35:00,,0.0,-0.08,1.0,,KTRK,5899,-120.13333,39.31667
124,102336.62,N,,,,0.0,102033.69,1.0,Clear,10.0,82313.77,KTRK 030955Z AUTO 00000KT 10SM CLR 07/00 A3022 RMK AO2,,61.02,0.0,7.0,2018-08-03 09:55:00,,0.0,-0.08,1.0,,KTRK,5899,-120.13333,39.31667
125,102336.62,N,,,,0.0,102266.31,1.0,Clear,10.0,82313.77,KTRK 031015Z AUTO 00000KT 10SM CLR 04/M01 A3022 RMK AO2,,69.85,0.0,4.0,2018-08-03 10:15:00,,-1.0,-1.07,1.0,,KTRK,5899,-120.13333,39.31667
126,102336.62,N,,,,0.0,102110.61,1.0,Clear,10.0,82313.77,KTRK 031035Z AUTO 00000KT 10SM CLR 06/00 A3022 RMK AO2,,65.37,0.0,6.0,2018-08-03 10:35:00,,0.0,-0.08,1.0,,KTRK,5899,-120.13333,39.31667
127,102302.75,N,,,,0.0,101999.91,1.0,Clear,10.0,82286.52,KTRK 031055Z AUTO 00000KT 10SM CLR 07/00 A3021 RMK AO2,,61.02,0.0,7.0,2018-08-03 10:55:00,,0.0,-0.08,1.0,,KTRK,5899,-120.13333,39.31667
128,102302.75,N,,,,0.0,102311.22,1.0,Clear,10.0,82286.52,KTRK 031115Z AUTO 00000KT 10SM CLR 03/M02 A3021 RMK AO2,,69.64,0.0,3.0,2018-08-03 11:15:00,,-2.0,-2.07,1.0,,KTRK,5899,-120.13333,39.31667
129,102302.75,N,,,,0.0,102154.3,1.0,Clear,10.0,82286.52,KTRK 031135Z AUTO 00000KT 10SM CLR 05/00 A3021 RMK AO2,,70.06,0.0,5.0,2018-08-03 11:35:00,,0.0,-0.07,1.0,,KTRK,5899,-120.13333,39.31667
130,102268.89,N,,,,0.0,102120.55,1.0,Clear,10.0,82259.29,KTRK 031155Z AUTO 00000KT 10SM CLR 05/M01 A3020 RMK AO2,,65.13,0.0,5.0,2018-08-03 11:55:00,,-1.0,-1.08,1.0,,KTRK,5899,-120.13333,39.31667
131,102302.75,N,,,,0.0,102154.35,1.0,Clear,10.0,82286.52,KTRK 031215Z AUTO 00000KT 10SM CLR 05/M01 A3021 RMK AO2,,65.13,0.0,5.0,2018-08-03 12:15:00,,-1.0,-1.08,1.0,,KTRK,5899,-120.13333,39.31667
132,102268.89,N,,,,0.0,102356.67,1.0,Clear,10.0,82259.29,KTRK 031235Z AUTO 00000KT 10SM CLR 02/M02 A3020 RMK AO2,,74.78,0.0,2.0,2018-08-03 12:35:00,,-2.0,-2.06,1.0,,KTRK,5899,-120.13333,39.31667
133,102302.75,N,,,,0.0,102311.16,1.0,Clear,10.0,82286.52,KTRK 031255Z AUTO 00000KT 10SM CLR 03/M01 A3021 RMK AO2,,74.96,0.0,3.0,2018-08-03 12:55:00,,-1.0,-1.06,1.0,,KTRK,5899,-120.13333,39.31667
134,102336.62,N,,,,0.0,102424.51,1.0,Clear,10.0,82313.77,KTRK 031315Z AUTO 00000KT 10SM CLR 02/M03 A3022 RMK AO2,,69.43,0.0,2.0,2018-08-03 13:15:00,,-3.0,-3.07,1.0,,KTRK,5899,-120.13333,39.31667
135,102336.62,N,,,,0.0,102345.04,1.0,Clear,10.0,82313.77,KTRK 031335Z AUTO 00000KT 10SM CLR 03/M01 A3022 RMK AO2,,74.96,0.0,3.0,2018-08-03 13:35:00,,-1.0,-1.06,1.0,,KTRK,5899,-120.13333,39.31667
136,102336.62,N,,,,0.0,102345.1,1.0,Clear,10.0,82313.77,KTRK 031345Z 00000KT 10SM SKC 03/M02 A3022 FU,,69.64,0.0,3.0,2018-08-03 13:45:00,,-2.0,-2.07,1.0,,KTRK,5899,-120.13333,39.31667
137,102370.48,N,,,,0.0,101915.72,1.0,Clear,10.0,82341.0,KTRK 031445Z 00000KT 10SM SKC 09/M09 A3023 FU,,26.99,0.0,9.0,2018-08-03 14:45:00,,-9.0,-9.14,1.0,,KTRK,5899,-120.13333,39.31667
138,102404.34,N,,,,0.0,101651.69,1.0,Clear,10.0,82368.24,KTRK 031545Z 00000KT 10SM SKC 13/M01 A3024 FU,,37.97,0.0,13.0,2018-08-03 15:45:00,,-1.0,-1.1,1.0,,KTRK,5899,-120.13333,39.31667
139,102370.48,N,,,,0.0,101049.55,1.0,Clear,10.0,82341.0,KTRK 031645Z 00000KT 10SM SKC 21/01 A3023 FU,,26.46,0.0,21.0,2018-08-03 16:45:00,,1.0,0.96,1.0,,KTRK,5899,-120.13333,39.31667
140,102370.48,S,7.2,,26.0,190.0,100645.09,1.0,Clear,10.0,82341.0,KTRK 031745Z 19009G14KT 10SM SKC 27/M08 A3023 FU,,9.41,4.63,27.0,2018-08-03 17:45:00,,-8.0,-7.86,1.0,,KTRK,5899,-120.13333,39.31667
141,102370.48,SSW,8.23,,26.27,210.0,100579.33,1.0,Clear,10.0,82341.0,KTRK 031900Z 21012G16KT 10SM SKC 28/M09 A3023 FU,,8.21,6.17,28.0,2018-08-03 19:00:00,,-9.0,-8.82,1.0,,KTRK,5899,-120.13333,39.31667
142,102336.62,SSW,8.23,,26.99,200.0,100480.75,1.0,Clear,10.0,82313.77,KTRK 031955Z 20009G16KT 150V210 10SM SKC 29/M08 A3022 FU,,8.38,4.63,29.0,2018-08-03 19:55:00,,-8.0,-7.8,1.0,,KTRK,5899,-120.13333,39.31667
143,102336.62,W,8.23,,26.12,260.0,100611.62,502.0,Partly Cloudy,10.0,82313.77,KTRK 032245Z 26011G16KT 10SM SCT050 SCT065 27/M03 A3022 FU,652.0,13.78,5.66,27.0,2018-08-03 22:45:00,,-3.0,-2.91,1.0,,KTRK,5899,-120.13333,39.31667
144,102302.75,WNW,,,,290.0,100644.57,332.0,Smoke,4.0,82286.52,KTRK 032350Z 29012KT 4SM FU SCT033 OVC039 26/M04 A3021 RMK FU  OVC039,394.0,13.56,6.17,26.0,2018-08-03 23:50:00,1188.72,-4.0,-3.92,1.0,7.0,KTRK,5899,-120.13333,39.31667
145,102302.75,W,7.72,,,270.0,100644.53,332.0,Smoke,3.0,82286.52,KTRK 040013Z 27010G15KT 3SM FU SCT033 OVC041 26/M03 A3021 RMK FU  OVC041,414.0,14.61,5.14,26.0,2018-08-04 00:13:00,1249.68,-3.0,-2.94,1.0,7.0,KTRK,5899,-120.13333,39.31667
146,102302.75,WSW,,,,240.0,100644.53,333.0,Smoke,3.5,82286.52,KTRK 040045Z 24007KT 3 1/2SM FU BKN033 BKN041 26/M03 A3021 RMK FU  BKN041,413.0,14.61,3.6,26.0,2018-08-04 00:45:00,1005.84,-3.0,-2.94,1.0,7.0,KTRK,5899,-120.13333,39.31667
147,102302.75,W,,,,280.0,100711.22,372.0,Partly Cloudy,7.0,82286.52,KTRK 040115Z AUTO 28010KT 7SM SCT037 SCT048 25/M03 A3021 RMK AO2,482.0,15.5,5.14,25.0,2018-08-04 01:15:00,,-3.0,-2.96,1.0,,KTRK,5899,-120.13333,39.31667
148,102302.75,W,,,,270.0,100778.4,312.0,Mostly Cloudy,7.0,82286.52,KTRK 040135Z AUTO 27007KT 7SM SCT031 BKN039 24/M03 A3021 RMK AO2,393.0,16.46,3.6,24.0,2018-08-04 01:35:00,1188.72,-3.0,-2.97,1.0,,KTRK,5899,-120.13333,39.31667
149,102336.62,WSW,,,,250.0,100879.47,334.0,Overcast,7.0,82313.77,KTRK 040155Z AUTO 25007KT 7SM OVC033 23/M03 A3022 RMK AO2,,17.48,3.6,23.0,2018-08-04 01:55:00,1005.84,-3.0,-2.99,1.0,,KTRK,5899,-120.13333,39.31667
150,102336.62,W,,903.0,,270.0,100879.47,312.0,Haze,5.0,82313.77,KTRK 040215Z AUTO 27006KT 5SM HZ SCT031 BKN037 BKN090 23/M03 A3022 RMK AO2,373.0,17.48,3.09,23.0,2018-08-04 02:15:00,1127.76,-3.0,-2.99,1.0,6.0,KTRK,5899,-120.13333,39.31667
151,102336.62,W,,,,270.0,100947.7,903.0,Mostly Cloudy,7.0,82313.77,KTRK 040235Z AUTO 27007KT 7SM BKN090 22/M04 A3022 RMK AO2,,17.23,3.6,22.0,2018-08-04 02:35:00,2743.2,-4.0,-4.01,1.0,,KTRK,5899,-120.13333,39.31667
152,102336.62,N,,,,0.0,101016.34,904.0,Overcast,7.0,82313.77,KTRK 040255Z AUTO 00000KT 7SM OVC090 21/M03 A3022 RMK AO2,,19.74,0.0,21.0,2018-08-04 02:55:00,2743.2,-3.0,-3.03,1.0,,KTRK,5899,-120.13333,39.31667
153,102336.62,N,,,,0.0,101085.54,904.0,Overcast,7.0,82313.77,KTRK 040315Z AUTO 00000KT 7SM OVC090 20/M03 A3022 RMK AO2,,20.99,0.0,20.0,2018-08-04 03:15:00,2743.2,-3.0,-3.05,1.0,,KTRK,5899,-120.13333,39.31667
154,102336.62,N,,,,0.0,101225.47,904.0,Overcast,7.0,82313.77,KTRK 040335Z AUTO 00000KT 7SM OVC090 18/M03 A3022 RMK AO2,,23.78,0.0,18.0,2018-08-04 03:35:00,2743.2,-3.0,-3.07,1.0,,KTRK,5899,-120.13333,39.31667
155,102336.62,N,,,,0.0,101296.17,904.0,Overcast,7.0,82313.77,KTRK 040355Z AUTO 00000KT 7SM OVC090 17/M02 A3022 RMK AO2,,27.28,0.0,17.0,2018-08-04 03:55:00,2743.2,-2.0,-2.08,1.0,,KTRK,5899,-120.13333,39.31667
156,102370.48,N,,,,0.0,101472.82,904.0,Overcast,7.0,82341.0,KTRK 040415Z AUTO 00000KT 7SM OVC090 15/M02 A3023 RMK AO2,,30.99,0.0,15.0,2018-08-04 04:15:00,2743.2,-2.0,-2.1,1.0,,KTRK,5899,-120.13333,39.31667
157,102370.48,ESE,,,,120.0,101618.17,904.0,Overcast,7.0,82341.0,KTRK 040435Z AUTO 12005KT 7SM OVC090 13/M03 A3023 RMK AO2,,32.75,2.57,13.0,2018-08-04 04:35:00,2743.2,-3.0,-3.11,1.0,,KTRK,5899,-120.13333,39.31667
158,102404.34,N,,,,0.0,101651.74,904.0,Overcast,7.0,82368.24,KTRK 040455Z AUTO 00000KT 7SM OVC090 13/M02 A3024 RMK AO2,,35.27,0.0,13.0,2018-08-04 04:55:00,2743.2,-2.0,-2.11,1.0,,KTRK,5899,-120.13333,39.31667
159,102404.34,SSE,,,,150.0,101799.37,904.0,Overcast,7.0,82368.24,KTRK 040515Z AUTO 15003KT 7SM OVC090 11/M03 A3024 RMK AO2,,37.36,1.54,11.0,2018-08-04 05:15:00,2743.2,-3.0,-3.12,1.0,,KTRK,5899,-120.13333,39.31667
160,102438.21,N,,,,0.0,101833.03,904.0,Overcast,7.0,82395.48,KTRK 040535Z AUTO 00000KT 7SM OVC090 11/M03 A3025 RMK AO2,,37.36,0.0,11.0,2018-08-04 05:35:00,2743.2,-3.0,-3.12,1.0,,KTRK,5899,-120.13333,39.31667
161,102404.34,S,,,,170.0,101799.32,904.0,Overcast,7.0,82368.24,KTRK 040555Z AUTO 17004KT 7SM OVC090 11/M02 A3024 RMK AO2,,40.24,2.06,11.0,2018-08-04 05:55:00,2743.2,-2.0,-2.11,1.0,,KTRK,5899,-120.13333,39.31667
162,102370.48,N,,,,0.0,101840.26,804.0,Overcast,7.0,82341.0,KTRK 040615Z AUTO 00000KT 7SM OVC080 10/M02 A3023 RMK AO2,,43.01,0.0,10.0,2018-08-04 06:15:00,2438.4,-2.0,-2.11,1.0,,KTRK,5899,-120.13333,39.31667
163,102370.48,N,,,,0.0,101765.65,804.0,Overcast,7.0,82341.0,KTRK 040635Z AUTO 00000KT 7SM OVC080 11/M02 A3023 RMK AO2,,40.24,0.0,11.0,2018-08-04 06:35:00,2438.4,-2.0,-2.11,1.0,,KTRK,5899,-120.13333,39.31667
164,102370.48,N,,,,0.0,101915.44,703.0,Overcast,7.0,82341.0,KTRK 040655Z AUTO 00000KT 7SM BKN070 OVC080 09/M02 A3023 RMK AO2,804.0,46.0,0.0,9.0,2018-08-04 06:55:00,2133.6,-2.0,-2.11,1.0,,KTRK,5899,-120.13333,39.31667
165,102370.48,N,,,,0.0,101840.26,432.0,Overcast,10.0,82341.0,KTRK 040715Z AUTO 00000KT 10SM SCT043 OVC070 10/M02 A3023 RMK AO2,704.0,43.01,0.0,10.0,2018-08-04 07:15:00,2133.6,-2.0,-2.11,1.0,,KTRK,5899,-120.13333,39.31667
166,102370.48,N,,,,0.0,101991.2,453.0,Overcast,10.0,82341.0,KTRK 040735Z AUTO 00000KT 10SM BKN045 OVC070 08/M02 A3023 RMK AO2,704.0,49.22,0.0,8.0,2018-08-04 07:35:00,1371.6,-2.0,-2.11,1.0,,KTRK,5899,-120.13333,39.31667
167,102370.48,N,,,,0.0,101915.44,472.0,Overcast,10.0,82341.0,KTRK 040755Z AUTO 00000KT 10SM SCT047 OVC065 09/M02 A3023 RMK AO2,654.0,46.0,0.0,9.0,2018-08-04 07:55:00,1981.2,-2.0,-2.11,1.0,,KTRK,5899,-120.13333,39.31667
168,102336.62,N,,,,0.0,101957.48,554.0,Overcast,10.0,82313.77,KTRK 040815Z AUTO 00000KT 10SM OVC055 08/M02 A3022 RMK AO2,,49.22,0.0,8.0,2018-08-04 08:15:00,1676.4,-2.0,-2.11,1.0,,KTRK,5899,-120.13333,39.31667
169,102336.62,N,,,,0.0,101957.48,504.0,Overcast,10.0,82313.77,KTRK 040835Z AUTO 00000KT 10SM OVC050 08/M02 A3022 RMK AO2,,49.22,0.0,8.0,2018-08-04 08:35:00,1524.0,-2.0,-2.11,1.0,,KTRK,5899,-120.13333,39.31667
170,102336.62,N,,504.0,,0.0,101957.48,422.0,Overcast,10.0,82313.77,KTRK 040855Z AUTO 00000KT 10SM SCT042 BKN048 OVC050 08/M02 A3022 RMK AO2,483.0,49.22,0.0,8.0,2018-08-04 08:55:00,1463.04,-2.0,-2.11,1.0,,KTRK,5899,-120.13333,39.31667
171,102336.62,N,,,,0.0,101957.52,424.0,Overcast,10.0,82313.77,KTRK 040915Z AUTO 00000KT 10SM OVC042 08/M03 A3022 RMK AO2,,45.7,0.0,8.0,2018-08-04 09:15:00,1280.16,-3.0,-3.11,1.0,,KTRK,5899,-120.13333,39.31667
172,102302.75,N,,,,0.0,101923.77,383.0,Overcast,10.0,82286.52,KTRK 040935Z AUTO 00000KT 10SM BKN038 OVC050 08/M03 A3021 RMK AO2,504.0,45.7,0.0,8.0,2018-08-04 09:35:00,1158.24,-3.0,-3.11,1.0,,KTRK,5899,-120.13333,39.31667
173,102302.75,N,,,,0.0,102076.91,343.0,Mostly Cloudy,10.0,82286.52,KTRK 040955Z AUTO 00000KT 10SM BKN034 06/M02 A3021 RMK AO2,,56.46,0.0,6.0,2018-08-04 09:55:00,1036.32,-2.0,-2.1,1.0,,KTRK,5899,-120.13333,39.31667
174,102268.89,N,,,,0.0,101966.27,322.0,Partly Cloudy,10.0,82259.29,KTRK 041015Z AUTO 00000KT 10SM SCT032 07/M02 A3020 RMK AO2,,52.7,0.0,7.0,2018-08-04 10:15:00,,-2.0,-2.1,1.0,,KTRK,5899,-120.13333,39.31667
175,102268.89,N,,,,0.0,101966.32,303.0,Mostly Cloudy,10.0,82259.29,KTRK 041035Z AUTO 00000KT 10SM BKN030 07/M03 A3020 RMK AO2,,48.93,0.0,7.0,2018-08-04 10:35:00,914.4,-3.0,-3.11,1.0,,KTRK,5899,-120.13333,39.31667
176,102302.75,N,,,,0.0,102000.07,303.0,Mostly Cloudy,10.0,82286.52,KTRK 041055Z AUTO 00000KT 10SM BKN030 07/M03 A3021 RMK AO2,,48.93,0.0,7.0,2018-08-04 10:55:00,914.4,-3.0,-3.11,1.0,,KTRK,5899,-120.13333,39.31667
177,102302.75,N,,,,0.0,102154.45,304.0,Overcast,10.0,82286.52,KTRK 041115Z AUTO 00000KT 10SM OVC030 05/M03 A3021 RMK AO2,,56.19,0.0,5.0,2018-08-04 11:15:00,914.4,-3.0,-3.1,1.0,,KTRK,5899,-120.13333,39.31667
178,102302.75,N,,,,0.0,102154.45,304.0,Overcast,10.0,82286.52,KTRK 041135Z AUTO 00000KT 10SM OVC030 05/M03 A3021 RMK AO2,,56.19,0.0,5.0,2018-08-04 11:35:00,914.4,-3.0,-3.1,1.0,,KTRK,5899,-120.13333,39.31667
179,102302.75,N,,,,0.0,102232.5,284.0,Overcast,10.0,82286.52,KTRK 041155Z AUTO 00000KT 10SM OVC028 04/M02 A3021 RMK AO2,,64.9,0.0,4.0,2018-08-04 11:55:00,853.44,-2.0,-2.08,1.0,,KTRK,5899,-120.13333,39.31667
180,102302.75,N,,,,0.0,102076.96,264.0,Overcast,10.0,82286.52,KTRK 041215Z AUTO 00000KT 10SM OVC026 06/M03 A3021 RMK AO2,,52.42,0.0,6.0,2018-08-04 12:15:00,792.48,-3.0,-3.11,1.0,,KTRK,5899,-120.13333,39.31667
181,102302.75,N,,,,0.0,102154.45,264.0,Overcast,10.0,82286.52,KTRK 041235Z AUTO 00000KT 10SM OVC026 05/M03 A3021 RMK AO2,,56.19,0.0,5.0,2018-08-04 12:35:00,792.48,-3.0,-3.1,1.0,,KTRK,5899,-120.13333,39.31667
182,102302.75,N,,,,0.0,102311.27,224.0,Overcast,10.0,82286.52,KTRK 041255Z AUTO 00000KT 10SM OVC022 03/M03 A3021 RMK AO2,,64.66,0.0,3.0,2018-08-04 12:55:00,670.56,-3.0,-3.08,1.0,,KTRK,5899,-120.13333,39.31667
183,102302.75,N,,,,0.0,102076.96,224.0,Overcast,10.0,82286.52,KTRK 041315Z AUTO 00000KT 10SM OVC022 06/M03 A3021 RMK AO2,,52.42,0.0,6.0,2018-08-04 13:15:00,670.56,-3.0,-3.11,1.0,,KTRK,5899,-120.13333,39.31667
184,102302.75,N,,,,0.0,102154.45,224.0,Overcast,10.0,82286.52,KTRK 041335Z AUTO 00000KT 10SM OVC022 05/M03 A3021 RMK AO2,,56.19,0.0,5.0,2018-08-04 13:35:00,670.56,-3.0,-3.1,1.0,,KTRK,5899,-120.13333,39.31667
185,102167.3,SW,9.77,,,230.0,100577.99,304.0,Smoke,3.0,82177.57,KTRK 041845Z 23009G19KT 3SM FU OVC030 25/M06 A3017 RMK FU BKN030  PEAKS OBSCD VIS N AND W 1 1/2,,12.36,4.63,25.0,2018-08-04 18:45:00,914.4,-6.0,-5.93,1.0,7.0,KTRK,5899,-120.13333,39.31667
186,102167.3,SW,13.89,,,230.0,100511.31,304.0,Smoke,3.0,82177.57,KTRK 041947Z 23015G27KT 3SM FU OVC030 26/M04 A3017 RMK FU BKN030  PEAKS OBSCD VIS N AND W 1 1/2,,13.56,7.72,26.0,2018-08-04 19:47:00,914.4,-4.0,-3.92,1.0,7.0,KTRK,5899,-120.13333,39.31667
187,102133.43,WSW,11.83,,,250.0,100477.95,323.0,Smoke,7.0,82150.33,KTRK 042055Z 25015G23KT 7SM FU BKN032 OVC041 26/M03 A3016 RMK FU  BKN032 VIS N 4 AND S 5,414.0,14.61,7.72,26.0,2018-08-04 20:55:00,975.36,-3.0,-2.94,1.0,7.0,KTRK,5899,-120.13333,39.31667
188,102133.43,SW,13.38,,,220.0,100477.91,382.0,Smoke,10.0,82150.33,KTRK 042123Z 22016G26KT 10SM FU SCT038 26/M02 A3016 RMK FU  SCT038,,15.74,8.23,26.0,2018-08-04 21:23:00,,-2.0,-1.94,1.0,7.0,KTRK,5899,-120.13333,39.31667
189,102099.57,SW,15.43,,,230.0,100511.16,1.0,Clear,10.0,82123.1,KTRK 042245Z 23023G30KT 10SM SKC 25/M02 A3015 RMK FU ALQDS,,16.7,11.83,25.0,2018-08-04 22:45:00,,-2.0,-1.96,1.0,,KTRK,5899,-120.13333,39.31667
190,102031.84,SW,15.95,,,230.0,100511.49,1.0,Clear,10.0,82068.62,KTRK 042355Z 23019G31KT 10SM SKC 24/M02 A3013 RMK FU ALQDS,,17.72,9.77,24.0,2018-08-04 23:55:00,,-2.0,-1.99,1.0,,KTRK,5899,-120.13333,39.31667
191,101964.11,SW,12.35,,,230.0,100512.37,1.0,Clear,10.0,82014.14,KTRK 050050Z 23016G24KT 10SM SKC 23/M06 A3011 RMK HZ ALQDS,,13.93,8.23,23.0,2018-08-05 00:50:00,,-6.0,-5.98,1.0,,KTRK,5899,-120.13333,39.31667
192,101964.11,WSW,11.32,,,240.0,100580.27,1.0,Clear,10.0,82014.14,KTRK 050115Z AUTO 24017G22KT 10SM CLR 22/M05 A3011 RMK AO2,,15.98,8.75,22.0,2018-08-05 01:15:00,,-5.0,-5.0,1.0,,KTRK,5899,-120.13333,39.31667
193,101964.11,SW,12.35,,,230.0,100648.63,1.0,Clear,10.0,82014.14,KTRK 050135Z AUTO 23019G24KT 10SM CLR 21/M03 A3011 RMK AO2,,19.74,9.77,21.0,2018-08-05 01:35:00,,-3.0,-3.03,1.0,,KTRK,5899,-120.13333,39.31667
194,101964.11,SW,12.35,,,230.0,100648.71,1.0,Clear,10.0,82014.14,KTRK 050155Z AUTO 23015G24KT 10SM CLR 21/M05 A3011 RMK AO2,,16.98,7.72,21.0,2018-08-05 01:55:00,,-5.0,-5.02,1.0,,KTRK,5899,-120.13333,39.31667
195,102031.84,SW,8.23,,,220.0,100784.52,1.0,Clear,10.0,82068.62,KTRK 050215Z AUTO 22006G16KT 10SM CLR 20/M04 A3013 RMK AO2,,19.48,3.09,20.0,2018-08-05 02:15:00,,-4.0,-4.04,1.0,,KTRK,5899,-120.13333,39.31667
196,102031.84,N,,,,0.0,100853.93,1.0,Clear,10.0,82068.62,KTRK 050235Z AUTO 00000KT 10SM CLR 19/M02 A3013 RMK AO2,,24.06,0.0,19.0,2018-08-05 02:35:00,,-2.0,-2.06,1.0,,KTRK,5899,-120.13333,39.31667
197,102065.7,WSW,8.23,,,250.0,100957.38,1.0,Clear,10.0,82095.85,KTRK 050255Z AUTO 25005G16KT 10SM CLR 18/M01 A3014 RMK AO2,,27.56,2.57,18.0,2018-08-05 02:55:00,,-1.0,-1.08,1.0,,KTRK,5899,-120.13333,39.31667
198,102065.7,SW,,,,230.0,101099.03,1.0,Clear,10.0,82095.85,KTRK 050315Z AUTO 23007KT 10SM CLR 16/M01 A3014 RMK AO2,,31.28,3.6,16.0,2018-08-05 03:15:00,,-1.0,-1.09,1.0,,KTRK,5899,-120.13333,39.31667
199,102065.7,W,,,,260.0,101098.98,1.0,Clear,10.0,82095.85,KTRK 050335Z AUTO 26003KT 10SM CLR 16/00 A3014 RMK AO2,,33.65,1.54,16.0,2018-08-05 03:35:00,,0.0,-0.09,1.0,,KTRK,5899,-120.13333,39.31667
200,102099.57,E,,,,90.0,101132.59,1.0,Clear,10.0,82123.1,KTRK 050355Z AUTO 09007KT 10SM CLR 16/M01 A3015 RMK AO2,,31.28,3.6,16.0,2018-08-05 03:55:00,,-1.0,-1.09,1.0,,KTRK,5899,-120.13333,39.31667
201,102133.43,ESE,,,,120.0,101237.74,1.0,Clear,10.0,82150.33,KTRK 050415Z AUTO 12003KT 10SM CLR 15/00 A3016 RMK AO2,,35.88,1.54,15.0,2018-08-05 04:15:00,,0.0,-0.09,1.0,,KTRK,5899,-120.13333,39.31667
202,102133.43,N,,,,0.0,101382.71,1.0,Clear,10.0,82150.33,KTRK 050435Z AUTO 00000KT 10SM CLR 13/00 A3016 RMK AO2,,40.84,0.0,13.0,2018-08-05 04:35:00,,0.0,-0.1,1.0,,KTRK,5899,-120.13333,39.31667
203,102167.3,N,,,,0.0,101489.67,1.0,Clear,10.0,82177.57,KTRK 050455Z AUTO 00000KT 10SM CLR 12/00 A3017 RMK AO2,,43.61,0.0,12.0,2018-08-05 04:55:00,,0.0,-0.1,1.0,,KTRK,5899,-120.13333,39.31667
204,102167.3,N,,,,0.0,101563.61,1.0,Clear,10.0,82177.57,KTRK 050515Z AUTO 00000KT 10SM CLR 11/M01 A3017 RMK AO2,,43.31,0.0,11.0,2018-08-05 05:15:00,,-1.0,-1.11,1.0,,KTRK,5899,-120.13333,39.31667
205,102167.3,N,,,,0.0,101638.02,1.0,Clear,10.0,82177.57,KTRK 050535Z AUTO 00000KT 10SM CLR 10/00 A3017 RMK AO2,,49.8,0.0,10.0,2018-08-05 05:35:00,,0.0,-0.1,1.0,,KTRK,5899,-120.13333,39.31667
206,102167.3,SE,,,,140.0,101563.56,1.0,Clear,10.0,82177.57,KTRK 050555Z AUTO 14003KT 10SM CLR 11/00 A3017 RMK AO2,,46.59,1.54,11.0,2018-08-05 05:55:00,,0.0,-0.1,1.0,,KTRK,5899,-120.13333,39.31667
207,102167.3,SE,,,,140.0,101941.71,1.0,Clear,10.0,82177.57,KTRK 050615Z AUTO 14004KT 10SM CLR 06/M01 A3017 RMK AO2,,60.77,2.06,6.0,2018-08-05 06:15:00,,-1.0,-1.09,1.0,,KTRK,5899,-120.13333,39.31667
208,102167.3,SE,,,,130.0,101788.72,1.0,Clear,10.0,82177.57,KTRK 050635Z AUTO 13005KT 10SM CLR 08/M01 A3017 RMK AO2,,52.98,2.57,8.0,2018-08-05 06:35:00,,-1.0,-1.1,1.0,,KTRK,5899,-120.13333,39.31667
209,102167.3,N,,,,0.0,101788.66,1.0,Clear,10.0,82177.57,KTRK 050655Z AUTO 00000KT 10SM CLR 08/00 A3017 RMK AO2,,56.99,0.0,8.0,2018-08-05 06:55:00,,0.0,-0.09,1.0,,KTRK,5899,-120.13333,39.31667
210,102167.3,N,,,,0.0,101713.11,1.0,Clear,10.0,82177.57,KTRK 050715Z AUTO 00000KT 10SM CLR 09/M01 A3017 RMK AO2,,49.51,0.0,9.0,2018-08-05 07:15:00,,-1.0,-1.1,1.0,,KTRK,5899,-120.13333,39.31667
211,102167.3,N,,,,360.0,101864.92,1.0,Clear,10.0,82177.57,KTRK 050735Z AUTO 36004KT 10SM CLR 07/M01 A3017 RMK AO2,,56.72,2.06,7.0,2018-08-05 07:35:00,,-1.0,-1.09,1.0,,KTRK,5899,-120.13333,39.31667
212,102167.3,N,,,,0.0,102097.09,1.0,Clear,10.0,82177.57,KTRK 050755Z AUTO 00000KT 10SM CLR 04/M01 A3017 RMK AO2,,69.85,0.0,4.0,2018-08-05 07:55:00,,-1.0,-1.07,1.0,,KTRK,5899,-120.13333,39.31667
213,102235.02,SSE,,,,160.0,102086.66,1.0,Clear,10.0,82232.04,KTRK 050815Z AUTO 16003KT 10SM CLR 05/00 A3019 RMK AO2,,70.06,1.54,5.0,2018-08-05 08:15:00,,0.0,-0.07,1.0,,KTRK,5899,-120.13333,39.31667
214,102235.02,N,,,,0.0,102086.66,1.0,Clear,10.0,82232.04,KTRK 050835Z AUTO 00000KT 10SM CLR 05/00 A3019 RMK AO2,,70.06,0.0,5.0,2018-08-05 08:35:00,,0.0,-0.07,1.0,,KTRK,5899,-120.13333,39.31667
215,102235.02,N,,,,0.0,102009.33,1.0,Clear,10.0,82232.04,KTRK 050855Z AUTO 00000KT 10SM CLR 06/M02 A3019 RMK AO2,,56.46,0.0,6.0,2018-08-05 08:55:00,,-2.0,-2.1,1.0,,KTRK,5899,-120.13333,39.31667
216,102235.02,N,,,,0.0,102243.42,1.0,Clear,10.0,82232.04,KTRK 050915Z AUTO 00000KT 10SM CLR 03/M01 A3019 RMK AO2,,74.96,0.0,3.0,2018-08-05 09:15:00,,-1.0,-1.06,1.0,,KTRK,5899,-120.13333,39.31667
217,102235.02,S,,,,170.0,102086.66,1.0,Clear,10.0,82232.04,KTRK 050935Z AUTO 17003KT 10SM CLR 05/00 A3019 RMK AO2,,70.06,1.54,5.0,2018-08-05 09:35:00,,0.0,-0.07,1.0,,KTRK,5899,-120.13333,39.31667
218,102235.02,N,,,,0.0,102322.71,1.0,Clear,10.0,82232.04,KTRK 050955Z AUTO 00000KT 10SM CLR 02/M01 A3019 RMK AO2,,80.49,0.0,2.0,2018-08-05 09:55:00,,-1.0,-1.05,1.0,,KTRK,5899,-120.13333,39.31667
219,102235.02,E,,,,80.0,102164.82,1.0,Clear,10.0,82232.04,KTRK 051015Z AUTO 08003KT 10SM CLR 04/M02 A3019 RMK AO2,,64.9,1.54,4.0,2018-08-05 10:15:00,,-2.0,-2.08,1.0,,KTRK,5899,-120.13333,39.31667
220,102235.02,N,,,,0.0,102243.48,1.0,Clear,10.0,82232.04,KTRK 051035Z AUTO 00000KT 10SM CLR 03/M02 A3019 RMK AO2,,69.64,0.0,3.0,2018-08-05 10:35:00,,-2.0,-2.07,1.0,,KTRK,5899,-120.13333,39.31667
221,102235.02,N,,,,0.0,102243.48,1.0,Clear,10.0,82232.04,KTRK 051055Z AUTO 00000KT 10SM CLR 03/M02 A3019 RMK AO2,,69.64,0.0,3.0,2018-08-05 10:55:00,,-2.0,-2.07,1.0,,KTRK,5899,-120.13333,39.31667
222,102235.02,N,,,,0.0,102322.71,1.0,Clear,10.0,82232.04,KTRK 051115Z AUTO 00000KT 10SM CLR 02/M01 A3019 RMK AO2,,80.49,0.0,2.0,2018-08-05 11:15:00,,-1.0,-1.05,1.0,,KTRK,5899,-120.13333,39.31667
223,102235.02,N,,,,0.0,102322.65,1.0,Clear,10.0,82232.04,KTRK 051135Z AUTO 00000KT 10SM CLR 02/00 A3019 RMK AO2,,86.58,0.0,2.0,2018-08-05 11:35:00,,0.0,-0.03,1.0,,KTRK,5899,-120.13333,39.31667
224,102235.02,N,,,,0.0,102322.65,1.0,Clear,10.0,82232.04,KTRK 051155Z AUTO 00000KT 10SM CLR 02/00 A3019 RMK AO2,,86.58,0.0,2.0,2018-08-05 11:55:00,,0.0,-0.03,1.0,,KTRK,5899,-120.13333,39.31667
225,102235.02,N,,,,0.0,102322.65,1.0,Clear,10.0,82232.04,KTRK 051215Z AUTO 00000KT 10SM CLR 02/00 A3019 RMK AO2,,86.58,0.0,2.0,2018-08-05 12:15:00,,0.0,-0.03,1.0,,KTRK,5899,-120.13333,39.31667
226,102235.02,N,,,,0.0,102402.56,1.0,Clear,10.0,82232.04,KTRK 051235Z AUTO 00000KT 10SM CLR 01/00 A3019 RMK AO2,,93.02,0.0,1.0,2018-08-05 12:35:00,,0.0,-0.02,1.0,,KTRK,5899,-120.13333,39.31667
227,102235.02,N,,,,0.0,102402.56,1.0,Clear,10.0,82232.04,KTRK 051255Z AUTO 00000KT 10SM CLR 01/00 A3019 RMK AO2,,93.02,0.0,1.0,2018-08-05 12:55:00,,0.0,-0.02,1.0,,KTRK,5899,-120.13333,39.31667
228,102268.89,N,,,,0.0,102517.12,1.0,Clear,10.0,82259.29,KTRK 051315Z AUTO 00000KT 10SM CLR 00/M01 A3020 RMK AO2,,92.96,0.0,0.0,2018-08-05 13:15:00,,-1.0,-1.02,1.0,,KTRK,5899,-120.13333,39.31667
229,102268.89,N,,,,0.0,102436.49,1.0,Clear,10.0,82259.29,KTRK 051335Z AUTO 00000KT 10SM CLR 01/00 A3020 RMK AO2,,93.02,0.0,1.0,2018-08-05 13:35:00,,0.0,-0.02,1.0,,KTRK,5899,-120.13333,39.31667
230,102268.89,N,,,57.99,0.0,99965.43,1.0,Clear,10.0,82259.29,KTRK 051345Z 00000KT 10SM SKC 36/31 A3020 RMK HZ ALQDS,,75.65,0.0,36.0,2018-08-05 13:45:00,,31.0,31.05,1.0,,KTRK,5899,-120.13333,39.31667
231,102336.62,N,,,,0.0,102110.72,1.0,Clear,10.0,82313.77,KTRK 051445Z 00000KT 10SM SKC 06/M02 A3022 RMK HZ ALQDS,,56.46,0.0,6.0,2018-08-05 14:45:00,,-2.0,-2.1,1.0,,KTRK,5899,-120.13333,39.31667
232,102336.62,N,,,,0.0,101731.95,1.0,Clear,10.0,82313.77,KTRK 051545Z 00000KT 10SM SKC 11/M01 A3022 RMK HZ ALQDS,,43.31,0.0,11.0,2018-08-05 15:45:00,,-1.0,-1.11,1.0,,KTRK,5899,-120.13333,39.31667
233,102268.89,N,,,,0.0,101372.02,1.0,Clear,10.0,82259.29,KTRK 051645Z 00000KT 10SM SKC 15/00 A3020 RMK HZ ALQDS,,35.88,0.0,15.0,2018-08-05 16:45:00,,0.0,-0.09,1.0,,KTRK,5899,-120.13333,39.31667
234,102235.02,N,,,,10.0,101054.54,1.0,Clear,10.0,82232.04,KTRK 051745Z 01003KT 10SM SKC 19/02 A3019 RMK HZ ALQDS,,32.17,1.54,19.0,2018-08-05 17:45:00,,2.0,1.94,1.0,,KTRK,5899,-120.13333,39.31667
235,102235.02,ENE,,,,70.0,100779.34,1.0,Clear,10.0,82232.04,KTRK 051845Z 07003KT 10SM SKC 23/M04 A3019,,16.22,1.54,23.0,2018-08-05 18:45:00,,-4.0,-3.99,1.0,,KTRK,5899,-120.13333,39.31667
236,102235.02,W,8.75,,,260.0,100578.11,1.0,Clear,10.0,82232.04,KTRK 051945Z 26010G17KT 10SM SKC 26/M09 A3019,,9.23,5.14,26.0,2018-08-05 19:45:00,,-9.0,-8.88,1.0,,KTRK,5899,-120.13333,39.31667
237,102235.02,SSW,,,26.0,200.0,100511.91,1.0,Clear,10.0,82232.04,KTRK 052045Z 20009KT 160V220 10SM SKC 27/M08 A3019,,9.41,4.63,27.0,2018-08-05 20:45:00,,-8.0,-7.86,1.0,,KTRK,5899,-120.13333,39.31667
238,102235.02,WSW,7.72,,26.0,240.0,100511.91,1.0,Clear,10.0,82232.04,KTRK 052150Z 24003G15KT 10SM SKC 27/M08 A3019,,9.41,1.54,27.0,2018-08-05 21:50:00,,-8.0,-7.86,1.0,,KTRK,5899,-120.13333,39.31667
239,102201.16,W,7.2,,26.04,280.0,100478.56,1.0,Clear,10.0,82204.81,KTRK 052255Z 28012G14KT 10SM SKC 27/M06 A3018 RMK HZ ALQDS,,10.98,6.17,27.0,2018-08-05 22:55:00,,-6.0,-5.89,1.0,,KTRK,5899,-120.13333,39.31667
240,102235.02,WSW,,,,250.0,100711.68,1.0,Clear,10.0,82232.04,KTRK 060055Z 25009KT 10SM SKC 24/M03 A3019 RMK HZ ALQDS,,16.46,4.63,24.0,2018-08-06 00:55:00,,-3.0,-2.97,1.0,,KTRK,5899,-120.13333,39.31667
241,102235.02,W,,,,260.0,100711.63,1.0,Clear,10.0,82232.04,KTRK 060115Z AUTO 26008KT 10SM CLR 24/M02 A3019 RMK AO2,,17.72,4.12,24.0,2018-08-06 01:15:00,,-2.0,-1.99,1.0,,KTRK,5899,-120.13333,39.31667
242,102235.02,W,,,,270.0,100779.26,1.0,Clear,10.0,82232.04,KTRK 060135Z AUTO 27006KT 10SM CLR 23/M02 A3019 RMK AO2,,18.82,3.09,23.0,2018-08-06 01:35:00,,-2.0,-2.0,1.0,,KTRK,5899,-120.13333,39.31667
243,102235.02,W,,,,280.0,100847.33,1.0,Clear,10.0,82232.04,KTRK 060155Z AUTO 28007KT 10SM CLR 22/M01 A3019 RMK AO2,,21.53,3.6,22.0,2018-08-06 01:55:00,,-1.0,-1.02,1.0,,KTRK,5899,-120.13333,39.31667
244,102268.89,WNW,,,,290.0,100880.74,1.0,Clear,10.0,82259.29,KTRK 060215Z AUTO 29007KT 10SM CLR 22/M01 A3020 RMK AO2,,21.53,3.6,22.0,2018-08-06 02:15:00,,-1.0,-1.02,1.0,,KTRK,5899,-120.13333,39.31667
245,102268.89,W,,,,270.0,100949.33,1.0,Clear,10.0,82259.29,KTRK 060235Z AUTO 27007KT 10SM CLR 21/00 A3020 RMK AO2,,24.61,3.6,21.0,2018-08-06 02:35:00,,0.0,-0.04,1.0,,KTRK,5899,-120.13333,39.31667
246,102302.75,W,,,,260.0,101051.92,1.0,Clear,10.0,82286.52,KTRK 060255Z AUTO 26008KT 10SM CLR 20/00 A3021 RMK AO2,,26.18,4.12,20.0,2018-08-06 02:55:00,,0.0,-0.05,1.0,,KTRK,5899,-120.13333,39.31667
247,102336.62,W,,,,270.0,101155.09,1.0,Clear,10.0,82313.77,KTRK 060315Z AUTO 27003KT 10SM CLR 19/00 A3022 RMK AO2,,27.85,1.54,19.0,2018-08-06 03:15:00,,0.0,-0.07,1.0,,KTRK,5899,-120.13333,39.31667
248,102336.62,N,,,,0.0,101225.32,1.0,Clear,10.0,82313.77,KTRK 060335Z AUTO 00000KT 10SM CLR 18/00 A3022 RMK AO2,,29.65,0.0,18.0,2018-08-06 03:35:00,,0.0,-0.07,1.0,,KTRK,5899,-120.13333,39.31667
249,102370.48,N,,,,0.0,101472.72,1.0,Clear,10.0,82341.0,KTRK 060355Z AUTO 00000KT 10SM CLR 15/00 A3023 RMK AO2,,35.88,0.0,15.0,2018-08-06 03:55:00,,0.0,-0.09,1.0,,KTRK,5899,-120.13333,39.31667
250,102370.48,SE,,,,130.0,101691.5,1.0,Clear,10.0,82341.0,KTRK 060415Z AUTO 13004KT 10SM CLR 12/00 A3023 RMK AO2,,43.61,2.06,12.0,2018-08-06 04:15:00,,0.0,-0.1,1.0,,KTRK,5899,-120.13333,39.31667
251,102404.34,N,,,,0.0,101799.21,1.0,Clear,10.0,82368.24,KTRK 060435Z AUTO 00000KT 10SM CLR 11/00 A3024 RMK AO2,,46.59,0.0,11.0,2018-08-06 04:35:00,,0.0,-0.1,1.0,,KTRK,5899,-120.13333,39.31667
252,102438.21,SSE,,,,150.0,101758.79,1.0,Clear,10.0,82395.48,KTRK 060455Z AUTO 15003KT 10SM CLR 12/00 A3025 RMK AO2,,43.61,1.54,12.0,2018-08-06 04:55:00,,0.0,-0.1,1.0,,KTRK,5899,-120.13333,39.31667
253,102438.21,SSE,,,,160.0,101832.88,1.0,Clear,10.0,82395.48,KTRK 060515Z AUTO 16003KT 10SM CLR 11/00 A3025 RMK AO2,,46.59,1.54,11.0,2018-08-06 05:15:00,,0.0,-0.1,1.0,,KTRK,5899,-120.13333,39.31667
254,102438.21,S,,,,190.0,101907.54,1.0,Clear,10.0,82395.48,KTRK 060535Z AUTO 19003KT 10SM CLR 10/00 A3025 RMK AO2,,49.8,1.54,10.0,2018-08-06 05:35:00,,0.0,-0.1,1.0,,KTRK,5899,-120.13333,39.31667
255,102472.07,SE,,,,140.0,102092.31,1.0,Clear,10.0,82422.71,KTRK 060555Z AUTO 14003KT 10SM CLR 08/00 A3026 RMK AO2,,56.99,1.54,8.0,2018-08-06 05:55:00,,0.0,-0.09,1.0,,KTRK,5899,-120.13333,39.31667
256,102472.07,N,,,,0.0,102016.47,1.0,Clear,10.0,82422.71,KTRK 060615Z AUTO 00000KT 10SM CLR 09/00 A3026 RMK AO2,,53.26,0.0,9.0,2018-08-06 06:15:00,,0.0,-0.09,1.0,,KTRK,5899,-120.13333,39.31667
257,102472.07,N,,,,0.0,102016.47,1.0,Clear,10.0,82422.71,KTRK 060635Z AUTO 00000KT 10SM CLR 09/00 A3026 RMK AO2,,53.26,0.0,9.0,2018-08-06 06:35:00,,0.0,-0.09,1.0,,KTRK,5899,-120.13333,39.31667
258,102472.07,N,,,,0.0,101941.21,1.0,Clear,10.0,82422.71,KTRK 060655Z AUTO 00000KT 10SM CLR 10/00 A3026 RMK AO2,,49.8,0.0,10.0,2018-08-06 06:55:00,,0.0,-0.1,1.0,,KTRK,5899,-120.13333,39.31667
259,102472.07,N,,,,0.0,102168.79,1.0,Clear,10.0,82422.71,KTRK 060715Z AUTO 00000KT 10SM CLR 07/M01 A3026 RMK AO2,,56.72,0.0,7.0,2018-08-06 07:15:00,,-1.0,-1.09,1.0,,KTRK,5899,-120.13333,39.31667
260,102505.93,N,,,,0.0,102279.54,1.0,Clear,10.0,82449.95,KTRK 060735Z AUTO 00000KT 10SM CLR 06/00 A3027 RMK AO2,,65.37,0.0,6.0,2018-08-06 07:35:00,,0.0,-0.08,1.0,,KTRK,5899,-120.13333,39.31667
261,102505.93,N,,,,0.0,102202.5,1.0,Clear,10.0,82449.95,KTRK 060755Z AUTO 00000KT 10SM CLR 07/00 A3027 RMK AO2,,61.02,0.0,7.0,2018-08-06 07:55:00,,0.0,-0.08,1.0,,KTRK,5899,-120.13333,39.31667
262,102505.93,N,,,,0.0,102202.44,1.0,Clear,10.0,82449.95,KTRK 060815Z AUTO 00000KT 10SM CLR 07/01 A3027 RMK AO2,,65.6,0.0,7.0,2018-08-06 08:15:00,,1.0,0.93,1.0,,KTRK,5899,-120.13333,39.31667
263,102505.93,N,,,,0.0,102279.54,1.0,Clear,10.0,82449.95,KTRK 060835Z AUTO 00000KT 10SM CLR 06/00 A3027 RMK AO2,,65.37,0.0,6.0,2018-08-06 08:35:00,,0.0,-0.08,1.0,,KTRK,5899,-120.13333,39.31667
264,102472.07,N,,,,0.0,102245.69,1.0,Clear,10.0,82422.71,KTRK 060855Z AUTO 00000KT 10SM CLR 06/01 A3026 RMK AO2,,70.27,0.0,6.0,2018-08-06 08:55:00,,1.0,0.93,1.0,,KTRK,5899,-120.13333,39.31667
265,102472.07,N,,,,0.0,102323.31,1.0,Clear,10.0,82422.71,KTRK 060915Z AUTO 00000KT 10SM CLR 05/01 A3026 RMK AO2,,75.32,0.0,5.0,2018-08-06 09:15:00,,1.0,0.94,1.0,,KTRK,5899,-120.13333,39.31667
266,102472.07,N,,,,0.0,102323.37,1.0,Clear,10.0,82422.71,KTRK 060935Z AUTO 00000KT 10SM CLR 05/00 A3026 RMK AO2,,70.06,0.0,5.0,2018-08-06 09:35:00,,0.0,-0.07,1.0,,KTRK,5899,-120.13333,39.31667
267,102505.93,N,,,,0.0,102357.19,1.0,Clear,10.0,82449.95,KTRK 060955Z AUTO 00000KT 10SM CLR 05/00 A3027 RMK AO2,,70.06,0.0,5.0,2018-08-06 09:55:00,,0.0,-0.07,1.0,,KTRK,5899,-120.13333,39.31667
268,102505.93,N,,,,0.0,102514.31,452.0,Partly Cloudy,10.0,82449.95,KTRK 061015Z AUTO 00000KT 10SM SCT045 03/00 A3027 RMK AO2,,80.63,0.0,3.0,2018-08-06 10:15:00,,0.0,-0.05,1.0,,KTRK,5899,-120.13333,39.31667
269,102505.93,N,,,,0.0,102435.38,453.0,Mostly Cloudy,10.0,82449.95,KTRK 061035Z AUTO 00000KT 10SM BKN045 04/01 A3027 RMK AO2,,80.78,0.0,4.0,2018-08-06 10:35:00,1371.6,1.0,0.96,1.0,,KTRK,5899,-120.13333,39.31667
270,102472.07,N,,,,0.0,102480.38,494.0,Overcast,10.0,82422.71,KTRK 061055Z AUTO 00000KT 10SM OVC049 03/01 A3026 RMK AO2,,86.68,0.0,3.0,2018-08-06 10:55:00,1493.52,1.0,0.97,1.0,,KTRK,5899,-120.13333,39.31667
271,102505.93,N,,,,0.0,102435.38,494.0,Overcast,10.0,82449.95,KTRK 061115Z AUTO 00000KT 10SM OVC049 04/01 A3027 RMK AO2,,80.78,0.0,4.0,2018-08-06 11:15:00,1493.52,1.0,0.96,1.0,,KTRK,5899,-120.13333,39.31667
272,102505.93,N,,,,0.0,102514.25,494.0,Overcast,10.0,82449.95,KTRK 061135Z AUTO 00000KT 10SM OVC049 03/01 A3027 RMK AO2,,86.68,0.0,3.0,2018-08-06 11:35:00,1493.52,1.0,0.97,1.0,,KTRK,5899,-120.13333,39.31667
273,102505.93,N,,,,0.0,102514.31,492.0,Overcast,10.0,82449.95,KTRK 061155Z AUTO 00000KT 10SM SCT049 OVC065 03/00 A3027 RMK AO2,654.0,80.63,0.0,3.0,2018-08-06 11:55:00,1981.2,0.0,-0.05,1.0,,KTRK,5899,-120.13333,39.31667
274,102539.8,N,,,,0.0,102469.22,652.0,Partly Cloudy,10.0,82477.19,KTRK 061215Z AUTO 00000KT 10SM SCT065 04/01 A3028 RMK AO2,,80.78,0.0,4.0,2018-08-06 12:15:00,,1.0,0.96,1.0,,KTRK,5899,-120.13333,39.31667
275,102539.8,N,,,,0.0,102707.84,652.0,Partly Cloudy,10.0,82477.19,KTRK 061235Z AUTO 00000KT 10SM SCT065 01/00 A3028 RMK AO2,,93.02,0.0,1.0,2018-08-06 12:35:00,,0.0,-0.02,1.0,,KTRK,5899,-120.13333,39.31667
276,102539.8,N,,,,0.0,102548.18,652.0,Partly Cloudy,10.0,82477.19,KTRK 061255Z AUTO 00000KT 10SM SCT065 03/00 A3028 RMK AO2,,80.63,0.0,3.0,2018-08-06 12:55:00,,0.0,-0.05,1.0,,KTRK,5899,-120.13333,39.31667
277,102573.66,N,,,,0.0,102661.59,1.0,Clear,10.0,82504.43,KTRK 061315Z AUTO 00000KT 10SM CLR 02/00 A3029 RMK AO2,,86.58,0.0,2.0,2018-08-06 13:15:00,,0.0,-0.03,1.0,,KTRK,5899,-120.13333,39.31667
278,102573.66,N,,,,0.0,102661.59,1.0,Clear,10.0,82504.43,KTRK 061335Z AUTO 00000KT 10SM CLR 02/00 A3029 RMK AO2,,86.58,0.0,2.0,2018-08-06 13:35:00,,0.0,-0.03,1.0,,KTRK,5899,-120.13333,39.31667
279,102573.66,N,,,,0.0,102582.05,1.0,Clear,10.0,82504.43,KTRK 061345Z 00000KT 10SM SKC 03/00 A3029 RMK HZ ALQDS,,80.63,0.0,3.0,2018-08-06 13:45:00,,0.0,-0.05,1.0,,KTRK,5899,-120.13333,39.31667
280,102641.39,N,,,,0.0,102337.5,1.0,Clear,8.0,82558.91,KTRK 061450Z 00000KT 8SM SKC 07/01 A3031 RMK HZ ALQDS,,65.6,0.0,7.0,2018-08-06 14:50:00,,1.0,0.93,1.0,,KTRK,5899,-120.13333,39.31667
281,102641.39,N,,,,0.0,102034.74,1.0,Clear,8.0,82558.91,KTRK 061545Z 00000KT 8SM SKC 11/02 A3031 RMK HZ ALQDS,,53.81,0.0,11.0,2018-08-06 15:45:00,,2.0,1.91,1.0,,KTRK,5899,-120.13333,39.31667
282,102607.53,N,,,,0.0,101707.57,1.0,Clear,8.0,82531.67,KTRK 061645Z 00000KT 8SM SKC 15/02 A3030 RMK HZ ALQDS,,41.44,0.0,15.0,2018-08-06 16:45:00,,2.0,1.91,1.0,,KTRK,5899,-120.13333,39.31667
283,102539.8,N,,,,350.0,101011.66,1.0,Clear,8.0,82477.19,KTRK 061855Z 35005KT 8SM SKC 24/02 A3028 RMK HZ ALQDS,,23.7,2.57,24.0,2018-08-06 18:55:00,,2.0,2.0,1.0,,KTRK,5899,-120.13333,39.31667
284,102438.21,S,,,26.83,170.0,100645.21,1.0,Clear,7.0,82395.48,KTRK 062045Z 17004KT 7SM SKC 28/05 A3025 FU RMK HZ ALQDS,,23.13,2.06,28.0,2018-08-06 20:45:00,,5.0,5.06,1.0,,KTRK,5899,-120.13333,39.31667
285,102336.62,N,,,27.1,0.0,100480.68,1.0,Clear,8.0,82313.77,KTRK 062350Z 00000KT 8SM SKC 29/M06 A3022 FU RMK FU ALQDS,,9.78,0.0,29.0,2018-08-06 23:50:00,,-6.0,-5.83,1.0,,KTRK,5899,-120.13333,39.31667
286,102302.75,W,7.2,,26.24,260.0,100578.11,1.0,Clear,8.0,82286.52,KTRK 070050Z 26010G14KT 8SM SKC 27/01 A3021 FU RMK FU ALQDS,,18.47,5.14,27.0,2018-08-07 00:50:00,,1.0,1.06,1.0,,KTRK,5899,-120.13333,39.31667
287,102336.62,WSW,,,,250.0,100677.66,1102.0,Partly Cloudy,10.0,82313.77,KTRK 070115Z AUTO 25008KT 230V290 10SM SCT110 26/01 A3022 RMK AO2,,19.59,4.12,26.0,2018-08-07 01:15:00,,1.0,1.04,1.0,,KTRK,5899,-120.13333,39.31667
288,102336.62,W,,,,260.0,100744.37,1102.0,Partly Cloudy,10.0,82313.77,KTRK 070135Z AUTO 26009KT 10SM SCT110 25/01 A3022 RMK AO2,,20.78,4.63,25.0,2018-08-07 01:35:00,,1.0,1.02,1.0,,KTRK,5899,-120.13333,39.31667
289,102336.62,WSW,,,,250.0,100744.37,1102.0,Partly Cloudy,10.0,82313.77,KTRK 070155Z AUTO 25005KT 10SM SCT110 25/01 A3022 RMK AO2,,20.78,2.57,25.0,2018-08-07 01:55:00,,1.0,1.02,1.0,,KTRK,5899,-120.13333,39.31667
290,102370.48,SSW,,,,210.0,100844.92,1002.0,Partly Cloudy,10.0,82341.0,KTRK 070215Z AUTO 21006KT 10SM SCT100 24/01 A3023 RMK AO2,,22.06,3.09,24.0,2018-08-07 02:15:00,,1.0,1.0,1.0,,KTRK,5899,-120.13333,39.31667
291,102370.48,W,,,,260.0,100912.63,1.0,Clear,10.0,82341.0,KTRK 070235Z AUTO 26005KT 10SM CLR 23/01 A3023 RMK AO2,,23.43,2.57,23.0,2018-08-07 02:35:00,,1.0,0.99,1.0,,KTRK,5899,-120.13333,39.31667
292,102370.48,WNW,,,,290.0,100912.63,1.0,Clear,10.0,82341.0,KTRK 070255Z AUTO 29007KT 10SM CLR 23/01 A3023 RMK AO2,,23.43,3.6,23.0,2018-08-07 02:55:00,,1.0,0.99,1.0,,KTRK,5899,-120.13333,39.31667
293,102404.34,WSW,,,,250.0,101014.25,952.0,Partly Cloudy,10.0,82368.24,KTRK 070315Z AUTO 25003KT 10SM SCT095 22/01 A3024 RMK AO2,,24.89,1.54,22.0,2018-08-07 03:15:00,,1.0,0.97,1.0,,KTRK,5899,-120.13333,39.31667
294,102438.21,N,,,,0.0,101325.75,952.0,Partly Cloudy,10.0,82395.48,KTRK 070335Z AUTO 00000KT 10SM SCT095 18/01 A3025 RMK AO2,,31.88,0.0,18.0,2018-08-07 03:35:00,,1.0,0.93,1.0,,KTRK,5899,-120.13333,39.31667
295,102438.21,SE,,,,140.0,101396.56,952.0,Partly Cloudy,10.0,82395.48,KTRK 070355Z AUTO 14004KT 10SM SCT095 17/01 A3025 RMK AO2,,33.95,2.06,17.0,2018-08-07 03:55:00,,1.0,0.92,1.0,,KTRK,5899,-120.13333,39.31667
296,102472.07,SE,,,,140.0,101501.39,953.0,Mostly Cloudy,10.0,82422.71,KTRK 070415Z AUTO 14005KT 10SM BKN095 16/02 A3026 RMK AO2,,38.87,2.57,16.0,2018-08-07 04:15:00,2895.6,2.0,1.92,1.0,,KTRK,5899,-120.13333,39.31667
297,102472.07,N,,,,0.0,101573.29,954.0,Overcast,10.0,82422.71,KTRK 070435Z AUTO 00000KT 10SM OVC095 15/02 A3026 RMK AO2,,41.44,0.0,15.0,2018-08-07 04:35:00,2895.6,2.0,1.91,1.0,,KTRK,5899,-120.13333,39.31667
298,102472.07,S,,,,170.0,101645.74,952.0,Partly Cloudy,10.0,82422.71,KTRK 070455Z AUTO 17003KT 10SM SCT095 14/02 A3026 RMK AO2,,44.2,1.54,14.0,2018-08-07 04:55:00,,2.0,1.91,1.0,,KTRK,5899,-120.13333,39.31667
299,102472.07,N,,,,0.0,101573.23,1.0,Clear,10.0,82422.71,KTRK 070515Z AUTO 00000KT 10SM CLR 15/03 A3026 RMK AO2,,44.49,0.0,15.0,2018-08-07 05:15:00,,3.0,2.92,1.0,,KTRK,5899,-120.13333,39.31667
300,102472.07,N,,,,0.0,101718.74,1.0,Clear,10.0,82422.71,KTRK 070535Z AUTO 00000KT 10SM CLR 13/02 A3026 RMK AO2,,47.17,0.0,13.0,2018-08-07 05:35:00,,2.0,1.91,1.0,,KTRK,5899,-120.13333,39.31667
301,102438.21,N,,,,0.0,101758.67,1.0,Clear,10.0,82395.48,KTRK 070555Z AUTO 00000KT 10SM CLR 12/02 A3025 RMK AO2,,50.37,0.0,12.0,2018-08-07 05:55:00,,2.0,1.91,1.0,,KTRK,5899,-120.13333,39.31667
302,102438.21,N,,,,0.0,101758.6,1.0,Clear,10.0,82395.48,KTRK 070615Z AUTO 00000KT 10SM CLR 12/03 A3025 RMK AO2,,54.08,0.0,12.0,2018-08-07 06:15:00,,3.0,2.92,1.0,,KTRK,5899,-120.13333,39.31667
303,102438.21,N,,,,0.0,101758.67,803.0,Mostly Cloudy,10.0,82395.48,KTRK 070635Z AUTO 00000KT 10SM BKN080 12/02 A3025 RMK AO2,,50.37,0.0,12.0,2018-08-07 06:35:00,2438.4,2.0,1.91,1.0,,KTRK,5899,-120.13333,39.31667
304,102472.07,N,,,,0.0,101792.23,803.0,Mostly Cloudy,10.0,82422.71,KTRK 070655Z AUTO 00000KT 10SM BKN080 12/03 A3026 RMK AO2,,54.08,0.0,12.0,2018-08-07 06:55:00,2438.4,3.0,2.92,1.0,,KTRK,5899,-120.13333,39.31667
305,102472.07,N,,,,0.0,101941.09,802.0,Partly Cloudy,10.0,82422.71,KTRK 070715Z AUTO 00000KT 10SM SCT080 10/02 A3026 RMK AO2,,57.52,0.0,10.0,2018-08-07 07:15:00,,2.0,1.92,1.0,,KTRK,5899,-120.13333,39.31667
306,102472.07,N,,,,0.0,101866.34,1.0,Clear,10.0,82422.71,KTRK 070735Z AUTO 00000KT 10SM CLR 11/03 A3026 RMK AO2,,57.78,0.0,11.0,2018-08-07 07:35:00,,3.0,2.92,1.0,,KTRK,5899,-120.13333,39.31667
307,102438.21,N,,,,0.0,101982.65,1.0,Clear,10.0,82395.48,KTRK 070755Z AUTO 00000KT 10SM CLR 09/02 A3025 RMK AO2,,61.51,0.0,9.0,2018-08-07 07:55:00,,2.0,1.92,1.0,,KTRK,5899,-120.13333,39.31667
308,102438.21,N,,,,0.0,102058.46,1.0,Clear,10.0,82395.48,KTRK 070815Z AUTO 00000KT 10SM CLR 08/02 A3025 RMK AO2,,65.82,0.0,8.0,2018-08-07 08:15:00,,2.0,1.93,1.0,,KTRK,5899,-120.13333,39.31667
309,102438.21,N,,,,0.0,101907.41,1.0,Clear,10.0,82395.48,KTRK 070835Z AUTO 00000KT 10SM CLR 10/02 A3025 RMK AO2,,57.52,0.0,10.0,2018-08-07 08:35:00,,2.0,1.92,1.0,,KTRK,5899,-120.13333,39.31667
310,102438.21,N,,,,0.0,102058.39,1.0,Clear,10.0,82395.48,KTRK 070855Z AUTO 00000KT 10SM CLR 08/03 A3025 RMK AO2,,70.68,0.0,8.0,2018-08-07 08:55:00,,3.0,2.94,1.0,,KTRK,5899,-120.13333,39.31667
311,102438.21,N,,,,0.0,102058.46,1.0,Clear,10.0,82395.48,KTRK 070915Z AUTO 00000KT 10SM CLR 08/02 A3025 RMK AO2,,65.82,0.0,8.0,2018-08-07 09:15:00,,2.0,1.93,1.0,,KTRK,5899,-120.13333,39.31667
312,102404.34,N,,,,0.0,102101.09,1.0,Clear,10.0,82368.24,KTRK 070935Z AUTO 00000KT 10SM CLR 07/02 A3024 RMK AO2,,70.47,0.0,7.0,2018-08-07 09:35:00,,2.0,1.94,1.0,,KTRK,5899,-120.13333,39.31667
313,102404.34,N,,,,0.0,102101.09,1.0,Clear,10.0,82368.24,KTRK 070955Z AUTO 00000KT 10SM CLR 07/02 A3024 RMK AO2,,70.47,0.0,7.0,2018-08-07 09:55:00,,2.0,1.94,1.0,,KTRK,5899,-120.13333,39.31667
314,102404.34,N,,,,0.0,102101.09,1.0,Clear,10.0,82368.24,KTRK 071015Z AUTO 00000KT 10SM CLR 07/02 A3024 RMK AO2,,70.47,0.0,7.0,2018-08-07 10:15:00,,2.0,1.94,1.0,,KTRK,5899,-120.13333,39.31667
315,102404.34,N,,,,0.0,102178.06,1.0,Clear,10.0,82368.24,KTRK 071035Z AUTO 00000KT 10SM CLR 06/02 A3024 RMK AO2,,75.5,0.0,6.0,2018-08-07 10:35:00,,2.0,1.95,1.0,,KTRK,5899,-120.13333,39.31667
316,102404.34,N,,,,0.0,102178.06,1.0,Clear,10.0,82368.24,KTRK 071055Z AUTO 00000KT 10SM CLR 06/02 A3024 RMK AO2,,75.5,0.0,6.0,2018-08-07 10:55:00,,2.0,1.95,1.0,,KTRK,5899,-120.13333,39.31667
317,102404.34,N,,,,0.0,102178.06,1.0,Clear,10.0,82368.24,KTRK 071115Z AUTO 00000KT 10SM CLR 06/02 A3024 RMK AO2,,75.5,0.0,6.0,2018-08-07 11:15:00,,2.0,1.95,1.0,,KTRK,5899,-120.13333,39.31667
318,102370.48,N,,,,0.0,102221.81,1.0,Clear,10.0,82341.0,KTRK 071135Z AUTO 00000KT 10SM CLR 05/02 A3023 RMK AO2,,80.92,0.0,5.0,2018-08-07 11:35:00,,2.0,1.96,1.0,,KTRK,5899,-120.13333,39.31667
319,102370.48,N,,,,0.0,102144.26,1.0,Clear,10.0,82341.0,KTRK 071155Z AUTO 00000KT 10SM CLR 06/02 A3023 RMK AO2,,75.5,0.0,6.0,2018-08-07 11:55:00,,2.0,1.95,1.0,,KTRK,5899,-120.13333,39.31667
320,102370.48,N,,,,0.0,102221.87,1.0,Clear,10.0,82341.0,KTRK 071215Z AUTO 00000KT 10SM CLR 05/01 A3023 RMK AO2,,75.32,0.0,5.0,2018-08-07 12:15:00,,1.0,0.94,1.0,,KTRK,5899,-120.13333,39.31667
321,102438.21,N,,,,0.0,102289.44,1.0,Clear,10.0,82395.48,KTRK 071235Z AUTO 00000KT 10SM CLR 05/02 A3025 RMK AO2,,80.92,0.0,5.0,2018-08-07 12:35:00,,2.0,1.96,1.0,,KTRK,5899,-120.13333,39.31667
322,102438.21,N,,,,0.0,102211.85,1.0,Clear,10.0,82395.48,KTRK 071255Z AUTO 00000KT 10SM CLR 06/02 A3025 RMK AO2,,75.5,0.0,6.0,2018-08-07 12:55:00,,2.0,1.95,1.0,,KTRK,5899,-120.13333,39.31667
323,102438.21,N,,,,0.0,102367.71,1.0,Clear,10.0,82395.48,KTRK 071315Z AUTO 00000KT 10SM CLR 04/01 A3025 RMK AO2,,80.78,0.0,4.0,2018-08-07 13:15:00,,1.0,0.96,1.0,,KTRK,5899,-120.13333,39.31667
324,102438.21,N,,,,0.0,102446.52,1.0,Clear,10.0,82395.48,KTRK 071335Z AUTO 00000KT 10SM CLR 03/01 A3025 RMK AO2,,86.68,0.0,3.0,2018-08-07 13:35:00,,1.0,0.97,1.0,,KTRK,5899,-120.13333,39.31667
325,102438.21,N,,,,0.0,102289.44,1.0,Clear,8.0,82395.48,KTRK 071345Z 00000KT 8SM SKC 05/02 A3025 FU RMK FU ALQDS,,80.92,0.0,5.0,2018-08-07 13:45:00,,2.0,1.96,1.0,,KTRK,5899,-120.13333,39.31667
326,102472.07,N,,,,0.0,102092.19,1.0,Clear,7.0,82422.71,KTRK 071445Z 00000KT 7SM SKC 08/02 A3026 FU RMK FU ALQDS,,65.82,0.0,8.0,2018-08-07 14:45:00,,2.0,1.93,1.0,,KTRK,5899,-120.13333,39.31667
327,102438.21,N,,,,0.0,101685.07,1.0,Clear,7.0,82395.48,KTRK 071545Z 00000KT 7SM SKC 13/03 A3025 FU RMK FU ALQDS,,50.65,0.0,13.0,2018-08-07 15:45:00,,3.0,2.92,1.0,,KTRK,5899,-120.13333,39.31667
328,102336.62,N,,,,0.0,100947.26,1.0,Clear,7.0,82313.77,KTRK 071745Z 00000KT 7SM SKC 22/04 A3022 FU RMK FU ALQDS,,30.82,0.0,22.0,2018-08-07 17:45:00,,4.0,3.97,1.0,,KTRK,5899,-120.13333,39.31667
329,102268.89,N,,,26.17,10.0,100544.94,1.0,Clear,9.0,82259.29,KTRK 071845Z 01004KT 9SM SKC 27/M01 A3020 FU RMK FU ALQDS,,15.97,2.06,27.0,2018-08-07 18:45:00,,-1.0,-0.93,1.0,,KTRK,5899,-120.13333,39.31667
330,102201.16,N,,,27.38,360.0,100347.41,1.0,Clear,8.0,82204.81,KTRK 071945Z 36007KT 8SM SKC 29/00 A3018 FU RMK FU ALQDS,,15.29,3.6,29.0,2018-08-07 19:45:00,,0.0,0.11,1.0,,KTRK,5899,-120.13333,39.31667
331,102167.3,S,8.23,,28.52,170.0,100185.44,1.0,Clear,8.0,82177.57,KTRK 072055Z 17011G16KT 8SM SKC 31/M06 A3017 FU RMK FU ALQDS,,8.72,5.66,31.0,2018-08-07 20:55:00,,-6.0,-5.77,1.0,,KTRK,5899,-120.13333,39.31667
332,102133.43,S,,,28.52,190.0,100152.23,1.0,Clear,8.0,82150.33,KTRK 072145Z 19004KT 8SM SKC 31/M06 A3016 FU RMK FU ALQDS,,8.72,2.06,31.0,2018-08-07 21:45:00,,-6.0,-5.77,1.0,,KTRK,5899,-120.13333,39.31667
333,102065.7,W,,,26.95,280.0,100279.06,1.0,Clear,7.0,82095.85,KTRK 080055Z 28007KT 7SM SKC 28/07 A3014 FU RMK FU ALQDS,,26.56,3.6,28.0,2018-08-08 00:55:00,,7.0,7.05,1.0,,KTRK,5899,-120.13333,39.31667
334,102065.7,W,,,26.49,260.0,100344.65,1.0,Clear,10.0,82095.85,KTRK 080115Z AUTO 26011KT 10SM CLR 27/07 A3014 RMK AO2,,28.15,5.66,27.0,2018-08-08 01:15:00,,7.0,7.03,1.0,,KTRK,5899,-120.13333,39.31667
335,102065.7,W,,,,270.0,100410.79,1.0,Clear,10.0,82095.85,KTRK 080135Z AUTO 27012KT 10SM CLR 26/06 A3014 RMK AO2,,27.87,6.17,26.0,2018-08-08 01:35:00,,6.0,6.01,1.0,,KTRK,5899,-120.13333,39.31667
336,102099.57,W,7.2,,,260.0,100444.11,1.0,Clear,10.0,82123.1,KTRK 080155Z AUTO 26008G14KT 10SM CLR 26/06 A3015 RMK AO2,,27.87,4.12,26.0,2018-08-08 01:55:00,,6.0,6.01,1.0,,KTRK,5899,-120.13333,39.31667
337,102099.57,W,,,,260.0,100510.67,1102.0,Partly Cloudy,10.0,82123.1,KTRK 080215Z AUTO 26003KT 10SM SCT110 25/06 A3015 RMK AO2,,29.57,1.54,25.0,2018-08-08 02:15:00,,6.0,6.0,1.0,,KTRK,5899,-120.13333,39.31667
338,102133.43,WSW,,,,250.0,100611.07,1.0,Clear,10.0,82150.33,KTRK 080235Z AUTO 25005KT 10SM CLR 24/06 A3016 RMK AO2,,31.39,2.57,24.0,2018-08-08 02:35:00,,6.0,5.99,1.0,,KTRK,5899,-120.13333,39.31667
339,102133.43,W,,,,280.0,100611.07,1.0,Clear,10.0,82150.33,KTRK 080255Z AUTO 28007KT 10SM CLR 24/06 A3016 RMK AO2,,31.39,3.6,24.0,2018-08-08 02:55:00,,6.0,5.99,1.0,,KTRK,5899,-120.13333,39.31667
340,102133.43,S,,,,170.0,100815.22,1.0,Clear,10.0,82150.33,KTRK 080315Z AUTO 17004KT 10SM CLR 21/06 A3016 RMK AO2,,37.66,2.06,21.0,2018-08-08 03:15:00,,6.0,5.96,1.0,,KTRK,5899,-120.13333,39.31667
341,102167.3,N,,,,0.0,100848.57,1102.0,Partly Cloudy,10.0,82177.57,KTRK 080335Z AUTO 00000KT 10SM SCT110 21/07 A3017 RMK AO2,,40.34,0.0,21.0,2018-08-08 03:35:00,,7.0,6.96,1.0,,KTRK,5899,-120.13333,39.31667
342,102201.16,N,,,,0.0,101090.84,1003.0,Mostly Cloudy,10.0,82204.81,KTRK 080355Z AUTO 00000KT 10SM BKN100 18/07 A3018 RMK AO2,,48.59,0.0,18.0,2018-08-08 03:55:00,3048.0,7.0,6.94,1.0,,KTRK,5899,-120.13333,39.31667
343,102235.02,N,,,,0.0,101124.41,1002.0,Partly Cloudy,10.0,82232.04,KTRK 080415Z AUTO 00000KT 10SM SCT100 18/06 A3019 RMK AO2,,45.36,0.0,18.0,2018-08-08 04:15:00,,6.0,5.94,1.0,,KTRK,5899,-120.13333,39.31667
344,102235.02,S,,,,170.0,101266.37,1002.0,Partly Cloudy,10.0,82232.04,KTRK 080435Z AUTO 17004KT 10SM SCT100 16/05 A3019 RMK AO2,,48.03,2.06,16.0,2018-08-08 04:35:00,,5.0,4.93,1.0,,KTRK,5899,-120.13333,39.31667
345,102268.89,S,,,,170.0,101228.62,1002.0,Partly Cloudy,10.0,82259.29,KTRK 080455Z AUTO 17003KT 10SM SCT100 17/06 A3020 RMK AO2,,48.31,1.54,17.0,2018-08-08 04:55:00,,6.0,5.93,1.0,,KTRK,5899,-120.13333,39.31667
346,102268.89,N,,,,0.0,101371.62,1.0,Clear,10.0,82259.29,KTRK 080515Z AUTO 00000KT 10SM CLR 15/06 A3020 RMK AO2,,54.89,0.0,15.0,2018-08-08 05:15:00,,6.0,5.93,1.0,,KTRK,5899,-120.13333,39.31667
347,102268.89,N,,,,0.0,101299.85,1.0,Clear,10.0,82259.29,KTRK 080535Z AUTO 00000KT 10SM CLR 16/06 A3020 RMK AO2,,51.48,0.0,16.0,2018-08-08 05:35:00,,6.0,5.93,1.0,,KTRK,5899,-120.13333,39.31667
348,102268.89,N,,,,0.0,101516.77,1.0,Clear,10.0,82259.29,KTRK 080555Z AUTO 00000KT 10SM CLR 13/06 A3020 RMK AO2,,62.48,0.0,13.0,2018-08-08 05:55:00,,6.0,5.94,1.0,,KTRK,5899,-120.13333,39.31667
349,102268.89,N,,,,0.0,101516.77,1.0,Clear,10.0,82259.29,KTRK 080615Z AUTO 00000KT 10SM CLR 13/06 A3020 RMK AO2,,62.48,0.0,13.0,2018-08-08 06:15:00,,6.0,5.94,1.0,,KTRK,5899,-120.13333,39.31667
350,102268.89,N,,,,0.0,101516.69,1.0,Clear,10.0,82259.29,KTRK 080635Z AUTO 00000KT 10SM CLR 13/07 A3020 RMK AO2,,66.93,0.0,13.0,2018-08-08 06:35:00,,7.0,6.94,1.0,,KTRK,5899,-120.13333,39.31667
351,102268.89,N,,,,0.0,101371.53,1.0,Clear,10.0,82259.29,KTRK 080655Z AUTO 00000KT 10SM CLR 15/07 A3020 RMK AO2,,58.8,0.0,15.0,2018-08-08 06:55:00,,7.0,6.94,1.0,,KTRK,5899,-120.13333,39.31667
352,102268.89,N,,,,0.0,101516.77,1.0,Clear,10.0,82259.29,KTRK 080715Z AUTO 00000KT 10SM CLR 13/06 A3020 RMK AO2,,62.48,0.0,13.0,2018-08-08 07:15:00,,6.0,5.94,1.0,,KTRK,5899,-120.13333,39.31667
353,102268.89,N,,,,0.0,101590.18,1.0,Clear,10.0,82259.29,KTRK 080735Z AUTO 00000KT 10SM CLR 12/06 A3020 RMK AO2,,66.71,0.0,12.0,2018-08-08 07:35:00,,6.0,5.94,1.0,,KTRK,5899,-120.13333,39.31667
354,102268.89,N,,,,0.0,101590.18,1.0,Clear,10.0,82259.29,KTRK 080755Z AUTO 00000KT 10SM CLR 12/06 A3020 RMK AO2,,66.71,0.0,12.0,2018-08-08 07:55:00,,6.0,5.94,1.0,,KTRK,5899,-120.13333,39.31667
355,102268.89,N,,,,0.0,101664.15,1.0,Clear,10.0,82259.29,KTRK 080815Z AUTO 00000KT 10SM CLR 11/06 A3020 RMK AO2,,71.27,0.0,11.0,2018-08-08 08:15:00,,6.0,5.95,1.0,,KTRK,5899,-120.13333,39.31667
356,102268.89,N,,,,0.0,101738.68,1.0,Clear,10.0,82259.29,KTRK 080835Z AUTO 00000KT 10SM CLR 10/06 A3020 RMK AO2,,76.18,0.0,10.0,2018-08-08 08:35:00,,6.0,5.95,1.0,,KTRK,5899,-120.13333,39.31667
357,102268.89,N,,,,0.0,101664.15,1.0,Clear,10.0,82259.29,KTRK 080855Z AUTO 00000KT 10SM CLR 11/06 A3020 RMK AO2,,71.27,0.0,11.0,2018-08-08 08:55:00,,6.0,5.95,1.0,,KTRK,5899,-120.13333,39.31667
358,102302.75,N,,,,0.0,101697.8,1.0,Clear,10.0,82286.52,KTRK 080915Z AUTO 00000KT 10SM CLR 11/06 A3021 RMK AO2,,71.27,0.0,11.0,2018-08-08 09:15:00,,6.0,5.95,1.0,,KTRK,5899,-120.13333,39.31667
359,102268.89,N,,,,0.0,101738.68,1.0,Clear,10.0,82259.29,KTRK 080935Z AUTO 00000KT 10SM CLR 10/06 A3020 RMK AO2,,76.18,0.0,10.0,2018-08-08 09:35:00,,6.0,5.95,1.0,,KTRK,5899,-120.13333,39.31667
360,102268.89,N,,,,0.0,101813.79,1.0,Clear,10.0,82259.29,KTRK 080955Z AUTO 00000KT 10SM CLR 09/06 A3020 RMK AO2,,81.48,0.0,9.0,2018-08-08 09:55:00,,6.0,5.96,1.0,,KTRK,5899,-120.13333,39.31667
361,102302.75,N,,,,0.0,101923.2,1.0,Clear,10.0,82286.52,KTRK 081015Z AUTO 00000KT 10SM CLR 08/06 A3021 RMK AO2,,87.19,0.0,8.0,2018-08-08 10:15:00,,6.0,5.97,1.0,,KTRK,5899,-120.13333,39.31667
362,102302.75,N,,,,0.0,101847.57,1.0,Clear,10.0,82286.52,KTRK 081035Z AUTO 00000KT 10SM CLR 09/05 A3021 RMK AO2,,76.02,0.0,9.0,2018-08-08 10:35:00,,5.0,4.95,1.0,,KTRK,5899,-120.13333,39.31667
363,102302.75,N,,,,0.0,101923.2,1.0,Clear,10.0,82286.52,KTRK 081055Z AUTO 00000KT 10SM CLR 08/06 A3021 RMK AO2,,87.19,0.0,8.0,2018-08-08 10:55:00,,6.0,5.97,1.0,,KTRK,5899,-120.13333,39.31667
364,102302.75,N,,,,0.0,101999.58,1.0,Clear,10.0,82286.52,KTRK 081115Z AUTO 00000KT 10SM CLR 07/05 A3021 RMK AO2,,87.09,0.0,7.0,2018-08-08 11:15:00,,5.0,4.97,1.0,,KTRK,5899,-120.13333,39.31667
365,102302.75,N,,,,0.0,101999.5,1.0,Clear,10.0,82286.52,KTRK 081135Z AUTO 00000KT 10SM CLR 07/06 A3021 RMK AO2,,93.35,0.0,7.0,2018-08-08 11:35:00,,6.0,5.99,1.0,,KTRK,5899,-120.13333,39.31667
366,102336.62,N,,,,0.0,102110.35,1.0,Clear,10.0,82313.77,KTRK 081155Z AUTO 00000KT 10SM CLR 06/04 A3022 RMK AO2,,86.99,0.0,6.0,2018-08-08 11:55:00,,4.0,3.97,1.0,,KTRK,5899,-120.13333,39.31667
367,102336.62,N,,,,0.0,102033.27,1.0,Clear,10.0,82313.77,KTRK 081215Z AUTO 00000KT 10SM CLR 07/06 A3022 RMK AO2,,93.35,0.0,7.0,2018-08-08 12:15:00,,6.0,5.99,1.0,,KTRK,5899,-120.13333,39.31667
368,102336.62,N,,,,0.0,102110.27,1.0,Clear,7.0,82313.77,KTRK 081235Z AUTO 00000KT 7SM CLR 06/05 A3022 RMK AO2,,93.3,0.0,6.0,2018-08-08 12:35:00,,5.0,4.99,1.0,,KTRK,5899,-120.13333,39.31667
369,102336.62,N,,,,0.0,102033.43,1.0,Clear,10.0,82313.77,KTRK 081255Z AUTO 00000KT 10SM CLR 07/04 A3022 RMK AO2,,81.2,0.0,7.0,2018-08-08 12:55:00,,4.0,3.96,1.0,,KTRK,5899,-120.13333,39.31667
370,102370.48,N,,,,0.0,102067.03,1.0,Clear,7.0,82341.0,KTRK 081315Z AUTO 00000KT 7SM CLR 07/06 A3023 RMK AO2,,93.35,0.0,7.0,2018-08-08 13:15:00,,6.0,5.99,1.0,,KTRK,5899,-120.13333,39.31667
371,102370.48,N,,,,0.0,102221.67,1.0,Clear,7.0,82341.0,KTRK 081335Z AUTO 00000KT 7SM CLR 05/04 A3023 RMK AO2,,93.24,0.0,5.0,2018-08-08 13:35:00,,4.0,3.99,1.0,,KTRK,5899,-120.13333,39.31667
372,102370.48,N,,,,0.0,102067.03,1.0,Clear,7.0,82341.0,KTRK 081345Z 00000KT 7SM SKC 07/06 A3023 FU RMK FU ALQDS,,93.35,0.0,7.0,2018-08-08 13:45:00,,6.0,5.99,1.0,,KTRK,5899,-120.13333,39.31667
373,102438.21,N,,,,0.0,101832.47,1.0,Clear,7.0,82395.48,KTRK 081445Z 00000KT 7SM SKC 11/06 A3025 FU RMK FU ALQDS,,71.27,0.0,11.0,2018-08-08 14:45:00,,6.0,5.95,1.0,,KTRK,5899,-120.13333,39.31667
374,102472.07,N,,,,0.0,101645.46,1.0,Clear,7.0,82422.71,KTRK 081545Z 00000KT 7SM SKC 14/06 A3026 FU RMK FU ALQDS,,58.55,0.0,14.0,2018-08-08 15:45:00,,6.0,5.94,1.0,,KTRK,5899,-120.13333,39.31667
375,102438.21,N,,,,0.0,101255.03,1.0,Clear,7.0,82395.48,KTRK 081645Z 00000KT 7SM SKC 19/07 A3025 FU RMK FU ALQDS,,45.65,0.0,19.0,2018-08-08 16:45:00,,7.0,6.95,1.0,,KTRK,5899,-120.13333,39.31667
376,102438.21,N,,,,0.0,100777.18,1.0,Clear,7.0,82395.48,KTRK 081745Z 00000KT 7SM SKC 26/07 A3025 FU RMK FU ALQDS,,29.86,0.0,26.0,2018-08-08 17:45:00,,7.0,7.01,1.0,,KTRK,5899,-120.13333,39.31667
377,102370.48,N,,,29.82,0.0,100320.32,1.0,Clear,5.0,82341.0,KTRK 082045Z 00000KT 5SM SKC 32/03 A3023 FU RMK FU ALQDS,,15.98,0.0,32.0,2018-08-08 20:45:00,,3.0,3.16,1.0,,KTRK,5899,-120.13333,39.31667
378,102370.48,N,,,28.96,0.0,100384.31,1.0,Clear,5.0,82341.0,KTRK 082145Z 00000KT 5SM SKC 31/02 A3023 FU RMK FU ALQDS,,15.75,0.0,31.0,2018-08-08 21:45:00,,2.0,2.14,1.0,,KTRK,5899,-120.13333,39.31667
379,102336.62,WSW,,,28.98,250.0,100351.06,1.0,Clear,7.0,82313.77,KTRK 082255Z 25011KT 7SM SKC 31/03 A3022 FU RMK FU ALQDS,,16.91,5.66,31.0,2018-08-08 22:55:00,,3.0,3.13,1.0,,KTRK,5899,-120.13333,39.31667
380,102302.75,W,7.72,,28.98,270.0,100317.83,1.0,Clear,6.0,82286.52,KTRK 082345Z 27009G15KT 6SM SKC 31/03 A3021 FU RMK FU ALQDS,,16.91,4.63,31.0,2018-08-08 23:45:00,,3.0,3.13,1.0,,KTRK,5899,-120.13333,39.31667
381,102302.75,SW,,,27.44,230.0,100446.98,1.0,Clear,6.0,82286.52,KTRK 090045Z 23010KT 6SM SKC 29/03 A3021 FU RMK FU ALQDS,,18.97,5.14,29.0,2018-08-09 00:45:00,,3.0,3.09,1.0,,KTRK,5899,-120.13333,39.31667
382,102302.75,W,,,26.71,260.0,100512.32,1.0,Clear,7.0,82286.52,KTRK 090115Z AUTO 26009KT 7SM CLR 28/02 A3021 RMK AO2,,18.72,4.63,28.0,2018-08-09 01:15:00,,2.0,2.07,1.0,,KTRK,5899,-120.13333,39.31667
383,102336.62,W,,,26.27,270.0,100611.36,1.0,Clear,7.0,82313.77,KTRK 090135Z AUTO 27011KT 7SM CLR 27/02 A3022 RMK AO2,,19.84,5.66,27.0,2018-08-09 01:35:00,,2.0,2.05,1.0,,KTRK,5899,-120.13333,39.31667
384,102336.62,W,,,26.27,260.0,100611.36,1.0,Clear,7.0,82313.77,KTRK 090155Z AUTO 26007KT 7SM CLR 27/02 A3022 RMK AO2,,19.84,3.6,27.0,2018-08-09 01:55:00,,2.0,2.05,1.0,,KTRK,5899,-120.13333,39.31667
385,102336.62,W,,,,270.0,100677.6,1.0,Clear,7.0,82313.77,KTRK 090215Z AUTO 27007KT 7SM CLR 26/02 A3022 RMK AO2,,21.04,3.6,26.0,2018-08-09 02:15:00,,2.0,2.03,1.0,,KTRK,5899,-120.13333,39.31667
386,102370.48,W,,,,260.0,100777.64,1.0,Clear,7.0,82341.0,KTRK 090235Z AUTO 26006KT 7SM CLR 25/02 A3023 RMK AO2,,22.33,3.09,25.0,2018-08-09 02:35:00,,2.0,2.02,1.0,,KTRK,5899,-120.13333,39.31667
387,102370.48,WSW,,,,240.0,100912.58,1.0,Clear,7.0,82341.0,KTRK 090255Z AUTO 24007KT 7SM CLR 23/02 A3023 RMK AO2,,25.17,3.6,23.0,2018-08-09 02:55:00,,2.0,1.98,1.0,,KTRK,5899,-120.13333,39.31667
388,102404.34,N,,,,0.0,101014.19,492.0,Partly Cloudy,7.0,82368.24,KTRK 090315Z AUTO 00000KT 7SM SCT049 SCT060 22/02 A3024 RMK AO2,602.0,26.74,0.0,22.0,2018-08-09 03:15:00,,2.0,1.97,1.0,,KTRK,5899,-120.13333,39.31667
389,102438.21,N,,,,0.0,101116.35,462.0,Partly Cloudy,7.0,82395.48,KTRK 090335Z AUTO 00000KT 7SM SCT046 SCT060 21/02 A3025 RMK AO2,602.0,28.43,0.0,21.0,2018-08-09 03:35:00,,2.0,1.96,1.0,,KTRK,5899,-120.13333,39.31667
390,102438.21,ESE,,,,110.0,101325.69,1.0,Clear,7.0,82395.48,KTRK 090355Z AUTO 11004KT 7SM CLR 18/02 A3025 RMK AO2,,34.25,2.06,18.0,2018-08-09 03:55:00,,2.0,1.93,1.0,,KTRK,5899,-120.13333,39.31667
391,102472.07,S,,,,180.0,101430.01,1.0,Clear,7.0,82422.71,KTRK 090415Z AUTO 18003KT 7SM CLR 17/02 A3026 RMK AO2,,36.47,1.54,17.0,2018-08-09 04:15:00,,2.0,1.92,1.0,,KTRK,5899,-120.13333,39.31667
392,102505.93,N,,,,0.0,101392.61,1.0,Clear,7.0,82449.95,KTRK 090435Z AUTO 00000KT 7SM CLR 18/03 A3027 RMK AO2,,36.77,0.0,18.0,2018-08-09 04:35:00,,3.0,2.93,1.0,,KTRK,5899,-120.13333,39.31667
393,102505.93,N,,,,0.0,101463.47,1.0,Clear,7.0,82449.95,KTRK 090455Z AUTO 00000KT 7SM CLR 17/03 A3027 RMK AO2,,39.16,0.0,17.0,2018-08-09 04:55:00,,3.0,2.92,1.0,,KTRK,5899,-120.13333,39.31667
394,102539.8,N,,,,0.0,101568.41,1.0,Clear,7.0,82477.19,KTRK 090515Z AUTO 00000KT 7SM CLR 16/03 A3028 RMK AO2,,41.73,0.0,16.0,2018-08-09 05:15:00,,3.0,2.92,1.0,,KTRK,5899,-120.13333,39.31667
395,102539.8,N,,,,0.0,101640.43,1.0,Clear,7.0,82477.19,KTRK 090535Z AUTO 00000KT 7SM CLR 15/02 A3028 RMK AO2,,41.44,0.0,15.0,2018-08-09 05:35:00,,2.0,1.91,1.0,,KTRK,5899,-120.13333,39.31667
396,102539.8,S,,,,180.0,101785.84,1.0,Clear,7.0,82477.19,KTRK 090555Z AUTO 18003KT 7SM CLR 13/04 A3028 RMK AO2,,54.35,1.54,13.0,2018-08-09 05:55:00,,4.0,3.92,1.0,,KTRK,5899,-120.13333,39.31667
397,102539.8,S,,,,170.0,101785.98,1.0,Clear,7.0,82477.19,KTRK 090615Z AUTO 17003KT 7SM CLR 13/02 A3028 RMK AO2,,47.17,1.54,13.0,2018-08-09 06:15:00,,2.0,1.91,1.0,,KTRK,5899,-120.13333,39.31667
398,102539.8,N,,,,0.0,101859.44,1.0,Clear,7.0,82477.19,KTRK 090635Z AUTO 00000KT 7SM CLR 12/04 A3028 RMK AO2,,58.03,0.0,12.0,2018-08-09 06:35:00,,4.0,3.92,1.0,,KTRK,5899,-120.13333,39.31667
399,102539.8,N,,,,0.0,101785.98,1.0,Clear,7.0,82477.19,KTRK 090655Z AUTO 00000KT 7SM CLR 13/02 A3028 RMK AO2,,47.17,0.0,13.0,2018-08-09 06:55:00,,2.0,1.91,1.0,,KTRK,5899,-120.13333,39.31667
400,102539.8,N,,,,0.0,101933.68,1.0,Clear,7.0,82477.19,KTRK 090715Z AUTO 00000KT 7SM CLR 11/03 A3028 RMK AO2,,57.78,0.0,11.0,2018-08-09 07:15:00,,3.0,2.92,1.0,,KTRK,5899,-120.13333,39.31667
401,102573.66,N,,,,0.0,101893.28,1.0,Clear,7.0,82504.43,KTRK 090735Z AUTO 00000KT 7SM CLR 12/01 A3029 RMK AO2,,46.88,0.0,12.0,2018-08-09 07:35:00,,1.0,0.9,1.0,,KTRK,5899,-120.13333,39.31667
402,102573.66,N,,,,0.0,101967.47,1.0,Clear,7.0,82504.43,KTRK 090755Z AUTO 00000KT 7SM CLR 11/01 A3029 RMK AO2,,50.08,0.0,11.0,2018-08-09 07:55:00,,1.0,0.91,1.0,,KTRK,5899,-120.13333,39.31667
403,102573.66,N,,,,0.0,102193.34,1.0,Clear,7.0,82504.43,KTRK 090815Z AUTO 00000KT 7SM CLR 08/03 A3029 RMK AO2,,70.68,0.0,8.0,2018-08-09 08:15:00,,3.0,2.94,1.0,,KTRK,5899,-120.13333,39.31667
404,102573.66,N,,,,0.0,102117.43,1.0,Clear,7.0,82504.43,KTRK 090835Z AUTO 00000KT 7SM CLR 09/03 A3029 RMK AO2,,66.05,0.0,9.0,2018-08-09 08:35:00,,3.0,2.93,1.0,,KTRK,5899,-120.13333,39.31667
405,102573.66,N,,,,0.0,102042.23,1.0,Clear,7.0,82504.43,KTRK 090855Z AUTO 00000KT 7SM CLR 10/01 A3029 RMK AO2,,53.53,0.0,10.0,2018-08-09 08:55:00,,1.0,0.91,1.0,,KTRK,5899,-120.13333,39.31667
406,102573.66,N,,,,0.0,102193.41,1.0,Clear,7.0,82504.43,KTRK 090915Z AUTO 00000KT 7SM CLR 08/02 A3029 RMK AO2,,65.82,0.0,8.0,2018-08-09 09:15:00,,2.0,1.93,1.0,,KTRK,5899,-120.13333,39.31667
407,102539.8,N,,,,0.0,102159.67,1.0,Clear,7.0,82477.19,KTRK 090935Z AUTO 00000KT 7SM CLR 08/02 A3028 RMK AO2,,65.82,0.0,8.0,2018-08-09 09:35:00,,2.0,1.93,1.0,,KTRK,5899,-120.13333,39.31667
408,102539.8,N,,,,0.0,102236.14,1.0,Clear,7.0,82477.19,KTRK 090955Z AUTO 00000KT 7SM CLR 07/02 A3028 RMK AO2,,70.47,0.0,7.0,2018-08-09 09:55:00,,2.0,1.94,1.0,,KTRK,5899,-120.13333,39.31667
409,102539.8,N,,,,0.0,102159.6,1.0,Clear,7.0,82477.19,KTRK 091010Z AUTO 00000KT 7SM CLR 08/03 A3028 RMK AO2,,70.68,0.0,8.0,2018-08-09 10:10:00,,3.0,2.94,1.0,,KTRK,5899,-120.13333,39.31667
410,102539.8,N,,,,0.0,102159.67,1.0,Clear,7.0,82477.19,KTRK 091035Z AUTO 00000KT 7SM CLR 08/02 A3028 RMK AO2,,65.82,0.0,8.0,2018-08-09 10:35:00,,2.0,1.93,1.0,,KTRK,5899,-120.13333,39.31667
411,102539.8,N,,,,0.0,102313.27,1.0,Clear,7.0,82477.19,KTRK 091055Z AUTO 00000KT 7SM CLR 06/01 A3028 RMK AO2,,70.27,0.0,6.0,2018-08-09 10:55:00,,1.0,0.93,1.0,,KTRK,5899,-120.13333,39.31667
412,102573.66,N,,,,0.0,102269.91,1.0,Clear,10.0,82504.43,KTRK 091115Z AUTO 00000KT 10SM CLR 07/02 A3029 RMK AO2,,70.47,0.0,7.0,2018-08-09 11:15:00,,2.0,1.94,1.0,,KTRK,5899,-120.13333,39.31667
413,102573.66,N,,,,0.0,102269.97,1.0,Clear,7.0,82504.43,KTRK 091135Z AUTO 00000KT 7SM CLR 07/01 A3029 RMK AO2,,65.6,0.0,7.0,2018-08-09 11:35:00,,1.0,0.93,1.0,,KTRK,5899,-120.13333,39.31667
414,102573.66,N,,,,0.0,102269.97,1.0,Clear,10.0,82504.43,KTRK 091155Z AUTO 00000KT 10SM CLR 07/01 A3029 RMK AO2,,65.6,0.0,7.0,2018-08-09 11:55:00,,1.0,0.93,1.0,,KTRK,5899,-120.13333,39.31667
415,102573.66,N,,,,0.0,102347.07,1.0,Clear,10.0,82504.43,KTRK 091215Z AUTO 00000KT 10SM CLR 06/01 A3029 RMK AO2,,70.27,0.0,6.0,2018-08-09 12:15:00,,1.0,0.93,1.0,,KTRK,5899,-120.13333,39.31667
416,102573.66,N,,,,0.0,102347.07,1.0,Clear,10.0,82504.43,KTRK 091235Z AUTO 00000KT 10SM CLR 06/01 A3029 RMK AO2,,70.27,0.0,6.0,2018-08-09 12:35:00,,1.0,0.93,1.0,,KTRK,5899,-120.13333,39.31667
417,102573.66,N,,,,0.0,102269.97,1.0,Clear,10.0,82504.43,KTRK 091255Z AUTO 00000KT 10SM CLR 07/01 A3029 RMK AO2,,65.6,0.0,7.0,2018-08-09 12:55:00,,1.0,0.93,1.0,,KTRK,5899,-120.13333,39.31667
418,102573.66,N,,,,0.0,102424.82,1.0,Clear,7.0,82504.43,KTRK 091315Z AUTO 00000KT 7SM CLR 05/00 A3029 RMK AO2,,70.06,0.0,5.0,2018-08-09 13:15:00,,0.0,-0.07,1.0,,KTRK,5899,-120.13333,39.31667
419,102573.66,N,,,,0.0,102424.76,1.0,Clear,7.0,82504.43,KTRK 091335Z AUTO 00000KT 7SM CLR 05/01 A3029 RMK AO2,,75.32,0.0,5.0,2018-08-09 13:35:00,,1.0,0.94,1.0,,KTRK,5899,-120.13333,39.31667
420,102641.39,N,,,,0.0,102109.61,,Smoke,7.0,82558.91,KTRK 091445Z 00000KT 7SM FU 10/01 A3031 RMK FU ALQDS,,53.53,0.0,10.0,2018-08-09 14:45:00,,1.0,0.91,1.0,7.0,KTRK,5899,-120.13333,39.31667
421,102641.39,N,,,,0.0,102109.61,,Smoke,7.0,82558.91,KTRK 091500Z COR 00000KT 7SM FU 10/01 A3031 RMK FU ALQDS,,53.53,0.0,10.0,2018-08-09 15:00:00,,1.0,0.91,1.0,7.0,KTRK,5899,-120.13333,39.31667
422,102641.39,N,,,,0.0,101813.71,,Smoke,7.0,82558.91,KTRK 091550Z 00000KT 7SM FU 14/02 A3031 RMK FU ALQDS,,44.2,0.0,14.0,2018-08-09 15:50:00,,2.0,1.91,1.0,7.0,KTRK,5899,-120.13333,39.31667
423,102641.39,N,,,,0.0,101526.66,,Smoke,7.0,82558.91,KTRK 091645Z 00000KT 7SM FU 18/02 A3031 RMK FU ALQDS,,34.25,0.0,18.0,2018-08-09 16:45:00,,2.0,1.93,1.0,7.0,KTRK,5899,-120.13333,39.31667
424,102505.93,WNW,,,26.31,300.0,100777.75,,Smoke,8.0,82449.95,KTRK 091845Z 30003KT 8SM FU 27/03 A3027 RMK FU ALQDS,,21.3,1.54,27.0,2018-08-09 18:45:00,,3.0,3.04,1.0,7.0,KTRK,5899,-120.13333,39.31667
425,102438.21,W,,,28.96,270.0,100450.73,,Smoke,8.0,82395.48,KTRK 091945Z 27006KT 8SM FU 31/02 A3025 RMK FU ALQDS,,15.75,3.09,31.0,2018-08-09 19:45:00,,2.0,2.14,1.0,7.0,KTRK,5899,-120.13333,39.31667
426,102370.48,ESE,7.72,,31.06,120.0,100194.07,,Smoke,8.0,82341.0,KTRK 092045Z 12009G15KT 8SM FU 34/M02 A3023 RMK FU ALQDS,,9.95,4.63,34.0,2018-08-09 20:45:00,,-2.0,-1.73,1.0,7.0,KTRK,5899,-120.13333,39.31667
427,102370.48,SW,8.23,,31.29,220.0,100193.97,,Smoke,8.0,82341.0,KTRK 092155Z 22010G16KT 8SM FU 34/00 A3023 RMK FU ALQDS,,11.52,5.14,34.0,2018-08-09 21:55:00,,0.0,0.24,1.0,7.0,KTRK,5899,-120.13333,39.31667
428,102370.48,SW,10.8,,30.4,230.0,100257.06,,Smoke,8.0,82341.0,KTRK 092245Z 23011G21KT 8SM FU 33/M01 A3023 RMK FU ALQDS,,11.32,5.66,33.0,2018-08-09 22:45:00,,-1.0,-0.78,1.0,7.0,KTRK,5899,-120.13333,39.31667
429,102370.48,SW,7.2,,29.75,230.0,100320.49,,Smoke,8.0,82341.0,KTRK 092345Z 23011G14KT 8SM FU 32/00 A3023 RMK FU ALQDS,,12.89,5.66,32.0,2018-08-09 23:45:00,,0.0,0.19,1.0,7.0,KTRK,5899,-120.13333,39.31667
430,102370.48,SW,,,28.96,230.0,100384.31,,Smoke,8.0,82341.0,KTRK 100045Z 23008KT 8SM FU 31/02 A3023 RMK FU ALQDS,,15.75,4.12,31.0,2018-08-10 00:45:00,,2.0,2.14,1.0,7.0,KTRK,5899,-120.13333,39.31667
431,102404.34,W,,,27.51,280.0,100546.6,1.0,Clear,10.0,82368.24,KTRK 100115Z AUTO 28009KT 10SM CLR 29/05 A3024 RMK AO2,,21.83,4.63,29.0,2018-08-10 01:15:00,,5.0,5.08,1.0,,KTRK,5899,-120.13333,39.31667
432,102404.34,W,,,26.83,280.0,100611.94,1.0,Clear,10.0,82368.24,KTRK 100135Z AUTO 28007KT 10SM CLR 28/05 A3024 RMK AO2,,23.13,3.6,28.0,2018-08-10 01:35:00,,5.0,5.06,1.0,,KTRK,5899,-120.13333,39.31667
433,102438.21,W,,,26.4,270.0,100711.04,1.0,Clear,10.0,82395.48,KTRK 100155Z AUTO 27007KT 10SM CLR 27/05 A3025 RMK AO2,,24.52,3.6,27.0,2018-08-10 01:55:00,,5.0,5.04,1.0,,KTRK,5899,-120.13333,39.31667
434,102438.21,W,,,,280.0,100777.34,1.0,Clear,10.0,82395.48,KTRK 100215Z AUTO 28007KT 10SM CLR 26/05 A3025 RMK AO2,,26.0,3.6,26.0,2018-08-10 02:15:00,,5.0,5.02,1.0,,KTRK,5899,-120.13333,39.31667
435,102438.21,W,,,,270.0,100844.04,1.0,Clear,10.0,82395.48,KTRK 100235Z AUTO 27009KT 10SM CLR 25/06 A3025 RMK AO2,,29.57,4.63,25.0,2018-08-10 02:35:00,,6.0,6.0,1.0,,KTRK,5899,-120.13333,39.31667
436,102472.07,WSW,,,,240.0,100944.73,1.0,Clear,10.0,82422.71,KTRK 100255Z AUTO 24003KT 10SM CLR 24/05 A3026 RMK AO2,,29.29,1.54,24.0,2018-08-10 02:55:00,,5.0,4.99,1.0,,KTRK,5899,-120.13333,39.31667
437,102472.07,N,,,,0.0,100944.73,1.0,Clear,10.0,82422.71,KTRK 100315Z AUTO 00000KT 10SM CLR 24/05 A3026 RMK AO2,,29.29,0.0,24.0,2018-08-10 03:15:00,,5.0,4.99,1.0,,KTRK,5899,-120.13333,39.31667
438,102505.93,S,,,,180.0,101183.0,1.0,Clear,10.0,82449.95,KTRK 100335Z AUTO 18003KT 10SM CLR 21/05 A3027 RMK AO2,,35.13,1.54,21.0,2018-08-10 03:35:00,,5.0,4.95,1.0,,KTRK,5899,-120.13333,39.31667
439,102539.8,SE,,,,130.0,101285.76,1.0,Clear,10.0,82477.19,KTRK 100355Z AUTO 13004KT 10SM CLR 20/05 A3028 RMK AO2,,37.36,2.06,20.0,2018-08-10 03:55:00,,5.0,4.95,1.0,,KTRK,5899,-120.13333,39.31667
440,102573.66,ESE,,,,120.0,101319.21,1.0,Clear,10.0,82504.43,KTRK 100415Z AUTO 12004KT 10SM CLR 20/05 A3029 RMK AO2,,37.36,2.06,20.0,2018-08-10 04:15:00,,5.0,4.95,1.0,,KTRK,5899,-120.13333,39.31667
441,102573.66,N,,,,0.0,101459.53,1.0,Clear,10.0,82504.43,KTRK 100435Z AUTO 00000KT 10SM CLR 18/04 A3029 RMK AO2,,39.46,0.0,18.0,2018-08-10 04:35:00,,4.0,3.93,1.0,,KTRK,5899,-120.13333,39.31667
442,102573.66,SE,,,,130.0,101459.46,1.0,Clear,10.0,82504.43,KTRK 100455Z AUTO 13003KT 10SM CLR 18/05 A3029 RMK AO2,,42.32,1.54,18.0,2018-08-10 04:55:00,,5.0,4.93,1.0,,KTRK,5899,-120.13333,39.31667
443,102607.53,N,,,,0.0,101707.36,1.0,Clear,10.0,82531.67,KTRK 100515Z AUTO 00000KT 10SM CLR 15/05 A3030 RMK AO2,,51.21,0.0,15.0,2018-08-10 05:15:00,,5.0,4.93,1.0,,KTRK,5899,-120.13333,39.31667
444,102641.39,N,,,,0.0,101740.85,1.0,Clear,10.0,82558.91,KTRK 100535Z AUTO 00000KT 10SM CLR 15/06 A3031 RMK AO2,,54.89,0.0,15.0,2018-08-10 05:35:00,,6.0,5.93,1.0,,KTRK,5899,-120.13333,39.31667
445,102641.39,SSE,,,,160.0,101740.93,1.0,Clear,10.0,82558.91,KTRK 100555Z AUTO 16004KT 10SM CLR 15/05 A3031 RMK AO2,,51.21,2.06,15.0,2018-08-10 05:55:00,,5.0,4.93,1.0,,KTRK,5899,-120.13333,39.31667
446,102641.39,N,,,,0.0,101886.54,1.0,Clear,10.0,82558.91,KTRK 100615Z AUTO 00000KT 10SM CLR 13/06 A3031 RMK AO2,,62.48,0.0,13.0,2018-08-10 06:15:00,,6.0,5.94,1.0,,KTRK,5899,-120.13333,39.31667
447,102641.39,S,,,,170.0,101740.85,1.0,Clear,10.0,82558.91,KTRK 100635Z AUTO 17003KT 10SM CLR 15/06 A3031 RMK AO2,,54.89,1.54,15.0,2018-08-10 06:35:00,,6.0,5.93,1.0,,KTRK,5899,-120.13333,39.31667
448,102641.39,SW,,,,220.0,101813.42,1.0,Clear,10.0,82558.91,KTRK 100655Z AUTO 22003KT 10SM CLR 14/06 A3031 RMK AO2,,58.55,1.54,14.0,2018-08-10 06:55:00,,6.0,5.94,1.0,,KTRK,5899,-120.13333,39.31667
449,102641.39,N,,,,0.0,101960.21,1.0,Clear,10.0,82558.91,KTRK 100715Z AUTO 00000KT 10SM CLR 12/06 A3031 RMK AO2,,66.71,0.0,12.0,2018-08-10 07:15:00,,6.0,5.94,1.0,,KTRK,5899,-120.13333,39.31667
450,102641.39,N,,,,0.0,102034.53,1.0,Clear,10.0,82558.91,KTRK 100735Z AUTO 00000KT 10SM CLR 11/05 A3031 RMK AO2,,66.49,0.0,11.0,2018-08-10 07:35:00,,5.0,4.94,1.0,,KTRK,5899,-120.13333,39.31667
451,102641.39,N,,,,0.0,101960.5,1.0,Clear,10.0,82558.91,KTRK 100755Z AUTO 00000KT 10SM CLR 12/02 A3031 RMK AO2,,50.37,0.0,12.0,2018-08-10 07:55:00,,2.0,1.91,1.0,,KTRK,5899,-120.13333,39.31667
452,102641.39,N,,,,0.0,102034.68,1.0,Clear,10.0,82558.91,KTRK 100815Z AUTO 00000KT 10SM CLR 11/03 A3031 RMK AO2,,57.78,0.0,11.0,2018-08-10 08:15:00,,3.0,2.92,1.0,,KTRK,5899,-120.13333,39.31667
453,102641.39,N,,,,0.0,102034.68,1.0,Clear,10.0,82558.91,KTRK 100835Z AUTO 00000KT 10SM CLR 11/03 A3031 RMK AO2,,57.78,0.0,11.0,2018-08-10 08:35:00,,3.0,2.92,1.0,,KTRK,5899,-120.13333,39.31667
454,102641.39,N,,,,0.0,102184.86,1.0,Clear,10.0,82558.91,KTRK 100855Z AUTO 00000KT 10SM CLR 09/03 A3031 RMK AO2,,66.05,0.0,9.0,2018-08-10 08:55:00,,3.0,2.93,1.0,,KTRK,5899,-120.13333,39.31667
455,102641.39,N,,,,0.0,102034.68,1.0,Clear,10.0,82558.91,KTRK 100915Z AUTO 00000KT 10SM CLR 11/03 A3031 RMK AO2,,57.78,0.0,11.0,2018-08-10 09:15:00,,3.0,2.92,1.0,,KTRK,5899,-120.13333,39.31667
456,102641.39,N,,,,0.0,102184.86,1.0,Clear,10.0,82558.91,KTRK 100935Z AUTO 00000KT 10SM CLR 09/03 A3031 RMK AO2,,66.05,0.0,9.0,2018-08-10 09:35:00,,3.0,2.93,1.0,,KTRK,5899,-120.13333,39.31667
457,102641.39,N,,,,0.0,102260.89,1.0,Clear,10.0,82558.91,KTRK 100955Z AUTO 00000KT 10SM CLR 08/02 A3031 RMK AO2,,65.82,0.0,8.0,2018-08-10 09:55:00,,2.0,1.93,1.0,,KTRK,5899,-120.13333,39.31667
458,102641.39,N,,,,0.0,102260.82,1.0,Clear,10.0,82558.91,KTRK 101015Z AUTO 00000KT 10SM CLR 08/03 A3031 RMK AO2,,70.68,0.0,8.0,2018-08-10 10:15:00,,3.0,2.94,1.0,,KTRK,5899,-120.13333,39.31667
459,102641.39,N,,,,0.0,102337.44,1.0,Clear,10.0,82558.91,KTRK 101035Z AUTO 00000KT 10SM CLR 07/02 A3031 RMK AO2,,70.47,0.0,7.0,2018-08-10 10:35:00,,2.0,1.94,1.0,,KTRK,5899,-120.13333,39.31667
460,102641.39,N,,,,0.0,102260.89,1.0,Clear,10.0,82558.91,KTRK 101055Z AUTO 00000KT 10SM CLR 08/02 A3031 RMK AO2,,65.82,0.0,8.0,2018-08-10 10:55:00,,2.0,1.93,1.0,,KTRK,5899,-120.13333,39.31667
461,102641.39,N,,,,0.0,102184.86,1.0,Clear,10.0,82558.91,KTRK 101115Z AUTO 00000KT 10SM CLR 09/03 A3031 RMK AO2 LTG DSNT  NW,,66.05,0.0,9.0,2018-08-10 11:15:00,,3.0,2.93,1.0,,KTRK,5899,-120.13333,39.31667
462,102641.39,N,,,,0.0,102337.44,1.0,Clear,10.0,82558.91,KTRK 101135Z AUTO 00000KT 10SM CLR 07/02 A3031 RMK AO2,,70.47,0.0,7.0,2018-08-10 11:35:00,,2.0,1.94,1.0,,KTRK,5899,-120.13333,39.31667
463,102641.39,N,,,,0.0,102337.44,1.0,Clear,10.0,82558.91,KTRK 101155Z AUTO 00000KT 10SM CLR 07/02 A3031 RMK AO2,,70.47,0.0,7.0,2018-08-10 11:55:00,,2.0,1.94,1.0,,KTRK,5899,-120.13333,39.31667
464,102641.39,N,,,,0.0,102337.44,1.0,Clear,10.0,82558.91,KTRK 101215Z AUTO 00000KT 10SM CLR 07/02 A3031 RMK AO2,,70.47,0.0,7.0,2018-08-10 12:15:00,,2.0,1.94,1.0,,KTRK,5899,-120.13333,39.31667
465,102641.39,N,,,,0.0,102260.82,1.0,Clear,10.0,82558.91,KTRK 101235Z AUTO 00000KT 10SM CLR 08/03 A3031 RMK AO2,,70.68,0.0,8.0,2018-08-10 12:35:00,,3.0,2.94,1.0,,KTRK,5899,-120.13333,39.31667
466,102641.39,N,,,,0.0,102337.44,1.0,Clear,10.0,82558.91,KTRK 101255Z AUTO 00000KT 10SM CLR 07/02 A3031 RMK AO2,,70.47,0.0,7.0,2018-08-10 12:55:00,,2.0,1.94,1.0,,KTRK,5899,-120.13333,39.31667
467,102641.39,N,,,,0.0,102337.44,1.0,Clear,10.0,82558.91,KTRK 101315Z AUTO 00000KT 10SM CLR 07/02 A3031 RMK AO2,,70.47,0.0,7.0,2018-08-10 13:15:00,,2.0,1.94,1.0,,KTRK,5899,-120.13333,39.31667
468,102675.25,N,,,,0.0,102371.19,1.0,Clear,10.0,82586.14,KTRK 101335Z AUTO 00000KT 10SM CLR 07/02 A3032 RMK AO2,,70.47,0.0,7.0,2018-08-10 13:35:00,,2.0,1.94,1.0,,KTRK,5899,-120.13333,39.31667
469,102675.25,N,,,,0.0,102371.13,,Smoke,10.0,82586.14,KTRK 101345Z 00000KT 10SM FU 07/03 A3032,,75.67,0.0,7.0,2018-08-10 13:45:00,,3.0,2.95,1.0,7.0,KTRK,5899,-120.13333,39.31667
470,102742.98,N,,,,0.0,102286.06,,Smoke,10.0,82640.62,KTRK 101445Z 00000KT 10SM FU 09/02 A3034,,61.51,0.0,9.0,2018-08-10 14:45:00,,2.0,1.92,1.0,7.0,KTRK,5899,-120.13333,39.31667
471,102742.98,N,,,,0.0,101914.41,,Smoke,10.0,82640.62,KTRK 101545Z 00000KT 10SM FU 14/03 A3034,,47.46,0.0,14.0,2018-08-10 15:45:00,,3.0,2.92,1.0,7.0,KTRK,5899,-120.13333,39.31667
472,102709.12,N,,,,0.0,101523.04,,Smoke,10.0,82613.38,KTRK 101645Z 00000KT 10SM FU 19/04 A3033,,37.07,0.0,19.0,2018-08-10 16:45:00,,4.0,3.94,1.0,7.0,KTRK,5899,-120.13333,39.31667
473,102675.25,N,,,,0.0,101010.9,,Smoke,10.0,82586.14,KTRK 101755Z 00000KT 10SM FU 26/M01 A3032,,16.94,0.0,26.0,2018-08-10 17:55:00,,-1.0,-0.95,1.0,7.0,KTRK,5899,-120.13333,39.31667
474,102573.66,W,4.63,,29.14,280.0,100519.93,1.0,Clear,10.0,82504.43,KTRK 102045Z COR 28004G09KT 10SM SKC 32/M08 A3029 RMK HZ ALQDS,,7.06,2.06,32.0,2018-08-10 20:45:00,,-8.0,-7.71,1.0,,KTRK,5899,-120.13333,39.31667
475,102539.8,WSW,4.63,,29.31,240.0,100486.64,1.0,Clear,10.0,82477.19,KTRK 102145Z 24006G09KT 10SM SKC 32/M05 A3028 RMK HZ ALQDS,,8.89,3.09,32.0,2018-08-10 21:45:00,,-5.0,-4.76,1.0,,KTRK,5899,-120.13333,39.31667
476,102505.93,WNW,8.75,,29.38,300.0,100453.41,1.0,Clear,10.0,82449.95,KTRK 102250Z 30011G17KT 10SM SKC 32/M04 A3027 RMK HZ ALQDS,,9.59,5.66,32.0,2018-08-10 22:50:00,,-4.0,-3.77,1.0,,KTRK,5899,-120.13333,39.31667
477,102472.07,W,8.23,,28.72,280.0,100484.18,1.0,Clear,10.0,82422.71,KTRK 102350Z 28011G16KT 10SM SKC 31/M03 A3026 RMK HZ ALQDS,,10.94,5.66,31.0,2018-08-10 23:50:00,,-3.0,-2.81,1.0,,KTRK,5899,-120.13333,39.31667
478,102472.07,W,,,27.36,280.0,100613.5,1.0,Clear,10.0,82422.71,KTRK 110058Z 28012KT 10SM SKC 29/M02 A3026 RMK HZ ALQDS,,13.21,6.17,29.0,2018-08-11 00:58:00,,-2.0,-1.87,1.0,,KTRK,5899,-120.13333,39.31667
479,102472.07,W,,,27.37,270.0,100613.46,1.0,Clear,10.0,82422.71,KTRK 110115Z AUTO 27010KT 10SM CLR 29/M01 A3026 RMK AO2,,14.22,5.14,29.0,2018-08-11 01:15:00,,-1.0,-0.88,1.0,,KTRK,5899,-120.13333,39.31667
480,102472.07,W,,,26.67,280.0,100678.78,1.0,Clear,10.0,82422.71,KTRK 110135Z AUTO 28009KT 10SM CLR 28/00 A3026 RMK AO2,,16.2,4.63,28.0,2018-08-11 01:35:00,,0.0,0.08,1.0,,KTRK,5899,-120.13333,39.31667
481,102505.93,W,,,26.67,270.0,100712.06,1.0,Clear,10.0,82449.95,KTRK 110155Z AUTO 27006KT 10SM CLR 28/00 A3027 RMK AO2,,16.2,3.09,28.0,2018-08-11 01:55:00,,0.0,0.08,1.0,,KTRK,5899,-120.13333,39.31667
482,102472.07,W,,,26.2,270.0,100744.63,1.0,Clear,10.0,82422.71,KTRK 110215Z AUTO 27009KT 10SM CLR 27/00 A3026 RMK AO2,,17.18,4.63,27.0,2018-08-11 02:15:00,,0.0,0.06,1.0,,KTRK,5899,-120.13333,39.31667
483,102505.93,N,,,,0.0,100844.16,1.0,Clear,10.0,82449.95,KTRK 110235Z AUTO 00000KT 10SM CLR 26/02 A3027 RMK AO2,,21.04,0.0,26.0,2018-08-11 02:35:00,,2.0,2.03,1.0,,KTRK,5899,-120.13333,39.31667
484,102505.93,SW,,,,220.0,101046.1,1.0,Clear,10.0,82449.95,KTRK 110255Z AUTO 22004KT 10SM CLR 23/02 A3027 RMK AO2,,25.17,2.06,23.0,2018-08-11 02:55:00,,2.0,1.98,1.0,,KTRK,5899,-120.13333,39.31667
485,102539.8,ESE,,,,120.0,101079.42,1.0,Clear,10.0,82477.19,KTRK 110315Z AUTO 12003KT 10SM CLR 23/03 A3028 RMK AO2,,27.03,1.54,23.0,2018-08-11 03:15:00,,3.0,2.98,1.0,,KTRK,5899,-120.13333,39.31667
486,102539.8,N,,,,0.0,101216.57,1.0,Clear,10.0,82477.19,KTRK 110335Z AUTO 00000KT 10SM CLR 21/03 A3028 RMK AO2,,30.53,0.0,21.0,2018-08-11 03:35:00,,3.0,2.96,1.0,,KTRK,5899,-120.13333,39.31667
487,102573.66,ESE,,,,120.0,101319.41,1.0,Clear,10.0,82504.43,KTRK 110355Z AUTO 12006KT 10SM CLR 20/02 A3029 RMK AO2,,30.23,3.09,20.0,2018-08-11 03:55:00,,2.0,1.94,1.0,,KTRK,5899,-120.13333,39.31667
488,102573.66,N,,,,0.0,101459.67,1.0,Clear,10.0,82504.43,KTRK 110415Z AUTO 00000KT 10SM CLR 18/02 A3029 RMK AO2,,34.25,0.0,18.0,2018-08-11 04:15:00,,2.0,1.93,1.0,,KTRK,5899,-120.13333,39.31667
489,102573.66,SSE,,,,150.0,101530.58,1.0,Clear,10.0,82504.43,KTRK 110435Z AUTO 15004KT 10SM CLR 17/02 A3029 RMK AO2,,36.47,2.06,17.0,2018-08-11 04:35:00,,2.0,1.92,1.0,,KTRK,5899,-120.13333,39.31667
490,102607.53,SSE,,,,150.0,101707.57,1.0,Clear,10.0,82531.67,KTRK 110455Z AUTO 15005KT 10SM CLR 15/02 A3030 RMK AO2,,41.44,2.57,15.0,2018-08-11 04:55:00,,2.0,1.91,1.0,,KTRK,5899,-120.13333,39.31667
491,102607.53,S,,,,170.0,101635.5,1.0,Clear,10.0,82531.67,KTRK 110515Z AUTO 17003KT 10SM CLR 16/03 A3030 RMK AO2,,41.73,1.54,16.0,2018-08-11 05:15:00,,3.0,2.92,1.0,,KTRK,5899,-120.13333,39.31667
492,102573.66,N,,,,0.0,101530.51,1.0,Clear,10.0,82504.43,KTRK 110535Z AUTO 00000KT 10SM CLR 17/03 A3029 RMK AO2,,39.16,0.0,17.0,2018-08-11 05:35:00,,3.0,2.92,1.0,,KTRK,5899,-120.13333,39.31667
493,102573.66,N,,,,0.0,101673.94,1.0,Clear,10.0,82504.43,KTRK 110555Z AUTO 00000KT 10SM CLR 15/03 A3029 RMK AO2,,44.49,0.0,15.0,2018-08-11 05:55:00,,3.0,2.92,1.0,,KTRK,5899,-120.13333,39.31667
494,102573.66,N,,,,0.0,101673.94,1.0,Clear,10.0,82504.43,KTRK 110615Z AUTO 00000KT 10SM CLR 15/03 A3029 RMK AO2,,44.49,0.0,15.0,2018-08-11 06:15:00,,3.0,2.92,1.0,,KTRK,5899,-120.13333,39.31667
495,102607.53,N,,,,0.0,101926.86,1.0,Clear,10.0,82531.67,KTRK 110635Z AUTO 00000KT 10SM CLR 12/02 A3030 RMK AO2,,50.37,0.0,12.0,2018-08-11 06:35:00,,2.0,1.91,1.0,,KTRK,5899,-120.13333,39.31667
496,102573.66,WSW,,,,240.0,101893.09,1.0,Clear,10.0,82504.43,KTRK 110655Z AUTO 24003KT 10SM CLR 12/04 A3029 RMK AO2,,58.03,1.54,12.0,2018-08-11 06:55:00,,4.0,3.92,1.0,,KTRK,5899,-120.13333,39.31667
497,102573.66,N,,,,0.0,101819.53,1.0,Clear,10.0,82504.43,KTRK 110715Z AUTO 00000KT 10SM CLR 13/03 A3029 RMK AO2,,50.65,0.0,13.0,2018-08-11 07:15:00,,3.0,2.92,1.0,,KTRK,5899,-120.13333,39.31667
498,102573.66,N,,,,0.0,101893.16,1.0,Clear,10.0,82504.43,KTRK 110735Z AUTO 00000KT 10SM CLR 12/03 A3029 RMK AO2,,54.08,0.0,12.0,2018-08-11 07:35:00,,3.0,2.92,1.0,,KTRK,5899,-120.13333,39.31667
499,102573.66,N,,,,0.0,101819.46,1.0,Clear,10.0,82504.43,KTRK 110755Z AUTO 00000KT 10SM CLR 13/04 A3029 RMK AO2,,54.35,0.0,13.0,2018-08-11 07:55:00,,4.0,3.92,1.0,,KTRK,5899,-120.13333,39.31667
500,102573.66,N,,,,0.0,101819.46,1.0,Clear,10.0,82504.43,KTRK 110815Z AUTO 00000KT 10SM CLR 13/04 A3029 RMK AO2,,54.35,0.0,13.0,2018-08-11 08:15:00,,4.0,3.92,1.0,,KTRK,5899,-120.13333,39.31667
501,102573.66,N,,,,0.0,101967.34,1.0,Clear,10.0,82504.43,KTRK 110835Z AUTO 00000KT 10SM CLR 11/03 A3029 RMK AO2,,57.78,0.0,11.0,2018-08-11 08:35:00,,3.0,2.92,1.0,,KTRK,5899,-120.13333,39.31667
502,102573.66,N,,,,0.0,101893.16,1.0,Clear,10.0,82504.43,KTRK 110855Z AUTO 00000KT 10SM CLR 12/03 A3029 RMK AO2,,54.08,0.0,12.0,2018-08-11 08:55:00,,3.0,2.92,1.0,,KTRK,5899,-120.13333,39.31667
503,102573.66,N,,,,0.0,102042.1,1.0,Clear,10.0,82504.43,KTRK 110915Z AUTO 00000KT 10SM CLR 10/03 A3029 RMK AO2,,61.76,0.0,10.0,2018-08-11 09:15:00,,3.0,2.93,1.0,,KTRK,5899,-120.13333,39.31667
504,102573.66,N,,,,0.0,102117.43,1.0,Clear,10.0,82504.43,KTRK 110935Z AUTO 00000KT 10SM CLR 09/03 A3029 RMK AO2,,66.05,0.0,9.0,2018-08-11 09:35:00,,3.0,2.93,1.0,,KTRK,5899,-120.13333,39.31667
505,102573.66,N,,,,0.0,101967.27,1.0,Clear,10.0,82504.43,KTRK 110955Z AUTO 00000KT 10SM CLR 11/04 A3029 RMK AO2,,62.0,0.0,11.0,2018-08-11 09:55:00,,4.0,3.93,1.0,,KTRK,5899,-120.13333,39.31667
506,102573.66,N,,,,0.0,102042.1,1.0,Clear,10.0,82504.43,KTRK 111015Z AUTO 00000KT 10SM CLR 10/03 A3029 RMK AO2 LTG DSNT  SE,,61.76,0.0,10.0,2018-08-11 10:15:00,,3.0,2.93,1.0,,KTRK,5899,-120.13333,39.31667
507,102573.66,N,,,,0.0,102193.34,1.0,Clear,10.0,82504.43,KTRK 111035Z AUTO 00000KT 10SM CLR 08/03 A3029 RMK AO2,,70.68,0.0,8.0,2018-08-11 10:35:00,,3.0,2.94,1.0,,KTRK,5899,-120.13333,39.31667
508,102573.66,N,,,,0.0,102042.03,1.0,Clear,10.0,82504.43,KTRK 111055Z AUTO 00000KT 10SM CLR 10/04 A3029 RMK AO2,,66.27,0.0,10.0,2018-08-11 10:55:00,,4.0,3.93,1.0,,KTRK,5899,-120.13333,39.31667
509,102573.66,N,,,,0.0,102269.84,1.0,Clear,10.0,82504.43,KTRK 111115Z AUTO 00000KT 10SM CLR 07/03 A3029 RMK AO2,,75.67,0.0,7.0,2018-08-11 11:15:00,,3.0,2.95,1.0,,KTRK,5899,-120.13333,39.31667
510,102539.8,N,,,,0.0,102159.6,1.0,Clear,10.0,82477.19,KTRK 111135Z AUTO 00000KT 10SM CLR 08/03 A3028 RMK AO2,,70.68,0.0,8.0,2018-08-11 11:35:00,,3.0,2.94,1.0,,KTRK,5899,-120.13333,39.31667
511,102573.66,N,,,,0.0,102193.34,1.0,Clear,10.0,82504.43,KTRK 111155Z AUTO 00000KT 10SM CLR 08/03 A3029 RMK AO2,,70.68,0.0,8.0,2018-08-11 11:55:00,,3.0,2.94,1.0,,KTRK,5899,-120.13333,39.31667
512,102573.66,N,,,,0.0,102269.91,1.0,Clear,10.0,82504.43,KTRK 111215Z AUTO 00000KT 10SM CLR 07/02 A3029 RMK AO2,,70.47,0.0,7.0,2018-08-11 12:15:00,,2.0,1.94,1.0,,KTRK,5899,-120.13333,39.31667
513,102573.66,E,,,,90.0,102269.97,1.0,Clear,10.0,82504.43,KTRK 111235Z AUTO 09004KT 10SM CLR 07/01 A3029 RMK AO2,,65.6,2.06,7.0,2018-08-11 12:35:00,,1.0,0.93,1.0,,KTRK,5899,-120.13333,39.31667
514,102573.66,N,,,,0.0,102424.76,1.0,Clear,10.0,82504.43,KTRK 111255Z AUTO 00000KT 10SM CLR 05/01 A3029 RMK AO2,,75.32,0.0,5.0,2018-08-11 12:55:00,,1.0,0.94,1.0,,KTRK,5899,-120.13333,39.31667
515,102607.53,N,,,,0.0,102303.61,1.0,Clear,10.0,82531.67,KTRK 111315Z AUTO 00000KT 10SM CLR 07/03 A3030 RMK AO2,,75.67,0.0,7.0,2018-08-11 13:15:00,,3.0,2.95,1.0,,KTRK,5899,-120.13333,39.31667
516,102641.39,N,,,,0.0,102337.37,1.0,Clear,10.0,82558.91,KTRK 111335Z AUTO 00000KT 10SM CLR 07/03 A3031 RMK AO2,,75.67,0.0,7.0,2018-08-11 13:35:00,,3.0,2.95,1.0,,KTRK,5899,-120.13333,39.31667
517,102641.39,N,,,,0.0,102337.37,1.0,Clear,10.0,82558.91,KTRK 111345Z 00000KT 10SM SKC 07/03 A3031,,75.67,0.0,7.0,2018-08-11 13:45:00,,3.0,2.95,1.0,,KTRK,5899,-120.13333,39.31667
518,102505.93,W,,,27.23,280.0,100646.84,1.0,Clear,10.0,82449.95,KTRK 111900Z 28008KT 160V320 10SM SKC 29/M04 A3027,,11.38,4.12,29.0,2018-08-11 19:00:00,,-4.0,-3.85,1.0,,KTRK,5899,-120.13333,39.31667
519,102472.07,WSW,,,28.72,250.0,100484.18,1.0,Clear,10.0,82422.71,KTRK 111945Z 25007KT 10SM SKC 31/M03 A3026,,10.94,3.6,31.0,2018-08-11 19:45:00,,-3.0,-2.81,1.0,,KTRK,5899,-120.13333,39.31667
520,102438.21,W,,,28.8,270.0,100450.94,1.0,Clear,10.0,82395.48,KTRK 112050Z 27008KT 10SM SKC 31/M02 A3025 RMK HZ ALQDS,,11.78,4.12,31.0,2018-08-11 20:50:00,,-2.0,-1.82,1.0,,KTRK,5899,-120.13333,39.31667
521,102336.62,WSW,7.72,,27.36,250.0,100480.52,1.0,Clear,10.0,82313.77,KTRK 112345Z 25009G15KT 10SM SKC 29/M02 A3022 RMK HZ ALQDS,,13.21,4.63,29.0,2018-08-11 23:45:00,,-2.0,-1.87,1.0,,KTRK,5899,-120.13333,39.31667
522,102336.62,WSW,,,26.65,240.0,100545.77,1.0,Clear,10.0,82313.77,KTRK 120045Z 24008KT 10SM SKC 28/M01 A3022 RMK HZ ALQDS,,15.06,4.12,28.0,2018-08-12 00:45:00,,-1.0,-0.91,1.0,,KTRK,5899,-120.13333,39.31667
523,102336.62,WSW,,,26.2,250.0,100611.48,1.0,Clear,10.0,82313.77,KTRK 120115Z AUTO 25010KT 10SM CLR 27/00 A3022 RMK AO2,,17.18,5.14,27.0,2018-08-12 01:15:00,,0.0,0.06,1.0,,KTRK,5899,-120.13333,39.31667
524,102336.62,WSW,7.2,,26.2,240.0,100611.48,1.0,Clear,10.0,82313.77,KTRK 120135Z AUTO 24009G14KT 10SM CLR 27/00 A3022 RMK AO2,,17.18,4.63,27.0,2018-08-12 01:35:00,,0.0,0.06,1.0,,KTRK,5899,-120.13333,39.31667
525,102336.62,WSW,,,,250.0,100677.71,1.0,Clear,10.0,82313.77,KTRK 120155Z AUTO 25009KT 10SM CLR 26/00 A3022 RMK AO2,,18.22,4.63,26.0,2018-08-12 01:55:00,,0.0,0.04,1.0,,KTRK,5899,-120.13333,39.31667
526,102370.48,SW,,,,230.0,100777.75,1.0,Clear,10.0,82341.0,KTRK 120215Z AUTO 23003KT 10SM CLR 25/00 A3023 RMK AO2,,19.33,1.54,25.0,2018-08-12 02:15:00,,0.0,0.02,1.0,,KTRK,5899,-120.13333,39.31667
527,102370.48,WSW,,,,240.0,100912.69,1.0,Clear,10.0,82341.0,KTRK 120235Z AUTO 24005KT 10SM CLR 23/00 A3023 RMK AO2,,21.79,2.57,23.0,2018-08-12 02:35:00,,0.0,-0.01,1.0,,KTRK,5899,-120.13333,39.31667
528,102370.48,W,,,,260.0,100912.74,1.0,Clear,10.0,82341.0,KTRK 120255Z AUTO 26005KT 10SM CLR 23/M01 A3023 RMK AO2,,20.26,2.57,23.0,2018-08-12 02:55:00,,-1.0,-1.01,1.0,,KTRK,5899,-120.13333,39.31667
529,102370.48,W,,,,270.0,100912.74,1.0,Clear,10.0,82341.0,KTRK 120315Z AUTO 27009KT 10SM CLR 23/M01 A3023 RMK AO2,,20.26,4.63,23.0,2018-08-12 03:15:00,,-1.0,-1.01,1.0,,KTRK,5899,-120.13333,39.31667
530,102404.34,SE,,,,140.0,101014.31,1.0,Clear,10.0,82368.24,KTRK 120335Z AUTO 14003KT 10SM CLR 22/00 A3024 RMK AO2,,23.16,1.54,22.0,2018-08-12 03:35:00,,0.0,-0.02,1.0,,KTRK,5899,-120.13333,39.31667
531,102404.34,W,,,,270.0,101152.28,1.0,Clear,10.0,82368.24,KTRK 120355Z AUTO 27007KT 10SM CLR 20/00 A3024 RMK AO2,,26.18,3.6,20.0,2018-08-12 03:55:00,,0.0,-0.05,1.0,,KTRK,5899,-120.13333,39.31667
532,102438.21,ESE,,,,110.0,101255.51,1.0,Clear,10.0,82395.48,KTRK 120415Z AUTO 11003KT 10SM CLR 19/00 A3025 RMK AO2,,27.85,1.54,19.0,2018-08-12 04:15:00,,0.0,-0.07,1.0,,KTRK,5899,-120.13333,39.31667
533,102438.21,SE,,,,130.0,101325.8,1.0,Clear,10.0,82395.48,KTRK 120435Z AUTO 13003KT 10SM CLR 18/00 A3025 RMK AO2,,29.65,1.54,18.0,2018-08-12 04:35:00,,0.0,-0.07,1.0,,KTRK,5899,-120.13333,39.31667
534,102438.21,SSE,,,,150.0,101539.85,1.0,Clear,10.0,82395.48,KTRK 120455Z AUTO 15003KT 10SM CLR 15/00 A3025 RMK AO2,,35.88,1.54,15.0,2018-08-12 04:55:00,,0.0,-0.09,1.0,,KTRK,5899,-120.13333,39.31667
535,102438.21,N,,,,0.0,101539.85,1.0,Clear,10.0,82395.48,KTRK 120515Z AUTO 00000KT 10SM CLR 15/00 A3025 RMK AO2,,35.88,0.0,15.0,2018-08-12 05:15:00,,0.0,-0.09,1.0,,KTRK,5899,-120.13333,39.31667
536,102438.21,S,,,,190.0,101612.28,1.0,Clear,10.0,82395.48,KTRK 120535Z AUTO 19005KT 10SM CLR 14/00 A3025 RMK AO2,,38.27,2.57,14.0,2018-08-12 05:35:00,,0.0,-0.1,1.0,,KTRK,5899,-120.13333,39.31667
537,102438.21,SSE,,,,160.0,101612.28,1.0,Clear,10.0,82395.48,KTRK 120555Z AUTO 16003KT 10SM CLR 14/00 A3025 RMK AO2,,38.27,1.54,14.0,2018-08-12 05:55:00,,0.0,-0.1,1.0,,KTRK,5899,-120.13333,39.31667
538,102438.21,N,,,,0.0,101758.73,1.0,Clear,10.0,82395.48,KTRK 120615Z AUTO 00000KT 10SM CLR 12/01 A3025 RMK AO2,,46.88,0.0,12.0,2018-08-12 06:15:00,,1.0,0.9,1.0,,KTRK,5899,-120.13333,39.31667
539,102438.21,N,,,,0.0,101612.22,1.0,Clear,10.0,82395.48,KTRK 120635Z AUTO 00000KT 10SM CLR 14/01 A3025 RMK AO2,,41.14,0.0,14.0,2018-08-12 06:35:00,,1.0,0.91,1.0,,KTRK,5899,-120.13333,39.31667
540,102438.21,N,,,,0.0,101685.2,1.0,Clear,10.0,82395.48,KTRK 120655Z AUTO 00000KT 10SM CLR 13/01 A3025 RMK AO2,,43.9,0.0,13.0,2018-08-12 06:55:00,,1.0,0.9,1.0,,KTRK,5899,-120.13333,39.31667
541,102438.21,N,,,,0.0,101685.14,1.0,Clear,10.0,82395.48,KTRK 120715Z AUTO 00000KT 10SM CLR 13/02 A3025 RMK AO2,,47.17,0.0,13.0,2018-08-12 07:15:00,,2.0,1.91,1.0,,KTRK,5899,-120.13333,39.31667
542,102438.21,N,,,,0.0,101758.79,1.0,Clear,10.0,82395.48,KTRK 120735Z AUTO 00000KT 10SM CLR 12/00 A3025 RMK AO2,,43.61,0.0,12.0,2018-08-12 07:35:00,,0.0,-0.1,1.0,,KTRK,5899,-120.13333,39.31667
543,102438.21,N,,,,0.0,101907.48,1.0,Clear,10.0,82395.48,KTRK 120755Z AUTO 00000KT 10SM CLR 10/01 A3025 RMK AO2 LTG DSNT  SE,,53.53,0.0,10.0,2018-08-12 07:55:00,,1.0,0.91,1.0,,KTRK,5899,-120.13333,39.31667
544,102438.21,N,,,,0.0,101832.76,1.0,Clear,10.0,82395.48,KTRK 120815Z AUTO 00000KT 10SM CLR 11/02 A3025 RMK AO2,,53.81,0.0,11.0,2018-08-12 08:15:00,,2.0,1.91,1.0,,KTRK,5899,-120.13333,39.31667
545,102438.21,N,,,,0.0,101832.76,1.0,Clear,10.0,82395.48,KTRK 120835Z AUTO 00000KT 10SM CLR 11/02 A3025 RMK AO2,,53.81,0.0,11.0,2018-08-12 08:35:00,,2.0,1.91,1.0,,KTRK,5899,-120.13333,39.31667
546,102438.21,N,,,,0.0,101832.76,1.0,Clear,10.0,82395.48,KTRK 120855Z AUTO 00000KT 10SM CLR 11/02 A3025 RMK AO2,,53.81,0.0,11.0,2018-08-12 08:55:00,,2.0,1.91,1.0,,KTRK,5899,-120.13333,39.31667
547,102438.21,N,,,,0.0,101907.41,1.0,Clear,10.0,82395.48,KTRK 120915Z AUTO 00000KT 10SM CLR 10/02 A3025 RMK AO2,,57.52,0.0,10.0,2018-08-12 09:15:00,,2.0,1.92,1.0,,KTRK,5899,-120.13333,39.31667
548,102438.21,N,,,,0.0,102058.52,1.0,Clear,10.0,82395.48,KTRK 120935Z AUTO 00000KT 10SM CLR 08/01 A3025 RMK AO2,,61.27,0.0,8.0,2018-08-12 09:35:00,,1.0,0.92,1.0,,KTRK,5899,-120.13333,39.31667
549,102438.21,N,,,,0.0,101907.48,1.0,Clear,10.0,82395.48,KTRK 120955Z AUTO 00000KT 10SM CLR 10/01 A3025 RMK AO2,,53.53,0.0,10.0,2018-08-12 09:55:00,,1.0,0.91,1.0,,KTRK,5899,-120.13333,39.31667
550,102438.21,N,,,,0.0,101907.48,1.0,Clear,10.0,82395.48,KTRK 121015Z AUTO 00000KT 10SM CLR 10/01 A3025 RMK AO2,,53.53,0.0,10.0,2018-08-12 10:15:00,,1.0,0.91,1.0,,KTRK,5899,-120.13333,39.31667
551,102438.21,N,,,,0.0,102058.52,1.0,Clear,10.0,82395.48,KTRK 121035Z AUTO 00000KT 10SM CLR 08/01 A3025 RMK AO2,,61.27,0.0,8.0,2018-08-12 10:35:00,,1.0,0.92,1.0,,KTRK,5899,-120.13333,39.31667
552,102438.21,N,,,,0.0,102134.92,1.0,Clear,10.0,82395.48,KTRK 121055Z AUTO 00000KT 10SM CLR 07/01 A3025 RMK AO2,,65.6,0.0,7.0,2018-08-12 10:55:00,,1.0,0.93,1.0,,KTRK,5899,-120.13333,39.31667
553,102438.21,N,,,,0.0,101982.65,1.0,Clear,10.0,82395.48,KTRK 121115Z AUTO 00000KT 10SM CLR 09/02 A3025 RMK AO2,,61.51,0.0,9.0,2018-08-12 11:15:00,,2.0,1.92,1.0,,KTRK,5899,-120.13333,39.31667
554,102438.21,N,,,,0.0,102058.52,1.0,Clear,10.0,82395.48,KTRK 121135Z AUTO 00000KT 10SM CLR 08/01 A3025 RMK AO2,,61.27,0.0,8.0,2018-08-12 11:35:00,,1.0,0.92,1.0,,KTRK,5899,-120.13333,39.31667
555,102438.21,N,,,,0.0,102058.52,1.0,Clear,10.0,82395.48,KTRK 121155Z AUTO 00000KT 10SM CLR 08/01 A3025 RMK AO2,,61.27,0.0,8.0,2018-08-12 11:55:00,,1.0,0.92,1.0,,KTRK,5899,-120.13333,39.31667
556,102438.21,N,,,,0.0,102134.92,1.0,Clear,10.0,82395.48,KTRK 121215Z AUTO 00000KT 10SM CLR 07/01 A3025 RMK AO2,,65.6,0.0,7.0,2018-08-12 12:15:00,,1.0,0.93,1.0,,KTRK,5899,-120.13333,39.31667
557,102438.21,N,,,,0.0,102134.86,1.0,Clear,10.0,82395.48,KTRK 121235Z AUTO 00000KT 10SM CLR 07/02 A3025 RMK AO2,,70.47,0.0,7.0,2018-08-12 12:35:00,,2.0,1.94,1.0,,KTRK,5899,-120.13333,39.31667
558,102472.07,N,,,,0.0,102168.67,1.0,Clear,10.0,82422.71,KTRK 121255Z AUTO 00000KT 10SM CLR 07/01 A3026 RMK AO2,,65.6,0.0,7.0,2018-08-12 12:55:00,,1.0,0.93,1.0,,KTRK,5899,-120.13333,39.31667
559,102472.07,N,,,,0.0,102168.67,1.0,Clear,10.0,82422.71,KTRK 121315Z AUTO 00000KT 10SM CLR 07/01 A3026 RMK AO2,,65.6,0.0,7.0,2018-08-12 13:15:00,,1.0,0.93,1.0,,KTRK,5899,-120.13333,39.31667
560,102472.07,N,,,,0.0,102245.69,1.0,Clear,10.0,82422.71,KTRK 121335Z AUTO 00000KT 10SM CLR 06/01 A3026 RMK AO2,,70.27,0.0,6.0,2018-08-12 13:35:00,,1.0,0.93,1.0,,KTRK,5899,-120.13333,39.31667
561,102472.07,N,,,,0.0,102168.61,1.0,Clear,10.0,82422.71,KTRK 121345Z 00000KT 10SM SKC 07/02 A3026 RMK HZ ALQDS,,70.47,0.0,7.0,2018-08-12 13:45:00,,2.0,1.94,1.0,,KTRK,5899,-120.13333,39.31667
562,102505.93,N,,,,0.0,101900.08,1.0,Clear,10.0,82449.95,KTRK 121450Z 00000KT 10SM SKC 11/02 A3027,,53.81,0.0,11.0,2018-08-12 14:50:00,,2.0,1.91,1.0,,KTRK,5899,-120.13333,39.31667
563,102505.93,N,,,,0.0,101679.27,1.0,Clear,10.0,82449.95,KTRK 121545Z 00000KT 10SM SKC 14/03 A3027,,47.46,0.0,14.0,2018-08-12 15:45:00,,3.0,2.92,1.0,,KTRK,5899,-120.13333,39.31667
564,102438.21,N,,,,0.0,101047.4,1.0,Clear,10.0,82395.48,KTRK 121655Z 00000KT 10SM SKC 22/05 A3025,,33.05,0.0,22.0,2018-08-12 16:55:00,,5.0,4.97,1.0,,KTRK,5899,-120.13333,39.31667
565,102438.21,N,,,,0.0,100844.12,1.0,Clear,10.0,82395.48,KTRK 121745Z 00000KT 10SM SKC 25/05 A3025,,27.59,0.0,25.0,2018-08-12 17:45:00,,5.0,5.0,1.0,,KTRK,5899,-120.13333,39.31667
566,102370.48,W,,,27.39,270.0,100513.61,1.0,Clear,10.0,82341.0,KTRK 121855Z 27010KT 10SM SKC 29/01 A3023,,16.44,5.14,29.0,2018-08-12 18:55:00,,1.0,1.1,1.0,,KTRK,5899,-120.13333,39.31667
567,102302.75,W,7.2,,27.39,260.0,100447.1,1.0,Clear,10.0,82286.52,KTRK 121955Z 26005G14KT 10SM SKC 29/01 A3021,,16.44,2.57,29.0,2018-08-12 19:55:00,,1.0,1.1,1.0,,KTRK,5899,-120.13333,39.31667
568,102268.89,W,8.23,,28.9,280.0,100284.86,1106.0,Mostly Clear,10.0,82259.29,KTRK 122055Z 28007G16KT 10SM FEW110 31/M01 A3020,,12.68,3.6,31.0,2018-08-12 20:55:00,,-1.0,-0.83,1.0,,KTRK,5899,-120.13333,39.31667
569,102268.89,W,8.75,,28.14,270.0,100349.13,702.0,Partly Cloudy,10.0,82259.29,KTRK 122145Z 27014G17KT 10SM SCT070 30/00 A3020,,14.44,7.2,30.0,2018-08-12 21:45:00,,0.0,0.13,1.0,,KTRK,5899,-120.13333,39.31667
570,102201.16,W,,,27.39,280.0,100347.36,1.0,Clear,10.0,82204.81,KTRK 122355Z 28013KT 10SM SKC 29/01 A3018,,16.44,6.69,29.0,2018-08-12 23:55:00,,1.0,1.1,1.0,,KTRK,5899,-120.13333,39.31667
571,102235.02,W,,,26.69,280.0,100445.83,1.0,Clear,10.0,82232.04,KTRK 130045Z 28013KT 10SM SKC 28/01 A3019,,17.42,6.69,28.0,2018-08-13 00:45:00,,1.0,1.08,1.0,,KTRK,5899,-120.13333,39.31667
572,102235.02,W,7.2,,26.24,270.0,100511.52,1.0,Clear,10.0,82232.04,KTRK 130115Z AUTO 27009G14KT 10SM CLR 27/01 A3019 RMK AO2,,18.47,4.63,27.0,2018-08-13 01:15:00,,1.0,1.06,1.0,,KTRK,5899,-120.13333,39.31667
573,102235.02,WSW,7.2,,,250.0,100577.69,1.0,Clear,10.0,82232.04,KTRK 130135Z AUTO 25011G14KT 10SM CLR 26/01 A3019 RMK AO2,,19.59,5.66,26.0,2018-08-13 01:35:00,,1.0,1.04,1.0,,KTRK,5899,-120.13333,39.31667
574,102235.02,W,,,,260.0,100577.69,1.0,Clear,10.0,82232.04,KTRK 130155Z AUTO 26008KT 10SM CLR 26/01 A3019 RMK AO2,,19.59,4.12,26.0,2018-08-13 01:55:00,,1.0,1.04,1.0,,KTRK,5899,-120.13333,39.31667
575,102235.02,W,,,,270.0,100644.4,1.0,Clear,10.0,82232.04,KTRK 130215Z AUTO 27008KT 10SM CLR 25/00 A3019 RMK AO2,,19.33,4.12,25.0,2018-08-13 02:15:00,,0.0,0.02,1.0,,KTRK,5899,-120.13333,39.31667
576,102268.89,W,,,,260.0,100744.9,1.0,Clear,10.0,82259.29,KTRK 130235Z AUTO 26006KT 10SM CLR 24/00 A3020 RMK AO2,,20.52,3.09,24.0,2018-08-13 02:35:00,,0.0,0.0,1.0,,KTRK,5899,-120.13333,39.31667
577,102268.89,W,,,,270.0,100812.55,1.0,Clear,10.0,82259.29,KTRK 130255Z AUTO 27004KT 10SM CLR 23/00 A3020 RMK AO2,,21.79,2.06,23.0,2018-08-13 02:55:00,,0.0,-0.01,1.0,,KTRK,5899,-120.13333,39.31667
578,102268.89,W,,,,280.0,100880.69,1.0,Clear,10.0,82259.29,KTRK 130315Z AUTO 28004KT 10SM CLR 22/00 A3020 RMK AO2,,23.16,2.06,22.0,2018-08-13 03:15:00,,0.0,-0.02,1.0,,KTRK,5899,-120.13333,39.31667
579,102302.75,SSE,,,,160.0,101051.92,1.0,Clear,10.0,82286.52,KTRK 130335Z AUTO 16003KT 10SM CLR 20/00 A3021 RMK AO2,,26.18,1.54,20.0,2018-08-13 03:35:00,,0.0,-0.05,1.0,,KTRK,5899,-120.13333,39.31667
580,102336.62,SE,,,,140.0,101225.32,1.0,Clear,10.0,82313.77,KTRK 130355Z AUTO 14003KT 10SM CLR 18/00 A3022 RMK AO2,,29.65,1.54,18.0,2018-08-13 03:55:00,,0.0,-0.07,1.0,,KTRK,5899,-120.13333,39.31667
581,102370.48,N,,,,0.0,101400.88,1.0,Clear,10.0,82341.0,KTRK 130415Z AUTO 00000KT 10SM CLR 16/00 A3023 RMK AO2,,33.65,0.0,16.0,2018-08-13 04:15:00,,0.0,-0.09,1.0,,KTRK,5899,-120.13333,39.31667
582,102370.48,N,,,,0.0,101400.82,1.0,Clear,10.0,82341.0,KTRK 130435Z AUTO 00000KT 10SM CLR 16/01 A3023 RMK AO2,,36.18,0.0,16.0,2018-08-13 04:35:00,,1.0,0.92,1.0,,KTRK,5899,-120.13333,39.31667
583,102370.48,N,,,,0.0,101472.6,1.0,Clear,10.0,82341.0,KTRK 130455Z AUTO 00000KT 10SM CLR 15/02 A3023 RMK AO2,,41.44,0.0,15.0,2018-08-13 04:55:00,,2.0,1.91,1.0,,KTRK,5899,-120.13333,39.31667
584,102370.48,N,,,,0.0,101544.98,1.0,Clear,10.0,82341.0,KTRK 130515Z AUTO 00000KT 10SM CLR 14/02 A3023 RMK AO2,,44.2,0.0,14.0,2018-08-13 05:15:00,,2.0,1.91,1.0,,KTRK,5899,-120.13333,39.31667
585,102404.34,N,,,,0.0,101506.17,1.0,Clear,10.0,82368.24,KTRK 130535Z AUTO 00000KT 10SM CLR 15/02 A3024 RMK AO2,,41.44,0.0,15.0,2018-08-13 05:35:00,,2.0,1.91,1.0,,KTRK,5899,-120.13333,39.31667
586,102370.48,N,,,,0.0,101617.9,1.0,Clear,10.0,82341.0,KTRK 130555Z AUTO 00000KT 10SM CLR 13/02 A3023 RMK AO2,,47.17,0.0,13.0,2018-08-13 05:55:00,,2.0,1.91,1.0,,KTRK,5899,-120.13333,39.31667
587,102370.48,SSE,,,,160.0,101617.96,1.0,Clear,10.0,82341.0,KTRK 130615Z AUTO 16003KT 10SM CLR 13/01 A3023 RMK AO2,,43.9,1.54,13.0,2018-08-13 06:15:00,,1.0,0.9,1.0,,KTRK,5899,-120.13333,39.31667
588,102404.34,N,,,,0.0,101651.52,1.0,Clear,10.0,82368.24,KTRK 130635Z AUTO 00000KT 10SM CLR 13/02 A3024 RMK AO2,,47.17,0.0,13.0,2018-08-13 06:35:00,,2.0,1.91,1.0,,KTRK,5899,-120.13333,39.31667
589,102438.21,N,,,,0.0,101685.14,1.0,Clear,10.0,82395.48,KTRK 130655Z AUTO 00000KT 10SM CLR 13/02 A3025 RMK AO2,,47.17,0.0,13.0,2018-08-13 06:55:00,,2.0,1.91,1.0,,KTRK,5899,-120.13333,39.31667
590,102438.21,N,,,,0.0,101832.82,1.0,Clear,10.0,82395.48,KTRK 130715Z AUTO 00000KT 10SM CLR 11/01 A3025 RMK AO2,,50.08,0.0,11.0,2018-08-13 07:15:00,,1.0,0.91,1.0,,KTRK,5899,-120.13333,39.31667
591,102438.21,N,,,,0.0,101832.82,1.0,Clear,10.0,82395.48,KTRK 130735Z AUTO 00000KT 10SM CLR 11/01 A3025 RMK AO2,,50.08,0.0,11.0,2018-08-13 07:35:00,,1.0,0.91,1.0,,KTRK,5899,-120.13333,39.31667
592,102438.21,N,,,,0.0,101832.82,1.0,Clear,10.0,82395.48,KTRK 130755Z AUTO 00000KT 10SM CLR 11/01 A3025 RMK AO2,,50.08,0.0,11.0,2018-08-13 07:55:00,,1.0,0.91,1.0,,KTRK,5899,-120.13333,39.31667
593,102404.34,N,,,,0.0,101799.15,1.0,Clear,10.0,82368.24,KTRK 130815Z AUTO 00000KT 10SM CLR 11/01 A3024 RMK AO2,,50.08,0.0,11.0,2018-08-13 08:15:00,,1.0,0.91,1.0,,KTRK,5899,-120.13333,39.31667
594,102370.48,N,,,,0.0,101840.1,1.0,Clear,10.0,82341.0,KTRK 130835Z AUTO 00000KT 10SM CLR 10/01 A3023 RMK AO2,,53.53,0.0,10.0,2018-08-13 08:35:00,,1.0,0.91,1.0,,KTRK,5899,-120.13333,39.31667
595,102370.48,N,,,,0.0,101840.1,1.0,Clear,10.0,82341.0,KTRK 130855Z AUTO 00000KT 10SM CLR 10/01 A3023 RMK AO2,,53.53,0.0,10.0,2018-08-13 08:55:00,,1.0,0.91,1.0,,KTRK,5899,-120.13333,39.31667
596,102370.48,N,,,,0.0,101765.55,1.0,Clear,10.0,82341.0,KTRK 130915Z AUTO 00000KT 10SM CLR 11/00 A3023 RMK AO2,,46.59,0.0,11.0,2018-08-13 09:15:00,,0.0,-0.1,1.0,,KTRK,5899,-120.13333,39.31667
597,102370.48,N,,,,0.0,101840.1,1.0,Clear,10.0,82341.0,KTRK 130935Z AUTO 00000KT 10SM CLR 10/01 A3023 RMK AO2,,53.53,0.0,10.0,2018-08-13 09:35:00,,1.0,0.91,1.0,,KTRK,5899,-120.13333,39.31667
598,102370.48,N,,,,0.0,101991.04,1.0,Clear,10.0,82341.0,KTRK 130955Z AUTO 00000KT 10SM CLR 08/01 A3023 RMK AO2,,61.27,0.0,8.0,2018-08-13 09:55:00,,1.0,0.92,1.0,,KTRK,5899,-120.13333,39.31667
599,102370.48,N,,,,0.0,101991.04,1.0,Clear,10.0,82341.0,KTRK 131015Z AUTO 00000KT 10SM CLR 08/01 A3023 RMK AO2,,61.27,0.0,8.0,2018-08-13 10:15:00,,1.0,0.92,1.0,,KTRK,5899,-120.13333,39.31667
600,102370.48,N,,,,0.0,101840.1,1.0,Clear,10.0,82341.0,KTRK 131035Z AUTO 00000KT 10SM CLR 10/01 A3023 RMK AO2,,53.53,0.0,10.0,2018-08-13 10:35:00,,1.0,0.91,1.0,,KTRK,5899,-120.13333,39.31667
601,102370.48,N,,,,0.0,102067.45,1.0,Clear,10.0,82341.0,KTRK 131055Z AUTO 00000KT 10SM CLR 07/00 A3023 RMK AO2,,61.02,0.0,7.0,2018-08-13 10:55:00,,0.0,-0.08,1.0,,KTRK,5899,-120.13333,39.31667
602,102370.48,N,,,,0.0,101991.1,1.0,Clear,10.0,82341.0,KTRK 131115Z AUTO 00000KT 10SM CLR 08/00 A3023 RMK AO2,,56.99,0.0,8.0,2018-08-13 11:15:00,,0.0,-0.09,1.0,,KTRK,5899,-120.13333,39.31667
603,102370.48,N,,,,0.0,102067.45,1.0,Clear,10.0,82341.0,KTRK 131135Z AUTO 00000KT 10SM CLR 07/00 A3023 RMK AO2,,61.02,0.0,7.0,2018-08-13 11:35:00,,0.0,-0.08,1.0,,KTRK,5899,-120.13333,39.31667
604,102370.48,N,,,,0.0,102067.45,1.0,Clear,10.0,82341.0,KTRK 131155Z AUTO 00000KT 10SM CLR 07/00 A3023 RMK AO2,,61.02,0.0,7.0,2018-08-13 11:55:00,,0.0,-0.08,1.0,,KTRK,5899,-120.13333,39.31667
605,102370.48,N,,,,0.0,102067.5,1.0,Clear,10.0,82341.0,KTRK 131215Z AUTO 00000KT 10SM CLR 07/M01 A3023 RMK AO2,,56.72,0.0,7.0,2018-08-13 12:15:00,,-1.0,-1.09,1.0,,KTRK,5899,-120.13333,39.31667
606,102370.48,N,,,,0.0,101991.1,1.0,Clear,10.0,82341.0,KTRK 131235Z AUTO 00000KT 10SM CLR 08/00 A3023 RMK AO2,,56.99,0.0,8.0,2018-08-13 12:35:00,,0.0,-0.09,1.0,,KTRK,5899,-120.13333,39.31667
607,102370.48,N,,,,0.0,102144.39,1.0,Clear,10.0,82341.0,KTRK 131255Z AUTO 00000KT 10SM CLR 06/00 A3023 RMK AO2,,65.37,0.0,6.0,2018-08-13 12:55:00,,0.0,-0.08,1.0,,KTRK,5899,-120.13333,39.31667
608,102370.48,N,,,,0.0,102067.45,1.0,Clear,10.0,82341.0,KTRK 131315Z AUTO 00000KT 10SM CLR 07/00 A3023 RMK AO2,,61.02,0.0,7.0,2018-08-13 13:15:00,,0.0,-0.08,1.0,,KTRK,5899,-120.13333,39.31667
609,102438.21,N,,,,0.0,102212.03,1.0,Clear,10.0,82395.48,KTRK 131335Z AUTO 00000KT 10SM CLR 06/M01 A3025 RMK AO2,,60.77,0.0,6.0,2018-08-13 13:35:00,,-1.0,-1.09,1.0,,KTRK,5899,-120.13333,39.31667
610,102438.21,N,,,,0.0,102135.03,1806.0,Mostly Clear,10.0,82395.48,KTRK 131345Z 00000KT 10SM FEW180 07/M01 A3025,,56.72,0.0,7.0,2018-08-13 13:45:00,,-1.0,-1.09,1.0,,KTRK,5899,-120.13333,39.31667
611,102438.21,N,,,,0.0,101907.54,2202.0,Partly Cloudy,10.0,82395.48,KTRK 131445Z 00000KT 10SM SCT220 10/00 A3025,,49.8,0.0,10.0,2018-08-13 14:45:00,,0.0,-0.1,1.0,,KTRK,5899,-120.13333,39.31667
612,102438.21,N,,,,0.0,101539.85,2106.0,Mostly Clear,10.0,82395.48,KTRK 131545Z 00000KT 10SM FEW210 15/00 A3025,,35.88,0.0,15.0,2018-08-13 15:45:00,,0.0,-0.09,1.0,,KTRK,5899,-120.13333,39.31667
613,102404.34,N,,,,0.0,101082.98,2106.0,Mostly Clear,10.0,82368.24,KTRK 131645Z 00000KT 10SM FEW210 21/01 A3024,,26.46,0.0,21.0,2018-08-13 16:45:00,,1.0,0.96,1.0,,KTRK,5899,-120.13333,39.31667
614,102404.34,N,,,,350.0,100811.19,2106.0,Mostly Clear,10.0,82368.24,KTRK 131745Z 35004KT 10SM FEW210 25/M02 A3024,,16.7,2.06,25.0,2018-08-13 17:45:00,,-2.0,-1.96,1.0,,KTRK,5899,-120.13333,39.31667
615,102370.48,NNE,,,26.63,20.0,100579.07,1.0,Clear,10.0,82341.0,KTRK 131845Z 02003KT 10SM SKC 28/M02 A3023 RMK ACSL DSNT N-E AND  W-N,,14.0,1.54,28.0,2018-08-13 18:45:00,,-2.0,-1.89,1.0,,KTRK,5899,-120.13333,39.31667
616,102302.75,W,,,26.67,270.0,100512.43,1.0,Clear,10.0,82286.52,KTRK 131945Z 27005KT 10SM SKC 28/00 A3021 RMK ACSL DSNT N-E AND  W-N,,16.2,2.57,28.0,2018-08-13 19:45:00,,0.0,0.08,1.0,,KTRK,5899,-120.13333,39.31667
617,102235.02,SW,,,27.38,230.0,100380.65,1.0,Clear,10.0,82232.04,KTRK 132145Z 23009KT 10SM SKC 29/00 A3019 RMK ACSL DSNT N-E AND  W-N,,15.29,4.63,29.0,2018-08-13 21:45:00,,0.0,0.11,1.0,,KTRK,5899,-120.13333,39.31667
618,102167.3,W,,,27.41,280.0,100314.05,1.0,Clear,10.0,82177.57,KTRK 132255Z 28013KT 10SM SKC 29/02 A3017,,17.66,6.69,29.0,2018-08-13 22:55:00,,2.0,2.09,1.0,,KTRK,5899,-120.13333,39.31667
619,102167.3,W,7.2,,26.2,260.0,100445.0,1.0,Clear,10.0,82177.57,KTRK 140115Z AUTO 26009G14KT 10SM CLR 27/00 A3017 RMK AO2,,17.18,4.63,27.0,2018-08-14 01:15:00,,0.0,0.06,1.0,,KTRK,5899,-120.13333,39.31667
620,102167.3,W,,,,260.0,100511.07,1.0,Clear,10.0,82177.57,KTRK 140135Z AUTO 26010KT 10SM CLR 26/01 A3017 RMK AO2,,19.59,5.14,26.0,2018-08-14 01:35:00,,1.0,1.04,1.0,,KTRK,5899,-120.13333,39.31667
621,102167.3,W,,,,260.0,100577.67,1.0,Clear,10.0,82177.57,KTRK 140155Z AUTO 26008KT 10SM CLR 25/01 A3017 RMK AO2,,20.78,4.12,25.0,2018-08-14 01:55:00,,1.0,1.02,1.0,,KTRK,5899,-120.13333,39.31667
622,102167.3,W,,,,270.0,100577.67,1.0,Clear,10.0,82177.57,KTRK 140215Z AUTO 27008KT 10SM CLR 25/01 A3017 RMK AO2,,20.78,4.12,25.0,2018-08-14 02:15:00,,1.0,1.02,1.0,,KTRK,5899,-120.13333,39.31667
623,102167.3,W,,,,260.0,100712.34,1.0,Clear,10.0,82177.57,KTRK 140235Z AUTO 26006KT 10SM CLR 23/01 A3017 RMK AO2,,23.43,3.09,23.0,2018-08-14 02:35:00,,1.0,0.99,1.0,,KTRK,5899,-120.13333,39.31667
624,102167.3,WSW,,,,250.0,100780.42,1.0,Clear,10.0,82177.57,KTRK 140255Z AUTO 25005KT 10SM CLR 22/01 A3017 RMK AO2,,24.89,2.57,22.0,2018-08-14 02:55:00,,1.0,0.97,1.0,,KTRK,5899,-120.13333,39.31667
625,102167.3,N,,,,0.0,100780.42,1.0,Clear,10.0,82177.57,KTRK 140315Z AUTO 00000KT 10SM CLR 22/01 A3017 RMK AO2,,24.89,0.0,22.0,2018-08-14 03:15:00,,1.0,0.97,1.0,,KTRK,5899,-120.13333,39.31667
626,102201.16,N,,,,0.0,100882.42,1.0,Clear,10.0,82204.81,KTRK 140335Z AUTO 00000KT 10SM CLR 21/01 A3018 RMK AO2,,26.46,0.0,21.0,2018-08-14 03:35:00,,1.0,0.96,1.0,,KTRK,5899,-120.13333,39.31667
627,102235.02,N,,,,0.0,100984.96,1.0,Clear,10.0,82232.04,KTRK 140355Z AUTO 00000KT 10SM CLR 20/01 A3019 RMK AO2,,28.14,0.0,20.0,2018-08-14 03:55:00,,1.0,0.95,1.0,,KTRK,5899,-120.13333,39.31667
628,102235.02,SE,,,,130.0,101195.43,1.0,Clear,10.0,82232.04,KTRK 140415Z AUTO 13006KT 10SM CLR 17/01 A3019 RMK AO2,,33.95,3.09,17.0,2018-08-14 04:15:00,,1.0,0.92,1.0,,KTRK,5899,-120.13333,39.31667
629,102268.89,SE,,,,140.0,101300.14,1.0,Clear,10.0,82259.29,KTRK 140435Z AUTO 14003KT 10SM CLR 16/02 A3020 RMK AO2,,38.87,1.54,16.0,2018-08-14 04:35:00,,2.0,1.92,1.0,,KTRK,5899,-120.13333,39.31667
630,102268.89,SSE,,,,150.0,101371.9,1.0,Clear,10.0,82259.29,KTRK 140455Z AUTO 15003KT 10SM CLR 15/02 A3020 RMK AO2,,41.44,1.54,15.0,2018-08-14 04:55:00,,2.0,1.91,1.0,,KTRK,5899,-120.13333,39.31667
631,102268.89,S,,,,190.0,101444.27,1.0,Clear,10.0,82259.29,KTRK 140515Z AUTO 19003KT 10SM CLR 14/01 A3020 RMK AO2,,41.14,1.54,14.0,2018-08-14 05:15:00,,1.0,0.91,1.0,,KTRK,5899,-120.13333,39.31667
632,102235.02,N,,,,0.0,101483.43,1.0,Clear,10.0,82232.04,KTRK 140535Z AUTO 00000KT 10SM CLR 13/02 A3019 RMK AO2,,47.17,0.0,13.0,2018-08-14 05:35:00,,2.0,1.91,1.0,,KTRK,5899,-120.13333,39.31667
633,102235.02,SSE,,,,150.0,101483.43,1.0,Clear,10.0,82232.04,KTRK 140555Z AUTO 15004KT 10SM CLR 13/02 A3019 RMK AO2,,47.17,2.06,13.0,2018-08-14 05:55:00,,2.0,1.91,1.0,,KTRK,5899,-120.13333,39.31667
634,102235.02,N,,,,0.0,101556.82,1.0,Clear,10.0,82232.04,KTRK 140615Z AUTO 00000KT 10SM CLR 12/02 A3019 RMK AO2,,50.37,0.0,12.0,2018-08-14 06:15:00,,2.0,1.91,1.0,,KTRK,5899,-120.13333,39.31667
635,102268.89,N,,,,0.0,101590.47,1.0,Clear,10.0,82259.29,KTRK 140635Z AUTO 00000KT 10SM CLR 12/02 A3020 RMK AO2,,50.37,0.0,12.0,2018-08-14 06:35:00,,2.0,1.91,1.0,,KTRK,5899,-120.13333,39.31667
636,102268.89,N,,,,0.0,101517.06,1.0,Clear,10.0,82259.29,KTRK 140655Z AUTO 00000KT 10SM CLR 13/02 A3020 RMK AO2,,47.17,0.0,13.0,2018-08-14 06:55:00,,2.0,1.91,1.0,,KTRK,5899,-120.13333,39.31667
637,102268.89,N,,,,0.0,101590.47,1.0,Clear,10.0,82259.29,KTRK 140715Z AUTO 00000KT 10SM CLR 12/02 A3020 RMK AO2,,50.37,0.0,12.0,2018-08-14 07:15:00,,2.0,1.91,1.0,,KTRK,5899,-120.13333,39.31667
638,102268.89,N,,,,0.0,101664.44,1.0,Clear,10.0,82259.29,KTRK 140735Z AUTO 00000KT 10SM CLR 11/02 A3020 RMK AO2,,53.81,0.0,11.0,2018-08-14 07:35:00,,2.0,1.91,1.0,,KTRK,5899,-120.13333,39.31667
639,102268.89,N,,,,0.0,101664.44,1.0,Clear,10.0,82259.29,KTRK 140755Z AUTO 00000KT 10SM CLR 11/02 A3020 RMK AO2,,53.81,0.0,11.0,2018-08-14 07:55:00,,2.0,1.91,1.0,,KTRK,5899,-120.13333,39.31667
640,102268.89,N,,,,0.0,101664.5,1.0,Clear,10.0,82259.29,KTRK 140815Z AUTO 00000KT 10SM CLR 11/01 A3020 RMK AO2,,50.08,0.0,11.0,2018-08-14 08:15:00,,1.0,0.91,1.0,,KTRK,5899,-120.13333,39.31667
641,102268.89,N,,,,0.0,101664.5,1.0,Clear,10.0,82259.29,KTRK 140835Z AUTO 00000KT 10SM CLR 11/01 A3020 RMK AO2,,50.08,0.0,11.0,2018-08-14 08:35:00,,1.0,0.91,1.0,,KTRK,5899,-120.13333,39.31667
642,102268.89,N,,,,0.0,101814.14,1.0,Clear,10.0,82259.29,KTRK 140855Z AUTO 00000KT 10SM CLR 09/01 A3020 RMK AO2,,57.25,0.0,9.0,2018-08-14 08:55:00,,1.0,0.91,1.0,,KTRK,5899,-120.13333,39.31667
643,102268.89,N,,,,0.0,101814.08,1.0,Clear,10.0,82259.29,KTRK 140915Z AUTO 00000KT 10SM CLR 09/02 A3020 RMK AO2,,61.51,0.0,9.0,2018-08-14 09:15:00,,2.0,1.92,1.0,,KTRK,5899,-120.13333,39.31667
644,102268.89,N,,,,0.0,101814.08,1.0,Clear,10.0,82259.29,KTRK 140935Z AUTO 00000KT 10SM CLR 09/02 A3020 RMK AO2,,61.51,0.0,9.0,2018-08-14 09:35:00,,2.0,1.92,1.0,,KTRK,5899,-120.13333,39.31667
645,102235.02,N,,,,0.0,101780.28,1.0,Clear,10.0,82232.04,KTRK 140955Z AUTO 00000KT 10SM CLR 09/03 A3019 RMK AO2,,66.05,0.0,9.0,2018-08-14 09:55:00,,3.0,2.93,1.0,,KTRK,5899,-120.13333,39.31667
646,102235.02,N,,,,0.0,101856.07,1.0,Clear,10.0,82232.04,KTRK 141015Z AUTO 00000KT 10SM CLR 08/01 A3019 RMK AO2,,61.27,0.0,8.0,2018-08-14 10:15:00,,1.0,0.92,1.0,,KTRK,5899,-120.13333,39.31667
647,102235.02,N,,,,0.0,101856.01,1.0,Clear,10.0,82232.04,KTRK 141035Z AUTO 00000KT 10SM CLR 08/02 A3019 RMK AO2,,65.82,0.0,8.0,2018-08-14 10:35:00,,2.0,1.93,1.0,,KTRK,5899,-120.13333,39.31667
648,102235.02,N,,,,0.0,101780.28,1.0,Clear,10.0,82232.04,KTRK 141055Z AUTO 00000KT 10SM CLR 09/03 A3019 RMK AO2,,66.05,0.0,9.0,2018-08-14 10:55:00,,3.0,2.93,1.0,,KTRK,5899,-120.13333,39.31667
649,102235.02,N,,,,0.0,101856.01,1.0,Clear,10.0,82232.04,KTRK 141115Z AUTO 00000KT 10SM CLR 08/02 A3019 RMK AO2,,65.82,0.0,8.0,2018-08-14 11:15:00,,2.0,1.93,1.0,,KTRK,5899,-120.13333,39.31667
650,102235.02,N,,,,0.0,101932.26,1203.0,Mostly Cloudy,10.0,82232.04,KTRK 141135Z AUTO 00000KT 10SM BKN120 07/02 A3019 RMK AO2,,70.47,0.0,7.0,2018-08-14 11:35:00,3657.6,2.0,1.94,1.0,,KTRK,5899,-120.13333,39.31667
651,102235.02,N,,,,0.0,101932.26,1203.0,Mostly Cloudy,10.0,82232.04,KTRK 141155Z AUTO 00000KT 10SM BKN120 07/02 A3019 RMK AO2,,70.47,0.0,7.0,2018-08-14 11:55:00,3657.6,2.0,1.94,1.0,,KTRK,5899,-120.13333,39.31667
652,102235.02,N,,,,0.0,101932.26,1203.0,Mostly Cloudy,10.0,82232.04,KTRK 141215Z AUTO 00000KT 10SM BKN120 07/02 A3019 RMK AO2,,70.47,0.0,7.0,2018-08-14 12:15:00,3657.6,2.0,1.94,1.0,,KTRK,5899,-120.13333,39.31667
653,102235.02,N,,,,0.0,101932.26,1202.0,Partly Cloudy,10.0,82232.04,KTRK 141235Z AUTO 00000KT 10SM SCT120 07/02 A3019 RMK AO2,,70.47,0.0,7.0,2018-08-14 12:35:00,,2.0,1.94,1.0,,KTRK,5899,-120.13333,39.31667
654,102235.02,N,,,,0.0,101856.07,1102.0,Partly Cloudy,10.0,82232.04,KTRK 141255Z AUTO 00000KT 10SM SCT110 08/01 A3019 RMK AO2,,61.27,0.0,8.0,2018-08-14 12:55:00,,1.0,0.92,1.0,,KTRK,5899,-120.13333,39.31667
655,102235.02,N,,,,0.0,101932.26,1.0,Clear,10.0,82232.04,KTRK 141315Z AUTO 00000KT 10SM CLR 07/02 A3019 RMK AO2,,70.47,0.0,7.0,2018-08-14 13:15:00,,2.0,1.94,1.0,,KTRK,5899,-120.13333,39.31667
656,102268.89,N,,,,0.0,101889.77,1.0,Clear,10.0,82259.29,KTRK 141335Z AUTO 00000KT 10SM CLR 08/02 A3020 RMK AO2,,65.82,0.0,8.0,2018-08-14 13:35:00,,2.0,1.93,1.0,,KTRK,5899,-120.13333,39.31667
657,102268.89,N,,,,0.0,101371.84,2103.0,Mostly Cloudy,10.0,82259.29,KTRK 141550Z 00000KT 10SM BKN210 15/03 A3020,,44.49,0.0,15.0,2018-08-14 15:50:00,6400.8,3.0,2.92,1.0,,KTRK,5899,-120.13333,39.31667
658,102235.02,N,,,,0.0,101054.41,1202.0,Partly Cloudy,10.0,82232.04,KTRK 141645Z 00000KT 10SM SCT120 19/04 A3019,,37.07,0.0,19.0,2018-08-14 16:45:00,,4.0,3.94,1.0,,KTRK,5899,-120.13333,39.31667
659,102235.02,N,,,,0.0,100778.91,1302.0,Partly Cloudy,10.0,82232.04,KTRK 141745Z 00000KT 10SM SCT130 23/04 A3019,,29.0,0.0,23.0,2018-08-14 17:45:00,,4.0,3.98,1.0,,KTRK,5899,-120.13333,39.31667
660,102167.3,NW,,,26.35,320.0,100444.76,1202.0,Partly Cloudy,10.0,82177.57,KTRK 141845Z 32004KT 10SM SCT120 27/04 A3017,,22.86,2.06,27.0,2018-08-14 18:45:00,,4.0,4.04,1.0,,KTRK,5899,-120.13333,39.31667
661,102099.57,SSE,,,27.44,150.0,100247.5,1402.0,Partly Cloudy,10.0,82123.1,KTRK 141945Z 15004KT 10SM SCT140 29/03 A3015,,18.97,2.06,29.0,2018-08-14 19:45:00,,3.0,3.09,1.0,,KTRK,5899,-120.13333,39.31667
662,102031.84,E,,,28.18,90.0,100116.36,1203.0,Mostly Cloudy,10.0,82068.62,KTRK 142045Z 09007KT 10SM BKN120 30/03 A3013,,17.91,3.6,30.0,2018-08-14 20:45:00,3657.6,3.0,3.11,1.0,,KTRK,5899,-120.13333,39.31667
663,101964.11,W,,,26.75,270.0,100179.54,1004.0,Overcast,10.0,82014.14,KTRK 142155Z 27007KT 240V280 10SM OVC100 28/03 A3011,,20.1,3.6,28.0,2018-08-14 21:55:00,3048.0,3.0,3.07,1.0,,KTRK,5899,-120.13333,39.31667
664,102031.84,SSW,,1004.0,,200.0,100510.83,402.0,Light Rain,10.0,82068.62,KTRK 142255Z 20007KT 10SM -RA SCT040 BKN050 OVC100 24/08 A3013,503.0,36.01,3.6,24.0,2018-08-14 22:55:00,1524.0,8.0,7.99,1.0,13.0,KTRK,5899,-120.13333,39.31667
665,102031.84,S,,1004.0,,180.0,100922.35,462.0,Overcast,10.0,82068.62,KTRK 142345Z 18005KT 10SM SCT046 SCT070 OVC100 18/16 A3013,702.0,88.11,2.57,18.0,2018-08-14 23:45:00,3048.0,16.0,15.99,1.0,,KTRK,5899,-120.13333,39.31667
666,102133.43,SSE,,,,160.0,100814.41,1104.0,Overcast,10.0,82150.33,KTRK 150045Z 16005KT 10SM OVC110 21/14 A3016,,64.32,2.57,21.0,2018-08-15 00:45:00,3352.8,14.0,13.97,1.0,,KTRK,5899,-120.13333,39.31667
667,102167.3,E,,,,100.0,100848.08,853.0,Overcast,10.0,82177.57,KTRK 150115Z AUTO 10003KT 10SM BKN085 OVC110 21/12 A3017 RMK AO2,1104.0,56.44,1.54,21.0,2018-08-15 01:15:00,2590.8,12.0,11.97,1.0,,KTRK,5899,-120.13333,39.31667
668,102167.3,N,,,,0.0,100848.08,852.0,Mostly Cloudy,10.0,82177.57,KTRK 150135Z AUTO 00000KT 10SM SCT085 BKN110 21/12 A3017 RMK AO2,1103.0,56.44,0.0,21.0,2018-08-15 01:35:00,3352.8,12.0,11.97,1.0,,KTRK,5899,-120.13333,39.31667
669,102099.57,N,,,,360.0,100713.02,1104.0,Overcast,10.0,82123.1,KTRK 150155Z AUTO 36007KT 10SM OVC110 22/09 A3015 RMK AO2,,43.48,3.6,22.0,2018-08-15 01:55:00,3352.8,9.0,8.97,1.0,,KTRK,5899,-120.13333,39.31667
670,102133.43,SE,,,,140.0,100814.76,1102.0,Partly Cloudy,10.0,82150.33,KTRK 150215Z AUTO 14003KT 10SM SCT110 21/11 A3016 RMK AO2,,52.83,1.54,21.0,2018-08-15 02:15:00,,11.0,10.96,1.0,,KTRK,5899,-120.13333,39.31667
671,102065.7,WSW,,,,250.0,100747.9,1202.0,Partly Cloudy,10.0,82095.85,KTRK 150235Z AUTO 25003KT 10SM SCT120 21/11 A3014 RMK AO2,,52.83,1.54,21.0,2018-08-15 02:35:00,,11.0,10.96,1.0,,KTRK,5899,-120.13333,39.31667
672,102065.7,N,,,,0.0,100956.24,1202.0,Partly Cloudy,10.0,82095.85,KTRK 150255Z AUTO 00000KT 10SM SCT120 18/13 A3014 RMK AO2,,72.6,0.0,18.0,2018-08-15 02:55:00,,13.0,12.97,1.0,,KTRK,5899,-120.13333,39.31667
673,102065.7,N,,,,0.0,101026.79,1202.0,Partly Cloudy,10.0,82095.85,KTRK 150315Z AUTO 00000KT 10SM SCT120 17/13 A3014 RMK AO2,,77.33,0.0,17.0,2018-08-15 03:15:00,,13.0,12.97,1.0,,KTRK,5899,-120.13333,39.31667
674,102065.7,N,,,,0.0,101026.91,1.0,Clear,10.0,82095.85,KTRK 150335Z AUTO 00000KT 10SM CLR 17/12 A3014 RMK AO2,,72.42,0.0,17.0,2018-08-15 03:35:00,,12.0,11.97,1.0,,KTRK,5899,-120.13333,39.31667
675,102065.7,S,,,,190.0,101097.88,1.0,Clear,10.0,82095.85,KTRK 150355Z AUTO 19003KT 10SM CLR 16/13 A3014 RMK AO2,,82.4,1.54,16.0,2018-08-15 03:55:00,,13.0,12.98,1.0,,KTRK,5899,-120.13333,39.31667
676,102099.57,N,,,,0.0,101203.08,1.0,Clear,10.0,82123.1,KTRK 150415Z AUTO 00000KT 10SM CLR 15/13 A3015 RMK AO2,,87.85,0.0,15.0,2018-08-15 04:15:00,,13.0,12.98,1.0,,KTRK,5899,-120.13333,39.31667
677,102099.57,N,,,,0.0,101131.44,1202.0,Partly Cloudy,10.0,82123.1,KTRK 150435Z AUTO 00000KT 10SM SCT120 16/13 A3015 RMK AO2,,82.4,0.0,16.0,2018-08-15 04:35:00,,13.0,12.98,1.0,,KTRK,5899,-120.13333,39.31667
678,102099.57,SSW,,,,210.0,101203.2,1203.0,Mostly Cloudy,10.0,82123.1,KTRK 150455Z AUTO 21004KT 10SM BKN120 15/12 A3015 RMK AO2,,82.27,2.06,15.0,2018-08-15 04:55:00,3657.6,12.0,11.98,1.0,,KTRK,5899,-120.13333,39.31667
679,102133.43,N,,,,0.0,101236.64,1204.0,Overcast,10.0,82150.33,KTRK 150515Z AUTO 00000KT 10SM OVC120 15/13 A3016 RMK AO2,,87.85,0.0,15.0,2018-08-15 05:15:00,3657.6,13.0,12.98,1.0,,KTRK,5899,-120.13333,39.31667
680,102133.43,N,,,,0.0,101094.07,1203.0,Mostly Cloudy,10.0,82150.33,KTRK 150535Z AUTO 00000KT 10SM BKN120 17/11 A3016 RMK AO2,,67.79,0.0,17.0,2018-08-15 05:35:00,3657.6,11.0,10.96,1.0,,KTRK,5899,-120.13333,39.31667
681,102133.43,N,,,,0.0,101236.75,902.0,Overcast,10.0,82150.33,KTRK 150555Z AUTO 00000KT 10SM SCT090 OVC110 15/12 A3016 RMK AO2,1104.0,82.27,0.0,15.0,2018-08-15 05:55:00,3352.8,12.0,11.98,1.0,,KTRK,5899,-120.13333,39.31667
682,102167.3,SW,,1104.0,,220.0,101198.75,652.0,Overcast,10.0,82177.57,KTRK 150615Z AUTO 22003KT 10SM SCT065 BKN090 OVC110 16/11 A3017 RMK AO2,903.0,72.23,1.54,16.0,2018-08-15 06:15:00,2743.2,11.0,10.96,1.0,,KTRK,5899,-120.13333,39.31667
683,102133.43,N,,,,0.0,101165.2,652.0,,10.0,82150.33,KTRK 150635Z AUTO 00000KT 10SM SCT065 OVC100 16/11 A3016 RMK AO2,1004.0,72.23,0.0,16.0,2018-08-15 06:35:00,3048.0,11.0,10.96,1.0,,KTRK,5899,-120.13333,39.31667
684,102133.43,N,,,,0.0,101094.17,1104.0,,10.0,82150.33,KTRK 150655Z AUTO 00000KT 10SM OVC110 17/10 A3016 RMK AO2,,63.42,0.0,17.0,2018-08-15 06:55:00,3352.8,10.0,9.96,1.0,,KTRK,5899,-120.13333,39.31667
685,102133.43,N,,,,350.0,101165.31,1104.0,,10.0,82150.33,KTRK 150715Z AUTO 35003KT 10SM OVC110 16/10 A3016 RMK AO2,,67.57,1.54,16.0,2018-08-15 07:15:00,3352.8,10.0,9.96,1.0,,KTRK,5899,-120.13333,39.31667
686,102133.43,W,,,,270.0,101165.31,1103.0,,10.0,82150.33,KTRK 150735Z AUTO 27003KT 10SM BKN110 16/10 A3016 RMK AO2,,67.57,1.54,16.0,2018-08-15 07:35:00,3352.8,10.0,9.96,1.0,,KTRK,5899,-120.13333,39.31667
687,102133.43,S,8.75,,,190.0,101094.27,902.0,,10.0,82150.33,KTRK 150755Z AUTO 19004G17KT 10SM SCT090 BKN110 17/09 A3016 RMK AO2,1103.0,59.3,2.06,17.0,2018-08-15 07:55:00,3352.8,9.0,8.95,1.0,,KTRK,5899,-120.13333,39.31667
688,102099.57,NNE,,,,30.0,101203.31,1203.0,,10.0,82123.1,KTRK 150815Z AUTO 03003KT 10SM BKN120 15/11 A3015 RMK AO2,,77.01,1.54,15.0,2018-08-15 08:15:00,3657.6,11.0,10.97,1.0,,KTRK,5899,-120.13333,39.31667
689,102133.43,N,,,,0.0,101165.31,1202.0,,10.0,82150.33,KTRK 150835Z AUTO 00000KT 10SM SCT120 16/10 A3016 RMK AO2,,67.57,0.0,16.0,2018-08-15 08:35:00,,10.0,9.96,1.0,,KTRK,5899,-120.13333,39.31667
690,102099.57,N,,,,0.0,101203.42,1202.0,,10.0,82123.1,KTRK 150855Z AUTO 00000KT 10SM SCT120 15/10 A3015 RMK AO2,,72.04,0.0,15.0,2018-08-15 08:55:00,,10.0,9.96,1.0,,KTRK,5899,-120.13333,39.31667
691,102099.57,W,,,,260.0,101348.22,1.0,,10.0,82123.1,KTRK 150915Z AUTO 26004KT 10SM VCTS CLR 13/11 A3015 RMK AO2,,87.66,2.06,13.0,2018-08-15 09:15:00,,11.0,10.98,1.0,5.0,KTRK,5899,-120.13333,39.31667
692,102099.57,N,,,,0.0,101203.42,1.0,,10.0,82123.1,KTRK 150935Z AUTO 00000KT 10SM CLR 15/10 A3015 RMK AO2,,72.04,0.0,15.0,2018-08-15 09:35:00,,10.0,9.96,1.0,,KTRK,5899,-120.13333,39.31667
693,102099.57,WSW,,,,250.0,101348.33,1.0,,10.0,82123.1,KTRK 150955Z AUTO 25003KT 10SM CLR 13/10 A3015 RMK AO2,,82.01,1.54,13.0,2018-08-15 09:55:00,,10.0,9.97,1.0,,KTRK,5899,-120.13333,39.31667
694,102133.43,E,,,,80.0,101455.24,1202.0,,10.0,82150.33,KTRK 151015Z AUTO 08006KT 10SM SCT120 12/10 A3016 RMK AO2,,87.57,3.09,12.0,2018-08-15 10:15:00,,10.0,9.98,1.0,,KTRK,5899,-120.13333,39.31667
695,102133.43,N,,,,0.0,101381.94,1202.0,,10.0,82150.33,KTRK 151035Z AUTO 00000KT 10SM SCT120 13/10 A3016 RMK AO2,,82.01,0.0,13.0,2018-08-15 10:35:00,,10.0,9.97,1.0,,KTRK,5899,-120.13333,39.31667
696,102133.43,N,,,,0.0,101455.24,1.0,,10.0,82150.33,KTRK 151055Z AUTO 00000KT 10SM CLR 12/10 A3016 RMK AO2,,87.57,0.0,12.0,2018-08-15 10:55:00,,10.0,9.98,1.0,,KTRK,5899,-120.13333,39.31667
697,102133.43,N,,,,0.0,101455.35,1.0,,10.0,82150.33,KTRK 151115Z AUTO 00000KT 10SM CLR 12/09 A3016 RMK AO2,,81.88,0.0,12.0,2018-08-15 11:15:00,,9.0,8.97,1.0,,KTRK,5899,-120.13333,39.31667
698,102133.43,N,,,,0.0,101455.35,1202.0,,10.0,82150.33,KTRK 151135Z AUTO 00000KT 10SM SCT120 12/09 A3016 RMK AO2,,81.88,0.0,12.0,2018-08-15 11:35:00,,9.0,8.97,1.0,,KTRK,5899,-120.13333,39.31667
699,102167.3,N,,,,0.0,101488.99,1204.0,,10.0,82177.57,KTRK 151155Z AUTO 00000KT 10SM OVC120 12/09 A3017 RMK AO2,,81.88,0.0,12.0,2018-08-15 11:55:00,3657.6,9.0,8.97,1.0,,KTRK,5899,-120.13333,39.31667
700,102167.3,N,,,,0.0,101562.97,1204.0,,10.0,82177.57,KTRK 151215Z AUTO 00000KT 10SM OVC120 11/08 A3017 RMK AO2,,81.75,0.0,11.0,2018-08-15 12:15:00,3657.6,8.0,7.97,1.0,,KTRK,5899,-120.13333,39.31667
701,102167.3,N,,,,0.0,101562.97,1203.0,,10.0,82177.57,KTRK 151235Z AUTO 00000KT 10SM BKN120 11/08 A3017 RMK AO2,,81.75,0.0,11.0,2018-08-15 12:35:00,3657.6,8.0,7.97,1.0,,KTRK,5899,-120.13333,39.31667
702,102167.3,N,,,,0.0,101488.99,1202.0,,10.0,82177.57,KTRK 151255Z AUTO 00000KT 10SM SCT120 12/09 A3017 RMK AO2,,81.88,0.0,12.0,2018-08-15 12:55:00,,9.0,8.97,1.0,,KTRK,5899,-120.13333,39.31667
703,102167.3,N,,,,0.0,101489.08,1202.0,,10.0,82177.57,KTRK 151315Z AUTO 00000KT 10SM SCT120 12/08 A3017 RMK AO2,,76.52,0.0,12.0,2018-08-15 13:15:00,,8.0,7.96,1.0,,KTRK,5899,-120.13333,39.31667
704,102235.02,N,,,,0.0,101630.29,1.0,,10.0,82232.04,KTRK 151335Z AUTO 00000KT 10SM CLR 11/08 A3019 RMK AO2,,81.75,0.0,11.0,2018-08-15 13:35:00,,8.0,7.97,1.0,,KTRK,5899,-120.13333,39.31667
705,102235.02,N,,,,0.0,101630.2,1802.0,,10.0,82232.04,KTRK 151345Z 00000KT 10SM SCT180 11/09 A3019,,87.48,0.0,11.0,2018-08-15 13:45:00,,9.0,8.98,1.0,,KTRK,5899,-120.13333,39.31667
706,102268.89,N,,,,0.0,101516.41,1802.0,,10.0,82259.29,KTRK 151445Z 00000KT 10SM SCT180 13/10 A3020,,82.01,0.0,13.0,2018-08-15 14:45:00,,10.0,9.97,1.0,,KTRK,5899,-120.13333,39.31667
707,102268.89,N,,,,0.0,101087.48,1806.0,,10.0,82259.29,KTRK 151645Z 00000KT 10SM FEW180 19/09 A3020,,52.3,0.0,19.0,2018-08-15 16:45:00,,9.0,8.95,1.0,,KTRK,5899,-120.13333,39.31667
708,102167.3,WNW,,,26.35,300.0,100444.76,953.0,,10.0,82177.57,KTRK 151945Z 30006KT 10SM BKN095 27/04 A3017,,22.86,3.09,27.0,2018-08-15 19:45:00,2895.6,4.0,4.04,1.0,,KTRK,5899,-120.13333,39.31667
709,102167.3,WSW,7.72,,26.78,240.0,100379.11,1002.0,,10.0,82177.57,KTRK 152045Z 24010G15KT 10SM SCT100 SCT120 28/04 A3017,1202.0,21.57,5.14,28.0,2018-08-15 20:45:00,,4.0,4.06,1.0,,KTRK,5899,-120.13333,39.31667
710,102133.43,SW,9.26,,27.44,220.0,100280.74,1002.0,,10.0,82150.33,KTRK 152145Z 22011G18KT 10SM SCT100 SCT120 29/03 A3016,1202.0,18.97,5.66,29.0,2018-08-15 21:45:00,,3.0,3.09,1.0,,KTRK,5899,-120.13333,39.31667
711,102099.57,WSW,9.77,,26.75,240.0,100312.64,1206.0,,10.0,82123.1,KTRK 152245Z 24013G19KT 10SM FEW120 28/03 A3015,,20.1,6.69,28.0,2018-08-15 22:45:00,,3.0,3.07,1.0,,KTRK,5899,-120.13333,39.31667
712,102167.3,WSW,,,,250.0,100511.01,1.0,,10.0,82177.57,KTRK 160115Z AUTO 25008KT 10SM CLR 26/02 A3017 RMK AO2,,21.04,4.12,26.0,2018-08-16 01:15:00,,2.0,2.03,1.0,,KTRK,5899,-120.13333,39.31667
713,102167.3,W,7.2,,,280.0,100577.62,1.0,,10.0,82177.57,KTRK 160135Z AUTO 28010G14KT 10SM CLR 25/02 A3017 RMK AO2 LTG DSNT  E AND SE,,22.33,5.14,25.0,2018-08-16 01:35:00,,2.0,2.02,1.0,,KTRK,5899,-120.13333,39.31667
714,102167.3,W,,,,270.0,100644.71,1.0,,10.0,82177.57,KTRK 160155Z AUTO 27007KT 10SM CLR 24/02 A3017 RMK AO2,,23.7,3.6,24.0,2018-08-16 01:55:00,,2.0,2.0,1.0,,KTRK,5899,-120.13333,39.31667
715,102235.02,WSW,,,,250.0,100779.04,1.0,,10.0,82232.04,KTRK 160215Z AUTO 25007KT 10SM CLR 23/02 A3019 RMK AO2,,25.17,3.6,23.0,2018-08-16 02:15:00,,2.0,1.98,1.0,,KTRK,5899,-120.13333,39.31667
716,102235.02,W,,,,280.0,100779.04,1.0,,10.0,82232.04,KTRK 160235Z AUTO 28007KT 10SM CLR 23/02 A3019 RMK AO2,,25.17,3.6,23.0,2018-08-16 02:35:00,,2.0,1.98,1.0,,KTRK,5899,-120.13333,39.31667
717,102235.02,W,,,,270.0,100847.16,1.0,,10.0,82232.04,KTRK 160255Z AUTO 27007KT 10SM CLR 22/02 A3019 RMK AO2,,26.74,3.6,22.0,2018-08-16 02:55:00,,2.0,1.97,1.0,,KTRK,5899,-120.13333,39.31667
718,102268.89,W,,,,270.0,100949.22,1.0,,10.0,82259.29,KTRK 160315Z AUTO 27005KT 10SM CLR 21/02 A3020 RMK AO2,,28.43,2.57,21.0,2018-08-16 03:15:00,,2.0,1.96,1.0,,KTRK,5899,-120.13333,39.31667
719,102268.89,N,,,,0.0,101228.84,1.0,,10.0,82259.29,KTRK 160335Z AUTO 00000KT 10SM CLR 17/03 A3020 RMK AO2,,39.16,0.0,17.0,2018-08-16 03:35:00,,3.0,2.92,1.0,,KTRK,5899,-120.13333,39.31667
720,102302.75,SSE,,,,150.0,101405.32,1.0,,10.0,82286.52,KTRK 160355Z AUTO 15003KT 10SM CLR 15/04 A3021 RMK AO2,,47.75,1.54,15.0,2018-08-16 03:55:00,,4.0,3.92,1.0,,KTRK,5899,-120.13333,39.31667
721,102336.62,SSE,,,,150.0,101295.89,1.0,,10.0,82313.77,KTRK 160415Z AUTO 15004KT 10SM CLR 17/03 A3022 RMK AO2,,39.16,2.06,17.0,2018-08-16 04:15:00,,3.0,2.92,1.0,,KTRK,5899,-120.13333,39.31667
722,102370.48,SSE,,,,160.0,101544.84,1.0,,10.0,82341.0,KTRK 160435Z AUTO 16003KT 10SM CLR 14/04 A3023 RMK AO2,,50.93,1.54,14.0,2018-08-16 04:35:00,,4.0,3.92,1.0,,KTRK,5899,-120.13333,39.31667
723,102370.48,N,,,,0.0,101617.77,1.0,,10.0,82341.0,KTRK 160455Z AUTO 00000KT 10SM CLR 13/04 A3023 RMK AO2,,54.35,0.0,13.0,2018-08-16 04:55:00,,4.0,3.92,1.0,,KTRK,5899,-120.13333,39.31667
724,102370.48,S,,,,190.0,101617.77,1.0,,10.0,82341.0,KTRK 160515Z AUTO 19003KT 10SM CLR 13/04 A3023 RMK AO2,,54.35,1.54,13.0,2018-08-16 05:15:00,,4.0,3.92,1.0,,KTRK,5899,-120.13333,39.31667
725,102404.34,N,,,,0.0,101724.89,1.0,,10.0,82368.24,KTRK 160535Z AUTO 00000KT 10SM CLR 12/04 A3024 RMK AO2,,58.03,0.0,12.0,2018-08-16 05:35:00,,4.0,3.92,1.0,,KTRK,5899,-120.13333,39.31667
726,102404.34,S,,,,190.0,101724.81,1.0,,10.0,82368.24,KTRK 160555Z AUTO 19003KT 10SM CLR 12/05 A3024 RMK AO2,,62.24,1.54,12.0,2018-08-16 05:55:00,,5.0,4.93,1.0,,KTRK,5899,-120.13333,39.31667
727,102438.21,SSE,,,,150.0,101832.69,1.0,,10.0,82395.48,KTRK 160615Z AUTO 15003KT 10SM CLR 11/03 A3025 RMK AO2,,57.78,1.54,11.0,2018-08-16 06:15:00,,3.0,2.92,1.0,,KTRK,5899,-120.13333,39.31667
728,102438.21,N,,,,0.0,101907.28,1.0,,10.0,82395.48,KTRK 160635Z AUTO 00000KT 10SM CLR 10/04 A3025 RMK AO2,,66.27,0.0,10.0,2018-08-16 06:35:00,,4.0,3.93,1.0,,KTRK,5899,-120.13333,39.31667
729,102438.21,N,,,,0.0,101832.62,1.0,,10.0,82395.48,KTRK 160655Z AUTO 00000KT 10SM CLR 11/04 A3025 RMK AO2,,62.0,0.0,11.0,2018-08-16 06:55:00,,4.0,3.93,1.0,,KTRK,5899,-120.13333,39.31667
730,102438.21,N,,,,0.0,101832.62,1.0,,10.0,82395.48,KTRK 160715Z AUTO 00000KT 10SM CLR 11/04 A3025 RMK AO2,,62.0,0.0,11.0,2018-08-16 07:15:00,,4.0,3.93,1.0,,KTRK,5899,-120.13333,39.31667
731,102438.21,N,,,,0.0,101832.69,1.0,,10.0,82395.48,KTRK 160735Z AUTO 00000KT 10SM CLR 11/03 A3025 RMK AO2,,57.78,0.0,11.0,2018-08-16 07:35:00,,3.0,2.92,1.0,,KTRK,5899,-120.13333,39.31667
732,102438.21,N,,,,0.0,102058.39,1.0,,10.0,82395.48,KTRK 160755Z AUTO 00000KT 10SM CLR 08/03 A3025 RMK AO2,,70.68,0.0,8.0,2018-08-16 07:55:00,,3.0,2.94,1.0,,KTRK,5899,-120.13333,39.31667
733,102438.21,N,,,,0.0,101982.58,1.0,,10.0,82395.48,KTRK 160815Z AUTO 00000KT 10SM CLR 09/03 A3025 RMK AO2,,66.05,0.0,9.0,2018-08-16 08:15:00,,3.0,2.93,1.0,,KTRK,5899,-120.13333,39.31667
734,102438.21,N,,,,0.0,101907.35,1.0,,10.0,82395.48,KTRK 160835Z AUTO 00000KT 10SM CLR 10/03 A3025 RMK AO2,,61.76,0.0,10.0,2018-08-16 08:35:00,,3.0,2.93,1.0,,KTRK,5899,-120.13333,39.31667
735,102472.07,N,,,,0.0,101940.96,1.0,,10.0,82422.71,KTRK 160855Z AUTO 00000KT 10SM CLR 10/04 A3026 RMK AO2,,66.27,0.0,10.0,2018-08-16 08:55:00,,4.0,3.93,1.0,,KTRK,5899,-120.13333,39.31667
736,102472.07,N,,,,0.0,102092.12,1.0,,10.0,82422.71,KTRK 160915Z AUTO 00000KT 10SM CLR 08/03 A3026 RMK AO2,,70.68,0.0,8.0,2018-08-16 09:15:00,,3.0,2.94,1.0,,KTRK,5899,-120.13333,39.31667
737,102472.07,N,,,,0.0,102092.12,1.0,,10.0,82422.71,KTRK 160935Z AUTO 00000KT 10SM CLR 08/03 A3026 RMK AO2,,70.68,0.0,8.0,2018-08-16 09:35:00,,3.0,2.94,1.0,,KTRK,5899,-120.13333,39.31667
738,102472.07,N,,,,0.0,102092.12,1.0,,10.0,82422.71,KTRK 160955Z AUTO 00000KT 10SM CLR 08/03 A3026 RMK AO2,,70.68,0.0,8.0,2018-08-16 09:55:00,,3.0,2.94,1.0,,KTRK,5899,-120.13333,39.31667
739,102472.07,N,,,,0.0,102168.61,1.0,,10.0,82422.71,KTRK 161015Z AUTO 00000KT 10SM CLR 07/02 A3026 RMK AO2,,70.47,0.0,7.0,2018-08-16 10:15:00,,2.0,1.94,1.0,,KTRK,5899,-120.13333,39.31667
740,102472.07,N,,,,0.0,102168.54,1.0,,10.0,82422.71,KTRK 161035Z AUTO 00000KT 10SM CLR 07/03 A3026 RMK AO2,,75.67,0.0,7.0,2018-08-16 10:35:00,,3.0,2.95,1.0,,KTRK,5899,-120.13333,39.31667
741,102472.07,N,,,,0.0,102092.12,1.0,,10.0,82422.71,KTRK 161055Z AUTO 00000KT 10SM CLR 08/03 A3026 RMK AO2,,70.68,0.0,8.0,2018-08-16 10:55:00,,3.0,2.94,1.0,,KTRK,5899,-120.13333,39.31667
742,102472.07,N,,,,0.0,102245.56,1.0,,10.0,82422.71,KTRK 161115Z AUTO 00000KT 10SM CLR 06/03 A3026 RMK AO2,,81.06,0.0,6.0,2018-08-16 11:15:00,,3.0,2.96,1.0,,KTRK,5899,-120.13333,39.31667
743,102472.07,N,,,,0.0,102168.54,1.0,,10.0,82422.71,KTRK 161135Z AUTO 00000KT 10SM CLR 07/03 A3026 RMK AO2,,75.67,0.0,7.0,2018-08-16 11:35:00,,3.0,2.95,1.0,,KTRK,5899,-120.13333,39.31667
744,102505.93,N,,,,0.0,102202.31,1.0,,10.0,82449.95,KTRK 161155Z AUTO 00000KT 10SM CLR 07/03 A3027 RMK AO2,,75.67,0.0,7.0,2018-08-16 11:55:00,,3.0,2.95,1.0,,KTRK,5899,-120.13333,39.31667
745,102505.93,N,,,,0.0,102279.35,1.0,,10.0,82449.95,KTRK 161215Z AUTO 00000KT 10SM CLR 06/03 A3027 RMK AO2,,81.06,0.0,6.0,2018-08-16 12:15:00,,3.0,2.96,1.0,,KTRK,5899,-120.13333,39.31667
746,102539.8,N,,,,0.0,102313.14,1.0,,10.0,82477.19,KTRK 161235Z AUTO 00000KT 10SM CLR 06/03 A3028 RMK AO2,,81.06,0.0,6.0,2018-08-16 12:35:00,,3.0,2.96,1.0,,KTRK,5899,-120.13333,39.31667
747,102539.8,N,,,,0.0,102313.14,1.0,,10.0,82477.19,KTRK 161255Z AUTO 00000KT 10SM CLR 06/03 A3028 RMK AO2,,81.06,0.0,6.0,2018-08-16 12:55:00,,3.0,2.96,1.0,,KTRK,5899,-120.13333,39.31667
748,102573.66,N,,,,0.0,102346.93,1.0,,10.0,82504.43,KTRK 161315Z AUTO 00000KT 10SM CLR 06/03 A3029 RMK AO2,,81.06,0.0,6.0,2018-08-16 13:15:00,,3.0,2.96,1.0,,KTRK,5899,-120.13333,39.31667
749,102573.66,N,,,,0.0,102346.93,1.0,,10.0,82504.43,KTRK 161335Z AUTO 00000KT 10SM CLR 06/03 A3029 RMK AO2,,81.06,0.0,6.0,2018-08-16 13:35:00,,3.0,2.96,1.0,,KTRK,5899,-120.13333,39.31667
750,102607.53,N,,,,0.0,102303.53,1.0,,10.0,82531.67,KTRK 161345Z 00000KT 10SM SKC 07/04 A3030,,81.2,0.0,7.0,2018-08-16 13:45:00,,4.0,3.96,1.0,,KTRK,5899,-120.13333,39.31667
751,102641.39,N,,,,0.0,102184.71,1.0,,10.0,82558.91,KTRK 161445Z 00000KT 10SM SKC 09/05 A3031,,76.02,0.0,9.0,2018-08-16 14:45:00,,5.0,4.95,1.0,,KTRK,5899,-120.13333,39.31667
752,102641.39,N,,,,0.0,101740.85,1.0,,10.0,82558.91,KTRK 161545Z 00000KT 10SM SKC 15/06 A3031,,54.89,0.0,15.0,2018-08-16 15:45:00,,6.0,5.93,1.0,,KTRK,5899,-120.13333,39.31667
753,102641.39,N,,,,0.0,101526.38,1.0,,10.0,82558.91,KTRK 161645Z 00000KT 10SM SKC 18/06 A3031,,45.36,0.0,18.0,2018-08-16 16:45:00,,6.0,5.94,1.0,,KTRK,5899,-120.13333,39.31667
754,102607.53,N,,,,0.0,101078.11,1.0,,10.0,82531.67,KTRK 161745Z 00000KT 10SM SKC 24/06 A3030,,31.39,0.0,24.0,2018-08-16 17:45:00,,6.0,5.99,1.0,,KTRK,5899,-120.13333,39.31667
755,102573.66,SW,,,26.31,220.0,100844.34,606.0,,10.0,82504.43,KTRK 161845Z 22006KT 10SM FEW060 27/03 A3029,,21.3,3.09,27.0,2018-08-16 18:45:00,,3.0,3.04,1.0,,KTRK,5899,-120.13333,39.31667
756,102607.53,SSW,,,26.35,210.0,100877.57,606.0,,10.0,82531.67,KTRK 161955Z 21008KT 140V200 10SM FEW060 27/04 A3030,,22.86,4.12,27.0,2018-08-16 19:55:00,,4.0,4.04,1.0,,KTRK,5899,-120.13333,39.31667
757,102573.66,SW,7.2,,26.75,220.0,100778.43,952.0,,10.0,82504.43,KTRK 162055Z 22010G14KT 180V280 10SM SCT095 28/03 A3029,,20.1,5.14,28.0,2018-08-16 20:55:00,,3.0,3.07,1.0,,KTRK,5899,-120.13333,39.31667
758,102573.66,W,10.8,,26.75,280.0,100778.43,1206.0,,10.0,82504.43,KTRK 162155Z 28015G21KT 10SM FEW120 28/03 A3029,,20.1,7.72,28.0,2018-08-16 21:55:00,,3.0,3.07,1.0,,KTRK,5899,-120.13333,39.31667
759,102573.66,W,,,26.75,260.0,100778.43,1206.0,,10.0,82504.43,KTRK 162245Z 26013G218KT 10SM FEW120 28/03 A3029,,20.1,6.69,28.0,2018-08-16 22:45:00,,3.0,3.07,1.0,,KTRK,5899,-120.13333,39.31667
760,102573.66,SW,8.75,,26.75,230.0,100778.43,1206.0,,10.0,82504.43,KTRK 162345Z 23009G17KT 10SM FEW120 28/03 A3029,,20.1,4.63,28.0,2018-08-16 23:45:00,,3.0,3.07,1.0,,KTRK,5899,-120.13333,39.31667
761,102573.66,WSW,,,26.31,240.0,100844.34,1.0,,10.0,82504.43,KTRK 170050Z 24008KT 10SM SKC 27/03 A3029,,21.3,4.12,27.0,2018-08-17 00:50:00,,3.0,3.04,1.0,,KTRK,5899,-120.13333,39.31667
762,102607.53,WSW,7.2,,,240.0,101010.94,1.0,,10.0,82531.67,KTRK 170115Z AUTO 24010G14KT 10SM CLR 25/03 A3030 RMK AO2,,23.97,5.14,25.0,2018-08-17 01:15:00,,3.0,3.01,1.0,,KTRK,5899,-120.13333,39.31667
763,102573.66,SW,,,,220.0,100977.6,1.0,,10.0,82504.43,KTRK 170135Z AUTO 22009KT 10SM CLR 25/03 A3029 RMK AO2,,23.97,4.63,25.0,2018-08-17 01:35:00,,3.0,3.01,1.0,,KTRK,5899,-120.13333,39.31667
764,102607.53,WSW,,,,240.0,101078.32,1.0,,10.0,82531.67,KTRK 170155Z AUTO 24006KT 10SM CLR 24/03 A3030 RMK AO2,,25.45,3.09,24.0,2018-08-17 01:55:00,,3.0,2.99,1.0,,KTRK,5899,-120.13333,39.31667
765,102607.53,W,7.2,,,270.0,101146.05,1.0,,10.0,82531.67,KTRK 170215Z AUTO 27010G14KT 10SM CLR 23/05 A3030 RMK AO2,,31.11,5.14,23.0,2018-08-17 02:15:00,,5.0,4.98,1.0,,KTRK,5899,-120.13333,39.31667
766,102641.39,W,,,,260.0,101247.82,1.0,,10.0,82558.91,KTRK 170235Z AUTO 26007KT 10SM CLR 22/05 A3031 RMK AO2,,33.05,3.6,22.0,2018-08-17 02:35:00,,5.0,4.97,1.0,,KTRK,5899,-120.13333,39.31667
767,102641.39,W,,,,270.0,101316.71,1.0,,10.0,82558.91,KTRK 170255Z AUTO 27006KT 10SM CLR 21/05 A3031 RMK AO2,,35.13,3.09,21.0,2018-08-17 02:55:00,,5.0,4.95,1.0,,KTRK,5899,-120.13333,39.31667
768,102675.25,WSW,,,,250.0,101419.55,1.0,,10.0,82586.14,KTRK 170315Z AUTO 25004KT 10SM CLR 20/05 A3032 RMK AO2,,37.36,2.06,20.0,2018-08-17 03:15:00,,5.0,4.95,1.0,,KTRK,5899,-120.13333,39.31667
769,102709.12,SE,,,,130.0,101664.45,1.0,,10.0,82613.38,KTRK 170335Z AUTO 13003KT 10SM CLR 17/05 A3033 RMK AO2,,45.07,1.54,17.0,2018-08-17 03:35:00,,5.0,4.93,1.0,,KTRK,5899,-120.13333,39.31667
770,102742.98,SE,,,,130.0,101697.97,1.0,,10.0,82640.62,KTRK 170355Z AUTO 13004KT 10SM CLR 17/05 A3034 RMK AO2,,45.07,2.06,17.0,2018-08-17 03:55:00,,5.0,4.93,1.0,,KTRK,5899,-120.13333,39.31667
771,102742.98,N,,,,0.0,101697.97,1.0,,10.0,82640.62,KTRK 170415Z AUTO 00000KT 10SM CLR 17/05 A3034 RMK AO2,,45.07,0.0,17.0,2018-08-17 04:15:00,,5.0,4.93,1.0,,KTRK,5899,-120.13333,39.31667
772,102776.85,N,,,,0.0,101875.2,1.0,,10.0,82667.86,KTRK 170435Z AUTO 00000KT 10SM CLR 15/05 A3035 RMK AO2,,51.21,0.0,15.0,2018-08-17 04:35:00,,5.0,4.93,1.0,,KTRK,5899,-120.13333,39.31667
773,102810.71,N,,,,0.0,101908.77,1.0,,10.0,82695.1,KTRK 170455Z AUTO 00000KT 10SM CLR 15/05 A3036 RMK AO2,,51.21,0.0,15.0,2018-08-17 04:55:00,,5.0,4.93,1.0,,KTRK,5899,-120.13333,39.31667
774,102844.57,SE,,,,140.0,102088.3,1.0,,10.0,82722.33,KTRK 170515Z AUTO 14004KT 10SM CLR 13/05 A3037 RMK AO2,,58.29,2.06,13.0,2018-08-17 05:15:00,,5.0,4.93,1.0,,KTRK,5899,-120.13333,39.31667
775,102844.57,SSE,,,,160.0,102162.12,1.0,,10.0,82722.33,KTRK 170535Z AUTO 16005KT 10SM CLR 12/05 A3037 RMK AO2,,62.24,2.57,12.0,2018-08-17 05:35:00,,5.0,4.93,1.0,,KTRK,5899,-120.13333,39.31667
776,102810.71,SE,,,,140.0,102128.49,1.0,,10.0,82695.1,KTRK 170555Z AUTO 14004KT 10SM CLR 12/05 A3036 RMK AO2,,62.24,2.06,12.0,2018-08-17 05:55:00,,5.0,4.93,1.0,,KTRK,5899,-120.13333,39.31667
777,102844.57,N,,,,0.0,102162.12,1.0,,10.0,82722.33,KTRK 170615Z AUTO 00000KT 10SM CLR 12/05 A3037 RMK AO2,,62.24,0.0,12.0,2018-08-17 06:15:00,,5.0,4.93,1.0,,KTRK,5899,-120.13333,39.31667
778,102844.57,N,,,,0.0,102088.3,1.0,,10.0,82722.33,KTRK 170635Z AUTO 00000KT 10SM CLR 13/05 A3037 RMK AO2,,58.29,0.0,13.0,2018-08-17 06:35:00,,5.0,4.93,1.0,,KTRK,5899,-120.13333,39.31667
779,102844.57,N,,,,0.0,102162.19,1.0,,10.0,82722.33,KTRK 170655Z AUTO 00000KT 10SM CLR 12/04 A3037 RMK AO2,,58.03,0.0,12.0,2018-08-17 06:55:00,,4.0,3.92,1.0,,KTRK,5899,-120.13333,39.31667
780,102844.57,N,,,,0.0,102236.5,1.0,,10.0,82722.33,KTRK 170715Z AUTO 00000KT 10SM CLR 11/05 A3037 RMK AO2 LTG DSNT  S,,66.49,0.0,11.0,2018-08-17 07:15:00,,5.0,4.94,1.0,,KTRK,5899,-120.13333,39.31667
781,102810.71,N,,,,0.0,102128.49,1.0,,10.0,82695.1,KTRK 170735Z AUTO 00000KT 10SM CLR 12/05 A3036 RMK AO2,,62.24,0.0,12.0,2018-08-17 07:35:00,,5.0,4.93,1.0,,KTRK,5899,-120.13333,39.31667
782,102810.71,N,,,,0.0,102429.44,1.0,,10.0,82695.1,KTRK 170755Z AUTO 00000KT 10SM CLR 08/04 A3036 RMK AO2,,75.84,0.0,8.0,2018-08-17 07:55:00,,4.0,3.95,1.0,,KTRK,5899,-120.13333,39.31667
783,102810.71,N,,,,0.0,102277.78,1.0,,10.0,82695.1,KTRK 170815Z AUTO 00000KT 10SM CLR 10/05 A3036 RMK AO2,,71.08,0.0,10.0,2018-08-17 08:15:00,,5.0,4.95,1.0,,KTRK,5899,-120.13333,39.31667
784,102810.71,N,,,,0.0,102353.28,1.0,,10.0,82695.1,KTRK 170835Z AUTO 00000KT 10SM CLR 09/05 A3036 RMK AO2,,76.02,0.0,9.0,2018-08-17 08:35:00,,5.0,4.95,1.0,,KTRK,5899,-120.13333,39.31667
785,102810.71,N,,,,0.0,102277.78,1.0,,10.0,82695.1,KTRK 170855Z AUTO 00000KT 10SM CLR 10/05 A3036 RMK AO2,,71.08,0.0,10.0,2018-08-17 08:55:00,,5.0,4.95,1.0,,KTRK,5899,-120.13333,39.31667
786,102810.71,N,,,,0.0,102353.28,1.0,,10.0,82695.1,KTRK 170915Z AUTO 00000KT 10SM CLR 09/05 A3036 RMK AO2,,76.02,0.0,9.0,2018-08-17 09:15:00,,5.0,4.95,1.0,,KTRK,5899,-120.13333,39.31667
787,102810.71,N,,,,0.0,102353.28,1.0,,10.0,82695.1,KTRK 170935Z AUTO 00000KT 10SM CLR 09/05 A3036 RMK AO2,,76.02,0.0,9.0,2018-08-17 09:35:00,,5.0,4.95,1.0,,KTRK,5899,-120.13333,39.31667
788,102776.85,N,,,,0.0,102395.63,1.0,,10.0,82667.86,KTRK 170955Z AUTO 00000KT 10SM CLR 08/05 A3035 RMK AO2,,81.34,0.0,8.0,2018-08-17 09:55:00,,5.0,4.96,1.0,,KTRK,5899,-120.13333,39.31667
789,102810.71,N,,,,0.0,102429.37,1.0,,10.0,82695.1,KTRK 171015Z AUTO 00000KT 10SM CLR 08/05 A3036 RMK AO2,,81.34,0.0,8.0,2018-08-17 10:15:00,,5.0,4.96,1.0,,KTRK,5899,-120.13333,39.31667
790,102810.71,N,,,,0.0,102429.44,1.0,,10.0,82695.1,KTRK 171035Z AUTO 00000KT 10SM CLR 08/04 A3036 RMK AO2,,75.84,0.0,8.0,2018-08-17 10:35:00,,4.0,3.95,1.0,,KTRK,5899,-120.13333,39.31667
791,102810.71,N,,,,0.0,102506.04,1.0,,10.0,82695.1,KTRK 171055Z AUTO 00000KT 10SM CLR 07/05 A3036 RMK AO2,,87.09,0.0,7.0,2018-08-17 10:55:00,,5.0,4.97,1.0,,KTRK,5899,-120.13333,39.31667
792,102810.71,N,,,,0.0,102506.12,1.0,,10.0,82695.1,KTRK 171115Z AUTO 00000KT 10SM CLR 07/04 A3036 RMK AO2,,81.2,0.0,7.0,2018-08-17 11:15:00,,4.0,3.96,1.0,,KTRK,5899,-120.13333,39.31667
793,102810.71,N,,,,0.0,102506.04,1.0,,10.0,82695.1,KTRK 171135Z AUTO 00000KT 10SM CLR 07/05 A3036 RMK AO2,,87.09,0.0,7.0,2018-08-17 11:35:00,,5.0,4.97,1.0,,KTRK,5899,-120.13333,39.31667
794,102844.57,N,,,,0.0,102617.24,1.0,,10.0,82722.33,KTRK 171155Z AUTO 00000KT 10SM CLR 06/03 A3037 RMK AO2,,81.06,0.0,6.0,2018-08-17 11:55:00,,3.0,2.96,1.0,,KTRK,5899,-120.13333,39.31667
795,102844.57,N,,,,0.0,102617.24,1.0,,10.0,82722.33,KTRK 171215Z AUTO 00000KT 10SM CLR 06/03 A3037 RMK AO2,,81.06,0.0,6.0,2018-08-17 12:15:00,,3.0,2.96,1.0,,KTRK,5899,-120.13333,39.31667
796,102844.57,N,,,,0.0,102695.14,1.0,,10.0,82722.33,KTRK 171235Z AUTO 00000KT 10SM CLR 05/03 A3037 RMK AO2,,86.89,0.0,5.0,2018-08-17 12:35:00,,3.0,2.97,1.0,,KTRK,5899,-120.13333,39.31667
797,102844.57,N,,,,0.0,102539.8,1.0,,10.0,82722.33,KTRK 171255Z AUTO 00000KT 10SM CLR 07/05 A3037 RMK AO2,,87.09,0.0,7.0,2018-08-17 12:55:00,,5.0,4.97,1.0,,KTRK,5899,-120.13333,39.31667
798,102844.57,N,,,,0.0,102617.17,1.0,,10.0,82722.33,KTRK 171315Z AUTO 00000KT 10SM CLR 06/04 A3037 RMK AO2,,86.99,0.0,6.0,2018-08-17 13:15:00,,4.0,3.97,1.0,,KTRK,5899,-120.13333,39.31667
799,102878.44,N,,,,0.0,102728.97,1.0,,10.0,82749.58,KTRK 171335Z AUTO 00000KT 10SM CLR 05/03 A3038 RMK AO2,,86.89,0.0,5.0,2018-08-17 13:35:00,,3.0,2.97,1.0,,KTRK,5899,-120.13333,39.31667
800,102878.44,N,,,,0.0,102650.97,1.0,,10.0,82749.58,KTRK 171345Z 00000KT 10SM SKC 06/04 A3038,,86.99,0.0,6.0,2018-08-17 13:45:00,,4.0,3.97,1.0,,KTRK,5899,-120.13333,39.31667
801,102878.44,N,,,,0.0,102270.1,1.0,,10.0,82749.58,KTRK 171445Z 00000KT 10SM SKC 11/06 A3038,,71.27,0.0,11.0,2018-08-17 14:45:00,,6.0,5.95,1.0,,KTRK,5899,-120.13333,39.31667
802,102878.44,N,,,,0.0,101975.83,1.0,,10.0,82749.58,KTRK 171545Z 00000KT 10SM SKC 15/06 A3038,,54.89,0.0,15.0,2018-08-17 15:45:00,,6.0,5.93,1.0,,KTRK,5899,-120.13333,39.31667
803,102878.44,N,,,,0.0,101690.18,1.0,,10.0,82749.58,KTRK 171645Z 00000KT 10SM SKC 19/07 A3038,,45.65,0.0,19.0,2018-08-17 16:45:00,,7.0,6.95,1.0,,KTRK,5899,-120.13333,39.31667
804,102844.57,N,,,,0.0,101379.47,1.0,,10.0,82722.33,KTRK 171745Z 00000KT 10SM SKC 23/08 A3037,,38.24,0.0,23.0,2018-08-17 17:45:00,,8.0,7.98,1.0,,KTRK,5899,-120.13333,39.31667
805,102810.71,SSW,,,26.35,200.0,101077.33,1.0,,10.0,82695.1,KTRK 171845Z 20005KT 10SM SKC 27/04 A3036,,22.86,2.57,27.0,2018-08-17 18:45:00,,4.0,4.04,1.0,,KTRK,5899,-120.13333,39.31667
806,102776.85,SW,10.29,,26.75,230.0,100978.06,1.0,,10.0,82667.86,KTRK 171945Z 23011G20KT 10SM SKC 28/03 A3035,,20.1,5.66,28.0,2018-08-17 19:45:00,,3.0,3.07,1.0,,KTRK,5899,-120.13333,39.31667
807,102776.85,WSW,10.8,,26.69,240.0,100978.18,706.0,,10.0,82667.86,KTRK 172045Z 24014G21KT 170V240 10SM FEW070 28/01 A3035,,17.42,7.2,28.0,2018-08-17 20:45:00,,1.0,1.08,1.0,,KTRK,5899,-120.13333,39.31667
808,102742.98,SW,8.75,,26.75,230.0,100944.79,1.0,,10.0,82640.62,KTRK 172150Z 23011G17KT 10SM SKC 28/03 A3034,,20.1,5.66,28.0,2018-08-17 21:50:00,,3.0,3.07,1.0,,KTRK,5899,-120.13333,39.31667
809,102675.25,W,9.26,,26.78,270.0,100878.17,1.0,,10.0,82586.14,KTRK 172245Z 27015G18KT 10SM SKC 28/04 A3032,,21.57,7.72,28.0,2018-08-17 22:45:00,,4.0,4.06,1.0,,KTRK,5899,-120.13333,39.31667
810,102675.25,W,9.26,,26.35,280.0,100944.15,1.0,,10.0,82586.14,KTRK 172345Z 28014G18KT 10SM SKC 27/04 A3032,,22.86,7.2,27.0,2018-08-17 23:45:00,,4.0,4.04,1.0,,KTRK,5899,-120.13333,39.31667
811,102675.25,W,7.72,,26.31,280.0,100944.22,1.0,,10.0,82586.14,KTRK 180050Z 28012G15KT 10SM SKC 27/03 A3032,,21.3,6.17,27.0,2018-08-18 00:50:00,,3.0,3.04,1.0,,KTRK,5899,-120.13333,39.31667
812,102675.25,W,7.2,,,280.0,101010.67,1.0,,10.0,82586.14,KTRK 180115Z AUTO 28009G14KT 10SM CLR 26/03 A3032 RMK AO2,,22.59,4.63,26.0,2018-08-18 01:15:00,,3.0,3.02,1.0,,KTRK,5899,-120.13333,39.31667
813,102675.25,W,7.72,,,270.0,101077.61,1.0,,10.0,82586.14,KTRK 180135Z AUTO 27012G15KT 10SM CLR 25/03 A3032 RMK AO2,,23.97,6.17,25.0,2018-08-18 01:35:00,,3.0,3.01,1.0,,KTRK,5899,-120.13333,39.31667
814,102709.12,W,7.2,,,270.0,101110.95,1.0,,10.0,82613.38,KTRK 180155Z AUTO 27010G14KT 10SM CLR 25/03 A3033 RMK AO2,,23.97,5.14,25.0,2018-08-18 01:55:00,,3.0,3.01,1.0,,KTRK,5899,-120.13333,39.31667
815,102709.12,W,,,,260.0,101246.26,1.0,,10.0,82613.38,KTRK 180215Z AUTO 26008KT 10SM CLR 23/04 A3033 RMK AO2,,29.0,4.12,23.0,2018-08-18 02:15:00,,4.0,3.98,1.0,,KTRK,5899,-120.13333,39.31667
816,102742.98,W,,,,260.0,101348.03,1.0,,10.0,82640.62,KTRK 180235Z AUTO 26006KT 10SM CLR 22/05 A3034 RMK AO2,,33.05,3.09,22.0,2018-08-18 02:35:00,,5.0,4.97,1.0,,KTRK,5899,-120.13333,39.31667
817,102742.98,W,,,,260.0,101417.06,1.0,,10.0,82640.62,KTRK 180255Z AUTO 26005KT 10SM CLR 21/04 A3034 RMK AO2,,32.76,2.57,21.0,2018-08-18 02:55:00,,4.0,3.96,1.0,,KTRK,5899,-120.13333,39.31667
818,102742.98,W,,,,260.0,101486.46,1.0,,10.0,82640.62,KTRK 180315Z AUTO 26007KT 10SM CLR 20/05 A3034 RMK AO2,,37.36,3.6,20.0,2018-08-18 03:15:00,,5.0,4.95,1.0,,KTRK,5899,-120.13333,39.31667
819,102776.85,W,,,,260.0,101519.91,1.0,,10.0,82667.86,KTRK 180335Z AUTO 26007KT 10SM CLR 20/05 A3035 RMK AO2,,37.36,3.6,20.0,2018-08-18 03:35:00,,5.0,4.95,1.0,,KTRK,5899,-120.13333,39.31667
820,102810.71,SE,,,,130.0,101765.01,1.0,,10.0,82695.1,KTRK 180355Z AUTO 13003KT 10SM CLR 17/05 A3036 RMK AO2,,45.07,1.54,17.0,2018-08-18 03:55:00,,5.0,4.93,1.0,,KTRK,5899,-120.13333,39.31667
821,102844.57,SSE,,,,150.0,101870.15,1.0,,10.0,82722.33,KTRK 180415Z AUTO 15005KT 10SM CLR 16/05 A3037 RMK AO2,,48.03,2.57,16.0,2018-08-18 04:15:00,,5.0,4.93,1.0,,KTRK,5899,-120.13333,39.31667
822,102878.44,SE,,,,130.0,102048.64,1.0,,10.0,82749.58,KTRK 180435Z AUTO 13005KT 10SM CLR 14/05 A3038 RMK AO2,,54.62,2.57,14.0,2018-08-18 04:35:00,,5.0,4.93,1.0,,KTRK,5899,-120.13333,39.31667
823,102878.44,N,,,,0.0,101975.9,1.0,,10.0,82749.58,KTRK 180455Z AUTO 00000KT 10SM CLR 15/05 A3038 RMK AO2,,51.21,0.0,15.0,2018-08-18 04:55:00,,5.0,4.93,1.0,,KTRK,5899,-120.13333,39.31667
824,102878.44,SE,,,,140.0,102121.93,1.0,,10.0,82749.58,KTRK 180515Z AUTO 14005KT 10SM CLR 13/05 A3038 RMK AO2,,58.29,2.57,13.0,2018-08-18 05:15:00,,5.0,4.93,1.0,,KTRK,5899,-120.13333,39.31667
825,102878.44,SE,,,,130.0,102121.93,1.0,,10.0,82749.58,KTRK 180535Z AUTO 13003KT 10SM CLR 13/05 A3038 RMK AO2,,58.29,1.54,13.0,2018-08-18 05:35:00,,5.0,4.93,1.0,,KTRK,5899,-120.13333,39.31667
826,102912.3,S,,,,180.0,102229.4,1.0,,10.0,82776.81,KTRK 180555Z AUTO 18003KT 10SM CLR 12/05 A3039 RMK AO2,,62.24,1.54,12.0,2018-08-18 05:55:00,,5.0,4.93,1.0,,KTRK,5899,-120.13333,39.31667
827,102878.44,N,,,,0.0,102195.69,1.0,,10.0,82749.58,KTRK 180615Z AUTO 00000KT 10SM CLR 12/06 A3038 RMK AO2 LTG DSNT  SE,,66.71,0.0,12.0,2018-08-18 06:15:00,,6.0,5.94,1.0,,KTRK,5899,-120.13333,39.31667
828,102878.44,N,,,,0.0,102121.85,1.0,,10.0,82749.58,KTRK 180635Z AUTO 00000KT 10SM CLR 13/06 A3038 RMK AO2,,62.48,0.0,13.0,2018-08-18 06:35:00,,6.0,5.94,1.0,,KTRK,5899,-120.13333,39.31667
829,102912.3,N,,,,0.0,102229.4,1.0,,10.0,82776.81,KTRK 180655Z AUTO 00000KT 10SM CLR 12/05 A3039 RMK AO2,,62.24,0.0,12.0,2018-08-18 06:55:00,,5.0,4.93,1.0,,KTRK,5899,-120.13333,39.31667
830,102912.3,N,,,,0.0,102378.84,1.0,,10.0,82776.81,KTRK 180715Z AUTO 00000KT 10SM CLR 10/05 A3039 RMK AO2,,71.08,0.0,10.0,2018-08-18 07:15:00,,5.0,4.95,1.0,,KTRK,5899,-120.13333,39.31667
831,102912.3,E,,,,90.0,102530.58,1.0,,10.0,82776.81,KTRK 180735Z AUTO 09003KT 10SM CLR 08/05 A3039 RMK AO2,,81.34,1.54,8.0,2018-08-18 07:35:00,,5.0,4.96,1.0,,KTRK,5899,-120.13333,39.31667
832,102912.3,S,,,,180.0,102530.65,1.0,,10.0,82776.81,KTRK 180755Z AUTO 18003KT 10SM CLR 08/04 A3039 RMK AO2,,75.84,1.54,8.0,2018-08-18 07:55:00,,4.0,3.95,1.0,,KTRK,5899,-120.13333,39.31667
833,102912.3,N,,,,0.0,102530.58,1.0,,10.0,82776.81,KTRK 180815Z AUTO 00000KT 10SM CLR 08/05 A3039 RMK AO2,,81.34,0.0,8.0,2018-08-18 08:15:00,,5.0,4.96,1.0,,KTRK,5899,-120.13333,39.31667
834,102912.3,N,,,,0.0,102378.84,1.0,,10.0,82776.81,KTRK 180835Z AUTO 00000KT 10SM CLR 10/05 A3039 RMK AO2,,71.08,0.0,10.0,2018-08-18 08:35:00,,5.0,4.95,1.0,,KTRK,5899,-120.13333,39.31667
835,102912.3,N,,,,0.0,102530.65,1.0,,10.0,82776.81,KTRK 180855Z AUTO 00000KT 10SM CLR 08/04 A3039 RMK AO2,,75.84,0.0,8.0,2018-08-18 08:55:00,,4.0,3.95,1.0,,KTRK,5899,-120.13333,39.31667
836,102912.3,N,,,,0.0,102607.33,1.0,,10.0,82776.81,KTRK 180915Z AUTO 00000KT 10SM CLR 07/05 A3039 RMK AO2,,87.09,0.0,7.0,2018-08-18 09:15:00,,5.0,4.97,1.0,,KTRK,5899,-120.13333,39.31667
837,102912.3,N,,,,0.0,102530.5,1.0,,10.0,82776.81,KTRK 180935Z AUTO 00000KT 10SM CLR 08/06 A3039 RMK AO2,,87.19,0.0,8.0,2018-08-18 09:35:00,,6.0,5.97,1.0,,KTRK,5899,-120.13333,39.31667
838,102912.3,N,,,,0.0,102607.33,1.0,,10.0,82776.81,KTRK 180955Z AUTO 00000KT 10SM CLR 07/05 A3039 RMK AO2,,87.09,0.0,7.0,2018-08-18 09:55:00,,5.0,4.97,1.0,,KTRK,5899,-120.13333,39.31667
839,102912.3,N,,,,0.0,102762.78,1.0,,10.0,82776.81,KTRK 181015Z AUTO 00000KT 10SM CLR 05/03 A3039 RMK AO2,,86.89,0.0,5.0,2018-08-18 10:15:00,,3.0,2.97,1.0,,KTRK,5899,-120.13333,39.31667
840,102912.3,N,,,,0.0,102684.68,1.0,,10.0,82776.81,KTRK 181035Z AUTO 00000KT 10SM CLR 06/05 A3039 RMK AO2,,93.3,0.0,6.0,2018-08-18 10:35:00,,5.0,4.99,1.0,,KTRK,5899,-120.13333,39.31667
841,102912.3,N,,,,0.0,102684.68,1.0,,10.0,82776.81,KTRK 181055Z AUTO 00000KT 10SM CLR 06/05 A3039 RMK AO2,,93.3,0.0,6.0,2018-08-18 10:55:00,,5.0,4.99,1.0,,KTRK,5899,-120.13333,39.31667
842,102912.3,N,,,,0.0,102762.78,1.0,,10.0,82776.81,KTRK 181115Z AUTO 00000KT 10SM CLR 05/03 A3039 RMK AO2,,86.89,0.0,5.0,2018-08-18 11:15:00,,3.0,2.97,1.0,,KTRK,5899,-120.13333,39.31667
843,102912.3,N,,,,0.0,102684.82,1.0,,10.0,82776.81,KTRK 181135Z AUTO 00000KT 10SM CLR 06/03 A3039 RMK AO2,,81.06,0.0,6.0,2018-08-18 11:35:00,,3.0,2.96,1.0,,KTRK,5899,-120.13333,39.31667
844,102912.3,N,,,,0.0,102920.52,1.0,,7.0,82776.81,KTRK 181155Z AUTO 00000KT 7SM CLR 03/03 A3039 RMK AO2,,100.0,0.0,3.0,2018-08-18 11:55:00,,3.0,3.0,1.0,,KTRK,5899,-120.13333,39.31667
845,102912.3,N,,,,0.0,102920.52,55.0,,0.75,82776.81,KTRK 181215Z AUTO 00000KT 3/4SM BR VV005 03/03 A3039 RMK AO2,,100.0,0.0,3.0,2018-08-18 12:15:00,152.4,3.0,3.0,1.0,31.0,KTRK,5899,-120.13333,39.31667
846,102912.3,N,,,,0.0,102762.63,1.0,,10.0,82776.81,KTRK 181235Z AUTO 00000KT 10SM CLR 05/05 A3039 RMK AO2,,100.0,0.0,5.0,2018-08-18 12:35:00,,5.0,5.0,1.0,,KTRK,5899,-120.13333,39.31667
847,102912.3,N,,,,0.0,102762.7,1.0,,7.0,82776.81,KTRK 181255Z AUTO 00000KT 7SM CLR 05/04 A3039 RMK AO2,,93.24,0.0,5.0,2018-08-18 12:55:00,,4.0,3.99,1.0,,KTRK,5899,-120.13333,39.31667
848,102912.3,N,,,,0.0,102920.52,1.0,,10.0,82776.81,KTRK 181315Z AUTO 00000KT 10SM CLR 03/03 A3039 RMK AO2,,100.0,0.0,3.0,2018-08-18 13:15:00,,3.0,3.0,1.0,,KTRK,5899,-120.13333,39.31667
849,102946.16,N,,,,0.0,102954.39,55.0,,0.75,82804.05,KTRK 181335Z AUTO 00000KT 3/4SM BR VV005 03/03 A3040 RMK AO2,,100.0,0.0,3.0,2018-08-18 13:35:00,152.4,3.0,3.0,1.0,31.0,KTRK,5899,-120.13333,39.31667
850,102946.16,N,,,,0.0,102875.11,1.0,,10.0,82804.05,KTRK 181350Z 00000KT 10SM SKC 04/04 A3040,,100.0,0.0,4.0,2018-08-18 13:50:00,,4.0,4.0,1.0,,KTRK,5899,-120.13333,39.31667
851,102980.03,N,,,,0.0,102598.13,1.0,,10.0,82831.29,KTRK 181450Z 00000KT 10SM SKC 08/04 A3041,,75.84,0.0,8.0,2018-08-18 14:50:00,,4.0,3.95,1.0,,KTRK,5899,-120.13333,39.31667
852,102946.16,N,,,,0.0,102263.12,1.0,,10.0,82804.05,KTRK 181545Z 00000KT 10SM SKC 12/04 A3040,,58.03,0.0,12.0,2018-08-18 15:45:00,,4.0,3.92,1.0,,KTRK,5899,-120.13333,39.31667
853,102878.44,N,,,,0.0,101550.63,1.0,,10.0,82749.58,KTRK 181745Z 00000KT 10SM SKC 21/06 A3038,,37.66,0.0,21.0,2018-08-18 17:45:00,,6.0,5.96,1.0,,KTRK,5899,-120.13333,39.31667
854,102844.57,N,,,,0.0,101177.47,1.0,,10.0,82722.33,KTRK 181845Z 00000KT 10SM SKC 26/M01 A3037,,16.94,0.0,26.0,2018-08-18 18:45:00,,-1.0,-0.95,1.0,,KTRK,5899,-120.13333,39.31667
855,102844.57,W,,,26.14,280.0,101110.96,1.0,,10.0,82722.33,KTRK 181945Z 28003KT 10SM SKC 27/M02 A3037,,14.84,1.54,27.0,2018-08-18 19:45:00,,-2.0,-1.92,1.0,,KTRK,5899,-120.13333,39.31667
856,102742.98,W,9.77,,27.04,260.0,100879.71,1.0,,10.0,82640.62,KTRK 182055Z 26014G19KT 10SM SKC 29/M07 A3034,,9.06,7.2,29.0,2018-08-18 20:55:00,,-7.0,-6.81,1.0,,KTRK,5899,-120.13333,39.31667
857,102709.12,W,7.72,,27.86,260.0,100781.32,1.0,,10.0,82613.38,KTRK 182150Z 26007G15KT 10SM SKC 30/M05 A3033,,9.96,3.6,30.0,2018-08-18 21:50:00,,-5.0,-4.82,1.0,,KTRK,5899,-120.13333,39.31667
858,102641.39,SSW,8.23,,28.0,210.0,100714.79,1.0,,10.0,82558.91,KTRK 182250Z 21008G16KT 10SM SKC 30/M03 A3031,,11.58,4.12,30.0,2018-08-18 22:50:00,,-3.0,-2.84,1.0,,KTRK,5899,-120.13333,39.31667
859,102607.53,SW,,,27.36,230.0,100746.51,1.0,,10.0,82531.67,KTRK 182355Z 23008KT 10SM SKC 29/M02 A3030,,13.21,4.12,29.0,2018-08-18 23:55:00,,-2.0,-1.87,1.0,,KTRK,5899,-120.13333,39.31667
860,102641.39,S,8.23,,26.67,170.0,100845.15,1.0,,10.0,82558.91,KTRK 190045Z 17011G16KT 10SM SKC 28/00 A3031,,16.2,5.66,28.0,2018-08-19 00:45:00,,0.0,0.08,1.0,,KTRK,5899,-120.13333,39.31667
861,102641.39,WSW,7.2,,26.2,250.0,100911.11,1.0,,10.0,82558.91,KTRK 190115Z AUTO 25009G14KT 10SM CLR 27/00 A3031 RMK AO2,,17.18,4.63,27.0,2018-08-19 01:15:00,,0.0,0.06,1.0,,KTRK,5899,-120.13333,39.31667
862,102641.39,W,,,,270.0,100977.49,1.0,,10.0,82558.91,KTRK 190135Z AUTO 27010KT 10SM CLR 26/01 A3031 RMK AO2,,19.59,5.14,26.0,2018-08-19 01:35:00,,1.0,1.04,1.0,,KTRK,5899,-120.13333,39.31667
863,102641.39,W,,,,270.0,100977.49,1.0,,10.0,82558.91,KTRK 190155Z AUTO 27009KT 10SM CLR 26/01 A3031 RMK AO2,,19.59,4.63,26.0,2018-08-19 01:55:00,,1.0,1.04,1.0,,KTRK,5899,-120.13333,39.31667
864,102607.53,W,,,,270.0,101011.06,1.0,,10.0,82531.67,KTRK 190215Z AUTO 27008KT 10SM CLR 25/01 A3030 RMK AO2,,20.78,4.12,25.0,2018-08-19 02:15:00,,1.0,1.02,1.0,,KTRK,5899,-120.13333,39.31667
865,102607.53,W,,,,270.0,101078.44,1.0,,10.0,82531.67,KTRK 190235Z AUTO 27008KT 10SM CLR 24/01 A3030 RMK AO2,,22.06,4.12,24.0,2018-08-19 02:35:00,,1.0,1.0,1.0,,KTRK,5899,-120.13333,39.31667
866,102641.39,W,,,,260.0,101248.08,1.0,,10.0,82558.91,KTRK 190255Z AUTO 26007KT 10SM CLR 22/01 A3031 RMK AO2,,24.89,3.6,22.0,2018-08-19 02:55:00,,1.0,0.97,1.0,,KTRK,5899,-120.13333,39.31667
867,102641.39,SSE,,,,160.0,101456.29,1.0,,10.0,82558.91,KTRK 190315Z AUTO 16003KT 10SM CLR 19/01 A3031 RMK AO2,,29.94,1.54,19.0,2018-08-19 03:15:00,,1.0,0.93,1.0,,KTRK,5899,-120.13333,39.31667
868,102675.25,SE,,,,140.0,101631.13,1.0,,10.0,82586.14,KTRK 190335Z AUTO 14005KT 10SM CLR 17/02 A3032 RMK AO2,,36.47,2.57,17.0,2018-08-19 03:35:00,,2.0,1.92,1.0,,KTRK,5899,-120.13333,39.31667
869,102675.25,SSE,,,,150.0,101702.65,1.0,,10.0,82586.14,KTRK 190355Z AUTO 15003KT 10SM CLR 16/02 A3032 RMK AO2,,38.87,1.54,16.0,2018-08-19 03:55:00,,2.0,1.92,1.0,,KTRK,5899,-120.13333,39.31667
870,102675.25,N,,,,0.0,101774.76,1.0,,10.0,82586.14,KTRK 190415Z AUTO 00000KT 10SM CLR 15/01 A3032 RMK AO2,,38.57,0.0,15.0,2018-08-19 04:15:00,,1.0,0.91,1.0,,KTRK,5899,-120.13333,39.31667
871,102709.12,SE,,,,140.0,101954.11,1.0,,10.0,82613.38,KTRK 190435Z AUTO 14006KT 10SM CLR 13/01 A3033 RMK AO2,,43.9,3.09,13.0,2018-08-19 04:35:00,,1.0,0.9,1.0,,KTRK,5899,-120.13333,39.31667
872,102675.25,N,,,,0.0,101920.43,1.0,,10.0,82586.14,KTRK 190455Z AUTO 00000KT 10SM CLR 13/02 A3032 RMK AO2,,47.17,0.0,13.0,2018-08-19 04:55:00,,2.0,1.91,1.0,,KTRK,5899,-120.13333,39.31667
873,102675.25,N,,,,0.0,101920.43,1.0,,10.0,82586.14,KTRK 190515Z AUTO 00000KT 10SM CLR 13/02 A3032 RMK AO2,,47.17,0.0,13.0,2018-08-19 05:15:00,,2.0,1.91,1.0,,KTRK,5899,-120.13333,39.31667
874,102675.25,N,,,,0.0,101847.29,1.0,,10.0,82586.14,KTRK 190535Z AUTO 00000KT 10SM CLR 14/02 A3032 RMK AO2,,44.2,0.0,14.0,2018-08-19 05:35:00,,2.0,1.91,1.0,,KTRK,5899,-120.13333,39.31667
875,102709.12,N,,,,0.0,101953.99,1.0,,10.0,82613.38,KTRK 190555Z AUTO 00000KT 10SM CLR 13/03 A3033 RMK AO2,,50.65,0.0,13.0,2018-08-19 05:55:00,,3.0,2.92,1.0,,KTRK,5899,-120.13333,39.31667
876,102709.12,N,,,,0.0,102027.78,1.0,,10.0,82613.38,KTRK 190615Z AUTO 00000KT 10SM CLR 12/02 A3033 RMK AO2,,50.37,0.0,12.0,2018-08-19 06:15:00,,2.0,1.91,1.0,,KTRK,5899,-120.13333,39.31667
877,102709.12,N,,,,0.0,102102.0,1.0,,10.0,82613.38,KTRK 190635Z AUTO 00000KT 10SM CLR 11/03 A3033 RMK AO2,,57.78,0.0,11.0,2018-08-19 06:35:00,,3.0,2.92,1.0,,KTRK,5899,-120.13333,39.31667
878,102709.12,N,,,,0.0,102102.0,1.0,,10.0,82613.38,KTRK 190655Z AUTO 00000KT 10SM CLR 11/03 A3033 RMK AO2,,57.78,0.0,11.0,2018-08-19 06:55:00,,3.0,2.92,1.0,,KTRK,5899,-120.13333,39.31667
879,102709.12,N,,,,0.0,102102.06,1.0,,10.0,82613.38,KTRK 190715Z AUTO 00000KT 10SM CLR 11/02 A3033 RMK AO2,,53.81,0.0,11.0,2018-08-19 07:15:00,,2.0,1.91,1.0,,KTRK,5899,-120.13333,39.31667
880,102709.12,N,,,,0.0,102252.35,1.0,,10.0,82613.38,KTRK 190735Z AUTO 00000KT 10SM CLR 09/02 A3033 RMK AO2,,61.51,0.0,9.0,2018-08-19 07:35:00,,2.0,1.92,1.0,,KTRK,5899,-120.13333,39.31667
881,102709.12,N,,,,0.0,102328.36,1.0,,10.0,82613.38,KTRK 190755Z AUTO 00000KT 10SM CLR 08/02 A3033 RMK AO2,,65.82,0.0,8.0,2018-08-19 07:55:00,,2.0,1.93,1.0,,KTRK,5899,-120.13333,39.31667
882,102675.25,N,,,,0.0,102218.63,1.0,,10.0,82586.14,KTRK 190815Z AUTO 00000KT 10SM CLR 09/02 A3032 RMK AO2,,61.51,0.0,9.0,2018-08-19 08:15:00,,2.0,1.92,1.0,,KTRK,5899,-120.13333,39.31667
883,102675.25,N,,,,0.0,102294.62,1.0,,10.0,82586.14,KTRK 190835Z AUTO 00000KT 10SM CLR 08/02 A3032 RMK AO2,,65.82,0.0,8.0,2018-08-19 08:35:00,,2.0,1.93,1.0,,KTRK,5899,-120.13333,39.31667
884,102675.25,N,,,,0.0,102218.56,1.0,,10.0,82586.14,KTRK 190855Z AUTO 00000KT 10SM CLR 09/03 A3032 RMK AO2,,66.05,0.0,9.0,2018-08-19 08:55:00,,3.0,2.93,1.0,,KTRK,5899,-120.13333,39.31667
885,102675.25,N,,,,0.0,102294.55,1.0,,10.0,82586.14,KTRK 190915Z AUTO 00000KT 10SM CLR 08/03 A3032 RMK AO2,,70.68,0.0,8.0,2018-08-19 09:15:00,,3.0,2.94,1.0,,KTRK,5899,-120.13333,39.31667
886,102641.39,N,,,,0.0,102260.82,1.0,,10.0,82558.91,KTRK 190935Z AUTO 00000KT 10SM CLR 08/03 A3031 RMK AO2,,70.68,0.0,8.0,2018-08-19 09:35:00,,3.0,2.94,1.0,,KTRK,5899,-120.13333,39.31667
887,102641.39,N,,,,0.0,102337.5,1.0,,10.0,82558.91,KTRK 190955Z AUTO 00000KT 10SM CLR 07/01 A3031 RMK AO2,,65.6,0.0,7.0,2018-08-19 09:55:00,,1.0,0.93,1.0,,KTRK,5899,-120.13333,39.31667
888,102641.39,N,,,,0.0,102337.5,1.0,,10.0,82558.91,KTRK 191015Z AUTO 00000KT 10SM CLR 07/01 A3031 RMK AO2,,65.6,0.0,7.0,2018-08-19 10:15:00,,1.0,0.93,1.0,,KTRK,5899,-120.13333,39.31667
889,102641.39,N,,,,0.0,102414.58,1.0,,10.0,82558.91,KTRK 191035Z AUTO 00000KT 10SM CLR 06/02 A3031 RMK AO2,,75.5,0.0,6.0,2018-08-19 10:35:00,,2.0,1.95,1.0,,KTRK,5899,-120.13333,39.31667
890,102641.39,N,,,,0.0,102414.58,1.0,,10.0,82558.91,KTRK 191055Z AUTO 00000KT 10SM CLR 06/02 A3031 RMK AO2,,75.5,0.0,6.0,2018-08-19 10:55:00,,2.0,1.95,1.0,,KTRK,5899,-120.13333,39.31667
891,102641.39,N,,,,0.0,102414.58,1.0,,10.0,82558.91,KTRK 191115Z AUTO 00000KT 10SM CLR 06/02 A3031 RMK AO2,,75.5,0.0,6.0,2018-08-19 11:15:00,,2.0,1.95,1.0,,KTRK,5899,-120.13333,39.31667
892,102641.39,N,,,,0.0,102414.58,1.0,,10.0,82558.91,KTRK 191135Z AUTO 00000KT 10SM CLR 06/02 A3031 RMK AO2,,75.5,0.0,6.0,2018-08-19 11:35:00,,2.0,1.95,1.0,,KTRK,5899,-120.13333,39.31667
893,102641.39,N,,,,0.0,102414.58,1.0,,10.0,82558.91,KTRK 191155Z AUTO 00000KT 10SM CLR 06/02 A3031 RMK AO2,,75.5,0.0,6.0,2018-08-19 11:55:00,,2.0,1.95,1.0,,KTRK,5899,-120.13333,39.31667
894,102641.39,N,,,,0.0,102414.58,1.0,,10.0,82558.91,KTRK 191215Z AUTO 00000KT 10SM CLR 06/02 A3031 RMK AO2,,75.5,0.0,6.0,2018-08-19 12:15:00,,2.0,1.95,1.0,,KTRK,5899,-120.13333,39.31667
895,102641.39,N,,,,0.0,102492.4,1.0,,10.0,82558.91,KTRK 191235Z AUTO 00000KT 10SM CLR 05/01 A3031 RMK AO2,,75.32,0.0,5.0,2018-08-19 12:35:00,,1.0,0.94,1.0,,KTRK,5899,-120.13333,39.31667
896,102641.39,N,,,,0.0,102492.4,1.0,,10.0,82558.91,KTRK 191255Z AUTO 00000KT 10SM CLR 05/01 A3031 RMK AO2,,75.32,0.0,5.0,2018-08-19 12:55:00,,1.0,0.94,1.0,,KTRK,5899,-120.13333,39.31667
897,102641.39,N,,,,0.0,102414.65,1.0,,10.0,82558.91,KTRK 191315Z AUTO 00000KT 10SM CLR 06/01 A3031 RMK AO2,,70.27,0.0,6.0,2018-08-19 13:15:00,,1.0,0.93,1.0,,KTRK,5899,-120.13333,39.31667
898,102641.39,N,,,,0.0,102570.75,1.0,,10.0,82558.91,KTRK 191335Z AUTO 00000KT 10SM CLR 04/01 A3031 RMK AO2,,80.78,0.0,4.0,2018-08-19 13:35:00,,1.0,0.96,1.0,,KTRK,5899,-120.13333,39.31667
899,102641.39,N,,,,0.0,102492.33,1.0,,10.0,82558.91,KTRK 191345Z 00000KT 10SM SKC 05/02 A3031,,80.92,0.0,5.0,2018-08-19 13:45:00,,2.0,1.96,1.0,,KTRK,5899,-120.13333,39.31667
900,102641.39,N,,,,0.0,101886.76,1.0,,10.0,82558.91,KTRK 191545Z 00000KT 10SM SKC 13/03 A3031,,50.65,0.0,13.0,2018-08-19 15:45:00,,3.0,2.92,1.0,,KTRK,5899,-120.13333,39.31667
901,102573.66,N,,,,0.0,101459.6,1.0,,10.0,82504.43,KTRK 191645Z 00000KT 10SM SKC 18/03 A3029,,36.77,0.0,18.0,2018-08-19 16:45:00,,3.0,2.93,1.0,,KTRK,5899,-120.13333,39.31667
902,102472.07,N,,,,0.0,100944.66,1.0,,10.0,82422.71,KTRK 191750Z 00000KT 10SM SKC 24/06 A3026,,31.39,0.0,24.0,2018-08-19 17:50:00,,6.0,5.99,1.0,,KTRK,5899,-120.13333,39.31667
